G0 X0.00026745014241574453 Y71.32299999999998 F100
G1 X48.10773254985749 Y71.3230000000001 F100
G1 X48.10773254985749 Y-0.0000000000001203185699220436 F100
G1 X0.00026745014241574453 Y-0.0000000000001203185699220436 F100
G1 X0.0002674501425360631 Y71.32299999999998 F100
G1 X0.00026745014241574453 Y71.32299999999998 F100;svg > polyline#gge97238
G0 X9.481070264601124 Y16.128980172008514
G1 X9.481070264601124 Y16.128980172008514 F100
G1 X9.481070264601124 Y14.918419566595357 F100;svg > polyline#gge97235
G0 X9.481070264601124 Y6.858006169159508
G1 X9.481070264601124 Y6.858006169159508 F100
G1 X9.481070264601124 Y8.068566774572542 F100;svg > polyline#gge97232
G0 X9.481070264601124 Y14.918419566595357
G1 X9.481070264601124 Y14.918419566595357 F100
G1 X8.18668989423076 Y13.624039196224993 F100
G1 X8.18668989423076 Y9.362947144942906 F100
G1 X9.481070264601124 Y8.068566774572542 F100;svg > polyline#gge97226
G0 X24.916860980413148 Y13.132042575854635
G1 X24.916860980413148 Y13.132042575854635 F100
G1 X24.916860980413148 Y12.913095189814836 F100
G1 X21.14776554950142 Y9.143999758903108 F100
G1 X10.556503248931568 Y9.143999758903108 F100
G1 X9.481070264601124 Y8.068566774572542 F100;svg > polyline#gge97223
G0 X19.1302492069088 Y23.875958448361786
G1 X19.1302492069088 Y23.875958448361786 F100
G1 X18.64993655377495 Y23.875958448361786 F100
G1 X17.006815161324802 Y25.519079840811813 F100
G1 X17.006815161324802 Y46.01098037856121 F100
G1 X22.68471523967228 Y51.688880456908805 F100
G1 X31.216805314458764 Y51.688880456908805 F100;svg > polyline#gge97220
G0 X31.216805314458764 Y54.22887333440173
G1 X31.216805314458764 Y54.22887333440173 F100
G1 X32.49442173183756 Y52.95125691702269 F100
G1 X32.49442173183756 Y41.12454208084037 F100
G1 X31.628792159187874 Y40.2589125081908 F100
G1 X28.45761105163812 Y40.2589125081908 F100
G1 X25.30598788924483 Y37.107289345797625 F100
G1 X25.30598788924483 Y35.831450923433025 F100
G1 X24.066725364316166 Y34.59218839850413 F100
G1 X19.68650764707979 Y34.59218839850413 F100
G1 X19.1302492069088 Y34.03592995833326 F100;svg > polyline#gge97211
G0 X23.50208494764952 Y29.888883587250653
G1 X23.50208494764952 Y29.888883587250653 F100
G1 X22.007299139245124 Y29.888883587250653 F100
G1 X19.1302492069088 Y32.76593351958686 F100;svg > polyline#gge97205
G0 X34.887857020299066 Y8.128002607905913
G1 X34.887857020299066 Y8.128002607905913 F100
G1 X31.94730726602574 Y8.128002607905913 F100
G1 X31.05830975890327 Y7.239005100783441 F100;svg > polyline#gge97202
G0 X29.76519938497152 Y7.239005100783441
G1 X29.76519938497152 Y7.239005100783441 F100
G1 X31.05830975890327 Y7.239005100783441 F100;svg > polyline#gge97196
G0 X27.080172914173815 Y15.103331048076925
G1 X27.080172914173815 Y15.103331048076925 F100
G1 X27.080172914173815 Y16.763978391381777 F100;svg > polyline#gge97190
G0 X21.129223601495656 Y7.112005456908838
G1 X21.129223601495656 Y7.112005456908838 F100
G1 X21.77590578810543 Y7.112005456908838 F100;svg > polyline#gge97187
G0 X21.77590578810543 Y7.112005456908838
G1 X21.77590578810543 Y7.112005456908838 F100
G1 X22.422333975427406 Y7.112005456908838 F100;svg > polyline#gge97184
G0 X21.77590578810543 Y7.112005456908838
G1 X21.77590578810543 Y7.112005456908838 F100
G1 X20.546041236823246 Y8.34187000819078 F100
G1 X12.439399969017067 Y8.34187000819078 F100
G1 X12.16609673539883 Y8.068566774572542 F100;svg > polyline#gge97181
G0 X12.16609673539883 Y6.858006169159508
G1 X12.16609673539883 Y6.858006169159508 F100
G1 X12.16609673539883 Y8.068566774572542 F100;svg > polyline#gge97178
G0 X25.664380884259124 Y7.239005100783441
G1 X25.664380884259124 Y7.239005100783441 F100
G1 X25.664380884259124 Y17.98673096260679 F100
G1 X29.179731026709316 Y21.502081105056984 F100
G1 X29.179731026709316 Y31.871856026709334 F100
G1 X31.216805314458764 Y33.90893031445866 F100;svg > polyline#gge97175
G0 X27.080172914173815 Y7.239005100783441
G1 X27.080172914173815 Y7.239005100783441 F100
G1 X25.664380884259124 Y7.239005100783441 F100;svg > polyline#gge97172
G0 X25.664380884259124 Y7.239005100783441
G1 X25.664380884259124 Y7.239005100783441 F100
G1 X22.549333619302132 Y7.239005100783441 F100
G1 X22.422333975427406 Y7.112005456908838 F100;svg > polyline#gge97169
G0 X31.216805314458764 Y59.30885908938746
G1 X31.216805314458764 Y59.30885908938746 F100
G1 X30.61203301032753 Y59.913631393518465 F100
G1 X25.974514014601095 Y59.913631393518465 F100
G1 X24.680387643518408 Y58.619505022435774 F100;svg > polyline#gge97166
G0 X11.404860870014227 Y58.495807369302014
G1 X11.404860870014227 Y58.495807369302014 F100
G1 X13.605510699074092 Y58.495807369302014 F100;svg > polyline#gge97163
G0 X11.404860870014227 Y52.75593146474359
G1 X11.404860870014227 Y52.75593146474359 F100
G1 X11.404860870014227 Y54.32640906089744 F100;svg > polyline#gge97160
G0 X11.404860870014227 Y54.32640906089744
G1 X11.404860870014227 Y54.32640906089744 F100
G1 X13.605510699074092 Y56.52705888995718 F100
G1 X13.605510699074092 Y58.495807369302014 F100;svg > polyline#gge97157
G0 X23.46982703810549 Y58.619505022435774
G1 X23.46982703810549 Y58.619505022435774 F100
G1 X24.07510734081195 Y58.619505022435774 F100;svg > polyline#gge97154
G0 X24.07510734081195 Y58.619505022435774
G1 X24.07510734081195 Y58.619505022435774 F100
G1 X24.680387643518408 Y58.619505022435774 F100;svg > polyline#gge97151
G0 X24.07510734081195 Y58.619505022435774
G1 X24.07510734081195 Y58.619505022435774 F100
G1 X22.78098096972926 Y59.913631393518465 F100
G1 X15.023334723290535 Y59.913631393518465 F100
G1 X13.605510699074092 Y58.495807369302014 F100;svg > polyline#gge97148
G0 X31.216805314458764 Y31.368937436965727
G1 X31.216805314458764 Y31.368937436965727 F100
G1 X29.76519938497152 Y29.917331507478607 F100
G1 X29.76519938497152 Y16.763978391381777 F100;svg > polyline#gge97145
G0 X27.080172914173815 Y12.06499156801997
G1 X27.080172914173815 Y12.06499156801997 F100
G1 X27.080172914173815 Y13.275552173432887 F100;svg > polyline#gge97142
G0 X29.76519938497152 Y16.763978391381777
G1 X29.76519938497152 Y16.763978391381777 F100
G1 X29.76519938497152 Y15.55341778596862 F100;svg > polyline#gge97139
G0 X27.080172914173815 Y13.275552173432887
G1 X27.080172914173815 Y13.275552173432887 F100
G1 X29.358038526709425 Y15.55341778596862 F100
G1 X29.76519938497152 Y15.55341778596862 F100;svg > polyline#gge97136
G0 X40.52968919978631 Y36.448923191951586
G1 X40.52968919978631 Y36.448923191951586 F100
G1 X40.52968919978631 Y37.59877796759252 F100;svg > polyline#gge97133
G0 X40.52968919978631 Y46.608894701923056
G1 X40.52968919978631 Y46.608894701923056 F100
G1 X40.52968919978631 Y45.45903992628201 F100;svg > polyline#gge97130
G0 X40.52968919978631 Y56.76886621189454
G1 X40.52968919978631 Y56.76886621189454 F100
G1 X40.52968919978631 Y55.61901143625349 F100;svg > polyline#gge97127
G0 X39.66736161787735 Y45.45903992628201
G1 X39.66736161787735 Y45.45903992628201 F100
G1 X39.31582660363242 Y45.810574940527054 F100
G1 X39.31582660363242 Y55.26747642200844 F100
G1 X39.66736161787735 Y55.61901143625349 F100
G1 X40.52968919978631 Y55.61901143625349 F100;svg > polyline#gge97124
G0 X40.52968919978631 Y37.59877796759252
G1 X40.52968919978631 Y37.59877796759252 F100
G1 X39.66736161787735 Y37.59877796759252 F100
G1 X39.31430260790602 Y37.951836977564085 F100
G1 X39.31430260790602 Y45.10598091631044 F100
G1 X39.66736161787735 Y45.45903992628201 F100;svg > polyline#gge97121
G0 X39.66736161787735 Y45.45903992628201
G1 X39.66736161787735 Y45.45903992628201 F100
G1 X40.52968919978631 Y45.45903992628201 F100;svg > polyline#gge97118
G0 X9.49986621189456 Y42.980514876424444
G1 X9.49986621189456 Y42.980514876424444 F100
G1 X10.710426817307596 Y42.980514876424444 F100;svg > polyline#gge97115
G0 X10.710426817307596 Y42.980514876424444
G1 X10.710426817307596 Y42.980514876424444 F100
G1 X11.286497201923078 Y42.40444449180896 F100
G1 X13.444983149216483 Y42.40444449180896 F100
G1 X13.5854447553418 Y42.544906097934394 F100;svg > polyline#gge97112
G0 X13.5854447553418 Y45.08489897542733
G1 X13.5854447553418 Y45.08489897542733 F100
G1 X11.29106918910254 Y45.08489897542733 F100
G1 X10.710426817307596 Y45.66554134722203 F100;svg > polyline#gge97109
G0 X9.49986621189456 Y45.66554134722203
G1 X9.49986621189456 Y45.66554134722203 F100
G1 X10.710426817307596 Y45.66554134722203 F100;svg > polyline#gge97106
G0 X9.49986621189456 Y33.20154229807678
G1 X9.49986621189456 Y33.20154229807678 F100
G1 X10.710426817307596 Y33.20154229807678 F100;svg > polyline#gge97103
G0 X10.710426817307596 Y33.20154229807678
G1 X10.710426817307596 Y33.20154229807678 F100
G1 X11.14603559579764 Y32.76593351958686 F100
G1 X13.5854447553418 Y32.76593351958686 F100;svg > polyline#gge97100
G0 X13.5854447553418 Y22.60596200961538
G1 X13.5854447553418 Y22.60596200961538 F100
G1 X11.019035951923037 Y22.60596200961538 F100
G1 X10.710426817307596 Y22.914571144230703 F100;svg > polyline#gge97097
G0 X9.49986621189456 Y22.914571144230703
G1 X9.49986621189456 Y22.914571144230703 F100
G1 X10.710426817307596 Y22.914571144230703 F100;svg > polyline#gge97094
G0 X13.5854447553418 Y25.14595488710819
G1 X13.5854447553418 Y25.14595488710819 F100
G1 X11.164069545227814 Y25.14595488710819 F100
G1 X10.710426817307596 Y25.599597615028408 F100;svg > polyline#gge97091
G0 X9.49986621189456 Y25.599597615028408
G1 X9.49986621189456 Y25.599597615028408 F100
G1 X10.710426817307596 Y25.599597615028408 F100;svg > polyline#gge97088
G0 X9.49986621189456 Y35.88656876887449
G1 X9.49986621189456 Y35.88656876887449 F100
G1 X10.710426817307596 Y35.88656876887449 F100;svg > polyline#gge97085
G0 X13.5854447553418 Y35.30592639707979
G1 X13.5854447553418 Y35.30592639707979 F100
G1 X13.4937510124644 Y35.39762013995718 F100
G1 X11.199375446225021 Y35.39762013995718 F100
G1 X10.710426817307596 Y35.88656876887449 F100;svg > polyline#gge97076
G0 X19.1302492069088 Y36.57592283582619
G1 X19.1302492069088 Y36.57592283582619 F100
G1 X21.59734428881765 Y39.04301791773492 F100
G1 X25.83252841274925 Y39.04301791773492 F100;svg > polyline#gge97073
G0 X26.51781849109684 Y35.88656876887449
G1 X26.51781849109684 Y35.88656876887449 F100
G1 X26.51781849109684 Y34.593458394942985 F100;svg > polyline#gge97067
G0 X26.51781849109684 Y34.593458394942985
G1 X26.51781849109684 Y34.593458394942985 F100
G1 X25.300907903490018 Y34.593458394942985 F100
G1 X25.261792013176493 Y34.554342504629574 F100;svg > polyline#gge97064
G0 X19.1302492069088 Y46.35489541417373
G1 X19.1302492069088 Y46.35489541417373 F100
G1 X20.032454676994192 Y47.257100884259124 F100
G1 X24.096697280270647 Y47.257100884259124 F100
G1 X25.307257885683683 Y46.04654027884597 F100;svg > polyline#gge97061
G0 X26.51781849109684 Y46.04654027884597
G1 X26.51781849109684 Y46.04654027884597 F100
G1 X25.307257885683683 Y46.04654027884597 F100;svg > polyline#gge97058
G0 X40.52968919978631 Y35.05878509009959
G1 X40.52968919978631 Y35.05878509009959 F100
G1 X41.392016781695034 Y35.05878509009959 F100
G1 X41.6808139718661 Y35.34758228027053 F100
G1 X41.6808139718661 Y41.76792227670929 F100
G1 X40.52968919978631 Y42.91904704878908 F100;svg > polyline#gge97055
G0 X40.52968919978631 Y33.90893031445866
G1 X40.52968919978631 Y33.90893031445866 F100
G1 X40.52968919978631 Y35.05878509009959 F100;svg > polyline#gge97052
G0 X40.52968919978631 Y44.06890182443013
G1 X40.52968919978631 Y44.06890182443013 F100
G1 X40.52968919978631 Y43.49410143625338 F100;svg > polyline#gge97049
G0 X40.52968919978631 Y43.49410143625338
G1 X40.52968919978631 Y43.49410143625338 F100
G1 X40.52968919978631 Y42.91904704878908 F100;svg > polyline#gge97046
G0 X40.52968919978631 Y43.49410143625338
G1 X40.52968919978631 Y43.49410143625338 F100
G1 X41.6808139718661 Y44.64522620833329 F100
G1 X41.6808139718661 Y51.92789378668089 F100
G1 X40.52968919978631 Y53.07901855876068 F100;svg > polyline#gge97043
G0 X40.52968919978631 Y54.22887333440173
G1 X40.52968919978631 Y54.22887333440173 F100
G1 X40.52968919978631 Y53.07901855876068 F100;svg > polyline#gge97037
G0 X26.51781849109684 Y23.42256971972924
G1 X26.51781849109684 Y23.42256971972924 F100
G1 X25.307257885683683 Y23.42256971972924 F100;svg > polyline#gge97028
G0 X25.307257885683683 Y23.42256971972924
G1 X25.307257885683683 Y23.42256971972924 F100
G1 X25.307257885683683 Y20.27983653240732 F100
G1 X24.66057569907415 Y19.633154345797664 F100;svg > polyline#gge97025
G0 X26.51781849109684 Y26.107596190526948
G1 X26.51781849109684 Y26.107596190526948 F100
G1 X26.51781849109684 Y27.400706564458698 F100;svg > polyline#gge97022
G0 X26.51781849109684 Y27.400706564458698
G1 X26.51781849109684 Y27.400706564458698 F100
G1 X26.128437582977124 Y27.79008747257829 F100
G1 X20.504385353632497 Y27.79008747257829 F100
G1 X19.1302492069088 Y26.415951325854714 F100;svg > polyline#gge97019
G0 X22.96182846260683 Y23.42256971972924
G1 X22.96182846260683 Y23.42256971972924 F100
G1 X21.751267857193675 Y23.42256971972924 F100;svg > polyline#gge97016
G0 X6.070875827279281 Y10.413996197649514
G1 X6.070875827279281 Y10.413996197649514 F100
G1 X6.070875827279281 Y11.563850973290446 F100;svg > polyline#gge97013
G0 X6.070875827279281 Y11.563850973290446
G1 X6.070875827279281 Y11.563850973290446 F100
G1 X6.9332034091880015 Y11.563850973290446 F100
G1 X7.4597439326923025 Y12.090391496794869 F100
G1 X7.4597439326923025 Y16.544523006766386 F100
G1 X11.330693077991413 Y20.4154721520655 F100
G1 X18.744170289529936 Y20.4154721520655 F100
G1 X21.751267857193675 Y23.42256971972924 F100;svg > polyline#gge96986
G0 X13.704824420584009 Y46.47427507941582
G1 X13.704824420584009 Y46.47427507941582 F100
G1 X13.5854447553418 Y46.35489541417373 F100;svg > polyline#gge96983
G0 X13.878813932692328 Y36.8692920131766
G1 X13.878813932692328 Y36.8692920131766 F100
G1 X13.5854447553418 Y36.57592283582619 F100;svg > polyline#gge96980
G0 X18.389841283119633 Y55.934224552350386
G1 X18.389841283119633 Y55.934224552350386 F100
G1 X18.389841283119633 Y55.287796365028406 F100;svg > polyline#gge96977
G0 X18.389841283119633 Y55.287796365028406
G1 X18.389841283119633 Y55.287796365028406 F100
G1 X19.037539466880343 Y54.6400981812677 F100
G1 X25.410127597222242 Y54.6400981812677 F100
G1 X26.704253968304695 Y55.934224552350386 F100;svg > polyline#gge96974
G0 X13.704824420584009 Y46.47427507941582
G1 X13.704824420584009 Y46.47427507941582 F100
G1 X13.704824420584009 Y52.75593146474359 F100;svg > polyline#gge96971
G0 X13.704824420584009 Y54.32640906089744
G1 X13.704824420584009 Y54.32640906089744 F100
G1 X17.42845397898855 Y54.32640906089744 F100
G1 X18.389841283119633 Y55.287796365028406 F100;svg > polyline#gge96968
G0 X13.704824420584009 Y52.75593146474359
G1 X13.704824420584009 Y52.75593146474359 F100
G1 X13.704824420584009 Y54.32640906089744 F100;svg > polyline#gge96965
G0 X13.878813932692328 Y36.8692920131766
G1 X13.878813932692328 Y36.8692920131766 F100
G1 X15.009618761752147 Y35.73848718411678 F100
G1 X15.009618761752147 Y27.840125332264947 F100
G1 X13.5854447553418 Y26.415951325854714 F100;svg > polyline#gge96962
G0 X13.704824420584009 Y46.47427507941582
G1 X13.704824420584009 Y46.47427507941582 F100
G1 X13.985493633546966 Y46.47427507941582 F100
G1 X15.02130272898854 Y45.438465983974254 F100
G1 X15.02130272898854 Y38.01178080947281 F100
G1 X13.878813932692328 Y36.8692920131766 F100;svg > polyline#gge96959
G0 X27.914814573717965 Y55.934224552350386
G1 X27.914814573717965 Y55.934224552350386 F100
G1 X27.309534271011508 Y55.934224552350386 F100;svg > polyline#gge96956
G0 X27.309534271011508 Y55.934224552350386
G1 X27.309534271011508 Y55.934224552350386 F100
G1 X26.704253968304695 Y55.934224552350386 F100;svg > polyline#gge96953
G0 X34.887857020299066 Y18.287974117877507
G1 X34.887857020299066 Y18.287974117877507 F100
G1 X34.887857020299066 Y56.23241971616805 F100;svg > polyline#gge96947
G0 X27.309534271011508 Y55.934224552350386
G1 X27.309534271011508 Y55.934224552350386 F100
G1 X27.75885901103982 Y55.934224552350386 F100
G1 X29.357784527421636 Y57.5331500687322 F100;svg > polyline#gge96944
G0 X18.44419713069807 Y12.767553597934347
G1 X18.44419713069807 Y12.767553597934347 F100
G1 X20.976062030982895 Y15.299418498219293 F100
G1 X21.129223601495656 Y15.299418498219293 F100;svg > polyline#gge96941
G0 X18.44419713069807 Y11.556992992521312
G1 X18.44419713069807 Y11.556992992521312 F100
G1 X18.44419713069807 Y12.767553597934347 F100;svg > polyline#gge96938
G0 X21.129223601495656 Y16.509979103632446
G1 X21.129223601495656 Y16.509979103632446 F100
G1 X21.129223601495656 Y15.90469880092587 F100;svg > polyline#gge96935
G0 X21.129223601495656 Y15.90469880092587
G1 X21.129223601495656 Y15.90469880092587 F100
G1 X21.129223601495656 Y15.299418498219293 F100;svg > polyline#gge96932
G0 X21.129223601495656 Y15.90469880092587
G1 X21.129223601495656 Y15.90469880092587 F100
G1 X21.960055271723615 Y15.90469880092587 F100
G1 X27.729649092948726 Y21.674292622150983 F100
G1 X27.729649092948726 Y35.50175984793436 F100
G1 X31.216805314458764 Y38.9889160694444 F100;svg > polyline#gge96923
G0 X22.96182846260683 Y26.107596190526948
G1 X22.96182846260683 Y26.107596190526948 F100
G1 X21.751267857193675 Y26.107596190526948 F100;svg > polyline#gge96920
G0 X21.52520849109683 Y26.92775989066945
G1 X21.52520849109683 Y26.92775989066945 F100
G1 X21.751267857193675 Y26.7017005245726 F100
G1 X21.751267857193675 Y26.107596190526948 F100;svg > polyline#gge96914
G0 X13.5854447553418 Y23.875958448361786
G1 X13.5854447553418 Y23.875958448361786 F100
G1 X15.252188081552765 Y23.875958448361786 F100;svg > polyline#gge96908
G0 X9.481070264601124 Y11.429993348646708
G1 X9.481070264601124 Y11.429993348646708 F100
G1 X9.481070264601124 Y12.640553954059744 F100;svg > polyline#gge96905
G0 X12.16609673539883 Y14.918419566595357
G1 X12.16609673539883 Y14.918419566595357 F100
G1 X11.758935877136736 Y14.918419566595357 F100
G1 X9.481070264601124 Y12.640553954059744 F100;svg > polyline#gge96902
G0 X12.16609673539883 Y15.523699869301934
G1 X12.16609673539883 Y15.523699869301934 F100
G1 X12.16609673539883 Y14.918419566595357 F100;svg > polyline#gge96899
G0 X12.16609673539883 Y15.523699869301934
G1 X12.16609673539883 Y15.523699869301934 F100
G1 X12.16609673539883 Y16.128980172008514 F100;svg > polyline#gge96896
G0 X12.16609673539883 Y16.128980172008514
G1 X12.16609673539883 Y16.128980172008514 F100
G1 X12.16609673539883 Y17.339540777421547 F100;svg > polyline#gge96890
G0 X12.16609673539883 Y17.339540777421547
G1 X12.16609673539883 Y17.339540777421547 F100
G1 X13.156947956908805 Y17.339540777421547 F100
G1 X13.352019409900231 Y17.53461223041298 F100;svg > polyline#gge96887
G0 X19.1302492069088 Y42.544906097934394
G1 X19.1302492069088 Y42.544906097934394 F100
G1 X20.146246357905998 Y41.52890894693732 F100
G1 X31.216805314458764 Y41.52890894693732 F100;svg > polyline#gge96884
G0 X31.216805314458764 Y49.14888757941587
G1 X31.216805314458764 Y49.14888757941587 F100
G1 X31.216805314458764 Y48.28782999394576 F100
G1 X27.628557376424364 Y44.699582055911605 F100
G1 X24.98290079522786 Y44.699582055911605 F100
G1 X24.878253088675212 Y44.594934349358965 F100
G1 X20.87039832727919 Y44.594934349358965 F100
G1 X20.09036651460115 Y43.814902536680925 F100
G1 X19.1302492069088 Y43.814902536680925 F100;svg > polyline#gge96875
G0 X22.96182846260683 Y45.91954063497136
G1 X22.96182846260683 Y45.91954063497136 F100
G1 X21.751267857193675 Y45.91954063497136 F100;svg > polyline#gge96872
G0 X21.487108597934487 Y45.745805122150955
G1 X21.487108597934487 Y45.745805122150955 F100
G1 X21.57753234437315 Y45.745805122150955 F100
G1 X21.751267857193675 Y45.91954063497136 F100;svg > polyline#gge96866
G0 X13.5854447553418 Y43.814902536680925
G1 X13.5854447553418 Y43.814902536680925 F100
G1 X12.803888946937352 Y43.814902536680925 F100
G1 X12.1627947446581 Y43.17380833440155 F100;svg > polyline#gge96857
G0 X22.96182846260683 Y43.234514164173646
G1 X22.96182846260683 Y43.234514164173646 F100
G1 X21.751267857193675 Y43.234514164173646 F100;svg > polyline#gge96854
G0 X21.751267857193675 Y43.234514164173646
G1 X21.751267857193675 Y43.234514164173646 F100
G1 X21.751267857193675 Y42.52280815990024 F100
G1 X21.506158544515596 Y42.277698847222155 F100;svg > polyline#gge96845
G0 X31.216805314458764 Y56.76886621189454
G1 X31.216805314458764 Y56.76886621189454 F100
G1 X29.36642050320521 Y58.619251023148095 F100
G1 X27.914814573717965 Y58.619251023148095 F100;svg > polyline#gge96842
G0 X29.76519938497152 Y12.06499156801997
G1 X29.76519938497152 Y12.06499156801997 F100
G1 X29.76519938497152 Y13.275552173432887 F100;svg > polyline#gge96839
G0 X12.16609673539883 Y11.429993348646708
G1 X12.16609673539883 Y11.429993348646708 F100
G1 X13.45920710933046 Y11.429993348646708 F100;svg > polyline#gge96836
G0 X21.129223601495656 Y11.556992992521312
G1 X21.129223601495656 Y11.556992992521312 F100
G1 X21.129223601495656 Y10.346432387108276 F100;svg > polyline#gge96833
G0 X22.86454673539891 Y55.93447855163806
G1 X22.86454673539891 Y55.93447855163806 F100
G1 X22.259266432692215 Y55.93447855163806 F100;svg > polyline#gge96830
G0 X22.86454673539891 Y55.93447855163806
G1 X22.86454673539891 Y55.93447855163806 F100
G1 X23.46982703810549 Y55.93447855163806 F100;svg > polyline#gge96827
G0 X24.680387643518408 Y55.93447855163806
G1 X24.680387643518408 Y55.93447855163806 F100
G1 X24.680387643518408 Y56.59538469836181 F100
G1 X26.704253968304695 Y58.619251023148095 F100;svg > polyline#gge96824
G0 X27.914814573717965 Y58.619251023148095
G1 X27.914814573717965 Y58.619251023148095 F100
G1 X26.704253968304695 Y58.619251023148095 F100;svg > polyline#gge96821
G0 X23.46982703810549 Y55.93447855163806
G1 X23.46982703810549 Y55.93447855163806 F100
G1 X24.680387643518408 Y55.93447855163806 F100;svg > polyline#gge96818
G0 X18.870407935541277 Y58.619251023148095
G1 X18.870407935541277 Y58.619251023148095 F100
G1 X19.600401888532666 Y58.619251023148095 F100;svg > polyline#gge96815
G0 X18.870407935541277 Y58.619251023148095
G1 X18.870407935541277 Y58.619251023148095 F100
G1 X18.389841283119633 Y58.619251023148095 F100;svg > polyline#gge96812
G0 X9.104897319444445 Y52.75593146474359
G1 X9.104897319444445 Y52.75593146474359 F100
G1 X9.104897319444445 Y51.185453868589605 F100;svg > polyline#gge96809
G0 X19.600401888532666 Y58.619251023148095
G1 X19.600401888532666 Y58.619251023148095 F100
G1 X19.60167188497152 Y58.617981026709366 F100
G1 X19.60167188497152 Y55.93447855163806 F100
G1 X22.259266432692215 Y55.93447855163806 F100;svg > polyline#gge96806
G0 X9.104897319444445 Y51.185453868589605
G1 X9.104897319444445 Y51.185453868589605 F100
G1 X9.189479082264917 Y51.10087210576913 F100
G1 X12.076942985398777 Y51.10087210576913 F100
G1 X12.29665236930196 Y51.320581489672314 F100
G1 X12.29665236930196 Y53.73662271474357 F100
G1 X17.179280677706597 Y58.619251023148095 F100;svg > polyline#gge96803
G0 X18.389841283119633 Y58.619251023148095
G1 X18.389841283119633 Y58.619251023148095 F100
G1 X17.179280677706597 Y58.619251023148095 F100;svg > polyline#gge96800
G0 X19.1302492069088 Y35.30592639707979
G1 X19.1302492069088 Y35.30592639707979 F100
G1 X17.606253480413066 Y35.30592639707979 F100;svg > polyline#gge96797
G0 X19.1302492069088 Y45.08489897542733
G1 X19.1302492069088 Y45.08489897542733 F100
G1 X18.687528448361707 Y45.08489897542733 F100
G1 X17.606253480413066 Y44.003624007478564 F100
G1 X17.606253480413066 Y35.30592639707979 F100;svg > polyline#gge96794
G0 X34.887857020299066 Y15.874980884259184
G1 X34.887857020299066 Y15.874980884259184 F100
G1 X33.862715894942944 Y15.874980884259184 F100;svg > polyline#gge96791
G0 X29.76519938497152 Y13.275552173432887
G1 X29.76519938497152 Y13.275552173432887 F100
G1 X30.82361441702285 Y13.275552173432887 F100
G1 X33.58052268625347 Y16.032460442663737 F100;svg > polyline#gge96788
G0 X33.862715894942944 Y15.874980884259184
G1 X33.862715894942944 Y15.874980884259184 F100
G1 X33.73800224465801 Y15.874980884259184 F100
G1 X33.58052268625347 Y16.032460442663737 F100;svg > polyline#gge96785
G0 X33.58052268625347 Y16.032460442663737
G1 X33.58052268625347 Y16.032460442663737 F100
G1 X33.58052268625347 Y54.40514884009973 F100
G1 X31.216805314458764 Y56.76886621189454 F100;svg > polyline#gge96782
G0 X21.129223601495656 Y11.556992992521312
G1 X21.129223601495656 Y11.556992992521312 F100
G1 X22.422333975427406 Y11.556992992521312 F100;svg > polyline#gge96776
G0 X22.608515453347465 Y12.692369808760597
G1 X22.608515453347465 Y12.692369808760597 F100
G1 X22.422333975427406 Y12.506188330840295 F100
G1 X22.422333975427406 Y11.556992992521312 F100;svg > polyline#gge96773
G0 X13.45920710933046 Y11.429993348646708
G1 X13.45920710933046 Y11.429993348646708 F100
G1 X17.086824936965815 Y11.429993348646708 F100;svg > polyline#gge96770
G0 X19.1302492069088 Y25.14595488710819
G1 X19.1302492069088 Y25.14595488710819 F100
G1 X19.462988273860407 Y24.813215820156586 F100
G1 X23.941503715455884 Y24.813215820156586 F100
G1 X24.256716831552666 Y24.498002704059683 F100
G1 X24.256716831552666 Y22.372536664173694 F100
G1 X19.83179523967236 Y17.947615072293388 F100
G1 X19.83179523967236 Y15.449786076566914 F100
G1 X17.086824936965815 Y12.704815773860371 F100
G1 X17.086824936965815 Y11.429993348646708 F100;svg > polyline#gge96767
G0 X17.086824936965815 Y11.429993348646708
G1 X17.086824936965815 Y11.429993348646708 F100
G1 X17.086824936965815 Y10.534137860754983 F100
G1 X17.38527410007115 Y10.235688697649525 F100
G1 X21.018479912037026 Y10.235688697649525 F100
G1 X21.129223601495656 Y10.346432387108276 F100;svg > polyline#gge96764
G0 X17.606253480413066 Y35.30592639707979
G1 X17.606253480413066 Y35.30592639707979 F100
G1 X17.606253480413066 Y26.223927864316103 F100
G1 X18.684226457620976 Y25.14595488710819 F100
G1 X19.1302492069088 Y25.14595488710819 F100;svg > polyline#gge96755
G0 X18.44419713069807 Y7.112005456908838
G1 X18.44419713069807 Y7.112005456908838 F100
G1 X17.15108675676632 Y7.112005456908838 F100;svg > polyline#gge96752
G0 X16.925027390669474 Y6.885946090811871
G1 X16.925027390669474 Y6.885946090811871 F100
G1 X17.15108675676632 Y7.112005456908838 F100;svg > polyline#gge96749
G0 X18.44419713069807 Y15.299418498219293
G1 X18.44419713069807 Y15.299418498219293 F100
G1 X15.883884310185177 Y12.739105677706517 F100
G1 X15.883884310185177 Y12.529556265313317 F100;svg > polyline#gge96746
G0 X18.44419713069807 Y16.509979103632446
G1 X18.44419713069807 Y16.509979103632446 F100
G1 X18.44419713069807 Y15.299418498219293 F100;svg > polyline#gge96731
G0 X17.138640791666546 Y24.077633882834675
G1 X17.138640791666546 Y24.077633882834675 F100
G1 X18.61031266488608 Y22.60596200961538 F100
G1 X19.1302492069088 Y22.60596200961538 F100;svg > polyline#gge96719
G0 X13.5854447553418 Y34.03592995833326
G1 X13.5854447553418 Y34.03592995833326 F100
G1 X12.763249060897422 Y34.03592995833326 F100
G1 X12.12825084152428 Y34.67092817770653 F100;svg > polyline#gge96713
G0 X21.339281012464326 Y36.06843225890312
G1 X21.339281012464326 Y36.06843225890312 F100
G1 X21.569404367165166 Y36.06843225890312 F100
G1 X21.751267857193675 Y35.88656876887449 F100;svg > polyline#gge96710
G0 X22.96182846260683 Y35.88656876887449
G1 X22.96182846260683 Y35.88656876887449 F100
G1 X21.751267857193675 Y35.88656876887449 F100;svg > polyline#gge96698
G0 X25.4111435943733 Y28.53176539280619
G1 X25.4111435943733 Y28.53176539280619 F100
G1 X25.4111435943733 Y31.962787771723594 F100
G1 X24.17238906801987 Y33.20154229807678 F100;svg > polyline#gge96695
G0 X22.96182846260683 Y33.20154229807678
G1 X22.96182846260683 Y33.20154229807678 F100
G1 X24.17238906801987 Y33.20154229807678 F100;svg > polyline#gge96686
G0 X25.307257885683683 Y33.20154229807678
G1 X25.307257885683683 Y33.20154229807678 F100
G1 X25.307257885683683 Y33.22643422827621 F100
G1 X25.076626532407495 Y33.45706558155264 F100;svg > polyline#gge96680
G0 X16.086829741096917 Y24.95672541773496
G1 X16.086829741096917 Y24.95672541773496 F100
G1 X16.086829741096917 Y23.2981100687321 F100
G1 X14.379954527421612 Y21.591234855056914 F100
G1 X11.796527771723612 Y21.591234855056914 F100
G1 X7.088142974715089 Y16.882850058048394 F100
G1 X5.190768295227938 Y16.882850058048394 F100
G1 X4.919751055199374 Y16.611832818019828 F100
G1 X4.919751055199374 Y9.312655285968582 F100
G1 X5.208548245370439 Y9.023858095797639 F100
G1 X6.070875827279281 Y9.023858095797639 F100;svg > polyline#gge96677
G0 X6.070875827279281 Y7.874003320156702
G1 X6.070875827279281 Y7.874003320156702 F100
G1 X6.070875827279281 Y9.023858095797639 F100;svg > polyline#gge96674
G0 X26.51781849109684 Y33.20154229807678
G1 X26.51781849109684 Y33.20154229807678 F100
G1 X25.307257885683683 Y33.20154229807678 F100;svg > polyline#gge96665
G0 X26.51781849109684 Y43.36151380804838
G1 X26.51781849109684 Y43.36151380804838 F100
G1 X25.307257885683683 Y43.36151380804838 F100;svg > polyline#gge96662
G0 X25.307257885683683 Y43.36151380804838
G1 X25.307257885683683 Y43.36151380804838 F100
G1 X25.307257885683683 Y42.488264256766286 F100
G1 X25.07967452386031 Y42.26068089494292 F100;svg > g#gge1239 > polygon
G0 X8.689837083333332 Y43.87296677386037
G1 X8.689837083333332 Y43.87296677386037 F100
G1 X10.309844540598254 Y43.87296677386037 F100
G1 X10.309844540598254 Y42.08798677920216 F100
G1 X8.689837083333332 Y42.08798677920216 F100
G1 X8.689837083333332 Y43.87296677386037 F100;svg > g#gge1251 > polygon
G0 X8.689837083333332 Y44.77298785007116
G1 X8.689837083333332 Y44.77298785007116 F100
G1 X10.309844540598254 Y44.77298785007116 F100
G1 X10.309844540598254 Y46.55796784472925 F100
G1 X8.689837083333332 Y46.55796784472925 F100
G1 X8.689837083333332 Y44.77298785007116 F100;svg > g#gge1329 > polygon
G0 X8.689837083333332 Y34.09399419551283
G1 X8.689837083333332 Y34.09399419551283 F100
G1 X10.309844540598254 Y34.09399419551283 F100
G1 X10.309844540598254 Y32.30901420085461 F100
G1 X8.689837083333332 Y32.30901420085461 F100
G1 X8.689837083333332 Y34.09399419551283 F100;svg > g#gge1341 > polygon
G0 X8.689837083333332 Y34.99401527172362
G1 X8.689837083333332 Y34.99401527172362 F100
G1 X10.309844540598254 Y34.99401527172362 F100
G1 X10.309844540598254 Y36.778995266381585 F100
G1 X8.689837083333332 Y36.778995266381585 F100
G1 X8.689837083333332 Y34.99401527172362 F100;svg > g#gge1419 > polygon
G0 X8.689837083333332 Y23.807023041666625
G1 X8.689837083333332 Y23.807023041666625 F100
G1 X10.309844540598254 Y23.807023041666625 F100
G1 X10.309844540598254 Y22.022043047008413 F100
G1 X8.689837083333332 Y22.022043047008413 F100
G1 X8.689837083333332 Y23.807023041666625 F100;svg > g#gge1431 > polygon
G0 X8.689837083333332 Y24.707044117877413
G1 X8.689837083333332 Y24.707044117877413 F100
G1 X10.309844540598254 Y24.707044117877413 F100
G1 X10.309844540598254 Y26.492024112535507 F100
G1 X8.689837083333332 Y26.492024112535507 F100
G1 X8.689837083333332 Y24.707044117877413 F100;svg > g#gge1509 > polygon
G0 X28.72476750249283 Y57.72674832585463
G1 X28.72476750249283 Y57.72674832585463 F100
G1 X27.10476004522803 Y57.72674832585463 F100
G1 X27.10476004522803 Y59.51172832051273 F100
G1 X28.72476750249283 Y59.51172832051273 F100
G1 X28.72476750249283 Y57.72674832585463 F100;svg > g#gge1521 > polygon
G0 X28.72476750249283 Y56.826727249643724
G1 X28.72476750249283 Y56.826727249643724 F100
G1 X27.10476004522803 Y56.826727249643724 F100
G1 X27.10476004522803 Y55.04174725498576 F100
G1 X28.72476750249283 Y55.04174725498576 F100
G1 X28.72476750249283 Y56.826727249643724 F100;svg > g#gge1599 > polygon
G0 X22.1517739341169 Y44.12696606160958
G1 X22.1517739341169 Y44.12696606160958 F100
G1 X23.77178139138182 Y44.12696606160958 F100
G1 X23.77178139138182 Y42.34198606695149 F100
G1 X22.1517739341169 Y42.34198606695149 F100
G1 X22.1517739341169 Y44.12696606160958 F100;svg > g#gge1611 > polygon
G0 X22.1517739341169 Y45.02698713782049
G1 X22.1517739341169 Y45.02698713782049 F100
G1 X23.77178139138182 Y45.02698713782049 F100
G1 X23.77178139138182 Y46.81196713247846 F100
G1 X22.1517739341169 Y46.81196713247846 F100
G1 X22.1517739341169 Y45.02698713782049 F100;svg > g#gge1689 > polygon
G0 X22.1517739341169 Y34.09399419551283
G1 X22.1517739341169 Y34.09399419551283 F100
G1 X23.77178139138182 Y34.09399419551283 F100
G1 X23.77178139138182 Y32.30901420085461 F100
G1 X22.1517739341169 Y32.30901420085461 F100
G1 X22.1517739341169 Y34.09399419551283 F100;svg > g#gge1701 > polygon
G0 X22.1517739341169 Y34.99401527172362
G1 X22.1517739341169 Y34.99401527172362 F100
G1 X23.77178139138182 Y34.99401527172362 F100
G1 X23.77178139138182 Y36.778995266381585 F100
G1 X22.1517739341169 Y36.778995266381585 F100
G1 X22.1517739341169 Y34.99401527172362 F100;svg > g#gge1779 > polygon
G0 X22.1517739341169 Y24.31502161716516
G1 X22.1517739341169 Y24.31502161716516 F100
G1 X23.77178139138182 Y24.31502161716516 F100
G1 X23.77178139138182 Y22.53004162250707 F100
G1 X22.1517739341169 Y22.53004162250707 F100
G1 X22.1517739341169 Y24.31502161716516 F100;svg > g#gge1791 > polygon
G0 X22.1517739341169 Y25.215042693376073
G1 X22.1517739341169 Y25.215042693376073 F100
G1 X23.77178139138182 Y25.215042693376073 F100
G1 X23.77178139138182 Y27.00002268803404 F100
G1 X22.1517739341169 Y27.00002268803404 F100
G1 X22.1517739341169 Y25.215042693376073 F100;svg > g#gge1869 > polygon
G0 X25.707763962606904 Y44.253965705484305
G1 X25.707763962606904 Y44.253965705484305 F100
G1 X27.327771419871823 Y44.253965705484305 F100
G1 X27.327771419871823 Y42.4689857108261 F100
G1 X25.707763962606904 Y42.4689857108261 F100
G1 X25.707763962606904 Y44.253965705484305 F100;svg > g#gge1881 > polygon
G0 X25.707763962606904 Y45.15398678169509
G1 X25.707763962606904 Y45.15398678169509 F100
G1 X27.327771419871823 Y45.15398678169509 F100
G1 X27.327771419871823 Y46.93896677635318 F100
G1 X25.707763962606904 Y46.93896677635318 F100
G1 X25.707763962606904 Y45.15398678169509 F100;svg > g#gge1959 > polygon
G0 X25.707763962606904 Y34.09399419551283
G1 X25.707763962606904 Y34.09399419551283 F100
G1 X27.327771419871823 Y34.09399419551283 F100
G1 X27.327771419871823 Y32.30901420085461 F100
G1 X25.707763962606904 Y32.30901420085461 F100
G1 X25.707763962606904 Y34.09399419551283 F100;svg > g#gge1971 > polygon
G0 X25.707763962606904 Y34.99401527172362
G1 X25.707763962606904 Y34.99401527172362 F100
G1 X27.327771419871823 Y34.99401527172362 F100
G1 X27.327771419871823 Y36.778995266381585 F100
G1 X25.707763962606904 Y36.778995266381585 F100
G1 X25.707763962606904 Y34.99401527172362 F100;svg > g#gge2049 > polygon
G0 X25.707763962606904 Y24.31502161716516
G1 X25.707763962606904 Y24.31502161716516 F100
G1 X27.327771419871823 Y24.31502161716516 F100
G1 X27.327771419871823 Y22.53004162250707 F100
G1 X25.707763962606904 Y22.53004162250707 F100
G1 X25.707763962606904 Y24.31502161716516 F100;svg > g#gge2061 > polygon
G0 X25.707763962606904 Y25.215042693376073
G1 X25.707763962606904 Y25.215042693376073 F100
G1 X27.327771419871823 Y25.215042693376073 F100
G1 X27.327771419871823 Y27.00002268803404 F100
G1 X25.707763962606904 Y27.00002268803404 F100
G1 X25.707763962606904 Y25.215042693376073 F100;svg > g#gge2139 > polygon
G0 X19.19979421189462 Y57.72674832585463
G1 X19.19979421189462 Y57.72674832585463 F100
G1 X17.579786754629577 Y57.72674832585463 F100
G1 X17.579786754629577 Y59.51172832051273 F100
G1 X19.19979421189462 Y59.51172832051273 F100
G1 X19.19979421189462 Y57.72674832585463 F100;svg > g#gge2151 > polygon
G0 X19.19979421189462 Y56.826727249643724
G1 X19.19979421189462 Y56.826727249643724 F100
G1 X17.579786754629577 Y56.826727249643724 F100
G1 X17.579786754629577 Y55.04174725498576 F100
G1 X19.19979421189462 Y55.04174725498576 F100
G1 X19.19979421189462 Y56.826727249643724 F100;svg > g#gge2229 > polygon
G0 X22.65982330947285 Y56.826930449073984
G1 X22.65982330947285 Y56.826930449073984 F100
G1 X24.27983076673777 Y56.826930449073984 F100
G1 X24.27983076673777 Y55.04195045441589 F100
G1 X22.65982330947285 Y55.04195045441589 F100
G1 X22.65982330947285 Y56.826930449073984 F100;svg > g#gge2241 > polygon
G0 X22.65982330947285 Y57.72695152528489
G1 X22.65982330947285 Y57.72695152528489 F100
G1 X24.27983076673777 Y57.72695152528489 F100
G1 X24.27983076673777 Y59.51193151994286 F100
G1 X22.65982330947285 Y59.51193151994286 F100
G1 X22.65982330947285 Y57.72695152528489 F100;svg > g#gge2319 > polygon
G0 X11.273721037749267 Y6.048002440526988
G1 X11.273721037749267 Y6.048002440526988 F100
G1 X11.273721037749267 Y7.668009897791908 F100
G1 X13.05870103240736 Y7.668009897791908 F100
G1 X13.05870103240736 Y6.048002440526988 F100
G1 X11.273721037749267 Y6.048002440526988 F100;svg > g#gge2331 > polygon
G0 X10.37369996153848 Y6.048002440526988
G1 X10.37369996153848 Y6.048002440526988 F100
G1 X10.37369996153848 Y7.668009897791908 F100
G1 X8.588719966880266 Y7.668009897791908 F100
G1 X8.588719966880266 Y6.048002440526988 F100
G1 X10.37369996153848 Y6.048002440526988 F100;svg > g#gge2409 > polygon
G0 X11.273721037749267 Y15.318976443375991
G1 X11.273721037749267 Y15.318976443375991 F100
G1 X11.273721037749267 Y16.938983900640913 F100
G1 X13.05870103240736 Y16.938983900640913 F100
G1 X13.05870103240736 Y15.318976443375991 F100
G1 X11.273721037749267 Y15.318976443375991 F100;svg > g#gge2421 > polygon
G0 X10.37369996153848 Y15.318976443375991
G1 X10.37369996153848 Y15.318976443375991 F100
G1 X10.37369996153848 Y16.938983900640913 F100
G1 X8.588719966880266 Y16.938983900640913 F100
G1 X8.588719966880266 Y15.318976443375991 F100
G1 X10.37369996153848 Y15.318976443375991 F100;svg > g#gge2499 > polygon
G0 X11.273721037749267 Y10.61998962001419
G1 X11.273721037749267 Y10.61998962001419 F100
G1 X11.273721037749267 Y12.239997077279108 F100
G1 X13.05870103240736 Y12.239997077279108 F100
G1 X13.05870103240736 Y10.61998962001419 F100
G1 X11.273721037749267 Y10.61998962001419 F100;svg > g#gge2511 > polygon
G0 X10.37369996153848 Y10.61998962001419
G1 X10.37369996153848 Y10.61998962001419 F100
G1 X10.37369996153848 Y12.239997077279108 F100
G1 X8.588719966880266 Y12.239997077279108 F100
G1 X8.588719966880266 Y10.61998962001419 F100
G1 X10.37369996153848 Y10.61998962001419 F100;svg > g#gge2589 > polygon
G0 X20.23669550427349 Y6.302001728276196
G1 X20.23669550427349 Y6.302001728276196 F100
G1 X20.23669550427349 Y7.922009185541236 F100
G1 X22.021675498931703 Y7.922009185541236 F100
G1 X22.021675498931703 Y6.302001728276196 F100
G1 X20.23669550427349 Y6.302001728276196 F100;svg > g#gge2601 > polygon
G0 X19.3366744280627 Y6.302001728276196
G1 X19.3366744280627 Y6.302001728276196 F100
G1 X19.3366744280627 Y7.922009185541236 F100
G1 X17.55169443340449 Y7.922009185541236 F100
G1 X17.55169443340449 Y6.302001728276196 F100
G1 X19.3366744280627 Y6.302001728276196 F100;svg > g#gge2679 > polygon
G0 X20.23669550427349 Y15.699975374999928
G1 X20.23669550427349 Y15.699975374999928 F100
G1 X20.23669550427349 Y17.319982832264845 F100
G1 X22.021675498931703 Y17.319982832264845 F100
G1 X22.021675498931703 Y15.699975374999928 F100
G1 X20.23669550427349 Y15.699975374999928 F100;svg > g#gge2691 > polygon
G0 X19.3366744280627 Y15.699975374999928
G1 X19.3366744280627 Y15.699975374999928 F100
G1 X19.3366744280627 Y17.319982832264845 F100
G1 X17.55169443340449 Y17.319982832264845 F100
G1 X17.55169443340449 Y15.699975374999928 F100
G1 X19.3366744280627 Y15.699975374999928 F100;svg > g#gge2769 > polygon
G0 X20.23669550427349 Y10.746989263888793
G1 X20.23669550427349 Y10.746989263888793 F100
G1 X20.23669550427349 Y12.366996721153832 F100
G1 X22.021675498931703 Y12.366996721153832 F100
G1 X22.021675498931703 Y10.746989263888793 F100
G1 X20.23669550427349 Y10.746989263888793 F100;svg > g#gge2781 > polygon
G0 X19.3366744280627 Y10.746989263888793
G1 X19.3366744280627 Y10.746989263888793 F100
G1 X19.3366744280627 Y12.366996721153832 F100
G1 X17.55169443340449 Y12.366996721153832 F100
G1 X17.55169443340449 Y10.746989263888793 F100
G1 X19.3366744280627 Y10.746989263888793 F100;svg > g#gge2859 > polygon
G0 X28.87264588782053 Y6.42900137215092
G1 X28.87264588782053 Y6.42900137215092 F100
G1 X28.87264588782053 Y8.049008829415842 F100
G1 X30.65762588247862 Y8.049008829415842 F100
G1 X30.65762588247862 Y6.42900137215092 F100
G1 X28.87264588782053 Y6.42900137215092 F100;svg > g#gge2871 > polygon
G0 X27.97262481160974 Y6.42900137215092
G1 X27.97262481160974 Y6.42900137215092 F100
G1 X27.97262481160974 Y8.049008829415842 F100
G1 X26.187644816951646 Y8.049008829415842 F100
G1 X26.187644816951646 Y6.42900137215092 F100
G1 X27.97262481160974 Y6.42900137215092 F100;svg > g#gge2949 > polygon
G0 X28.87264588782053 Y15.953974662749136
G1 X28.87264588782053 Y15.953974662749136 F100
G1 X28.87264588782053 Y17.573982120014175 F100
G1 X30.65762588247862 Y17.573982120014175 F100
G1 X30.65762588247862 Y15.953974662749136 F100
G1 X28.87264588782053 Y15.953974662749136 F100;svg > g#gge2961 > polygon
G0 X27.97262481160974 Y15.953974662749136
G1 X27.97262481160974 Y15.953974662749136 F100
G1 X27.97262481160974 Y17.573982120014175 F100
G1 X26.187644816951646 Y17.573982120014175 F100
G1 X26.187644816951646 Y15.953974662749136 F100
G1 X27.97262481160974 Y15.953974662749136 F100;svg > g#gge3039 > polygon
G0 X28.87264588782053 Y11.25498783938733
G1 X28.87264588782053 Y11.25498783938733 F100
G1 X28.87264588782053 Y12.874995296652369 F100
G1 X30.65762588247862 Y12.874995296652369 F100
G1 X30.65762588247862 Y11.25498783938733 F100
G1 X28.87264588782053 Y11.25498783938733 F100;svg > g#gge3051 > polygon
G0 X27.97262481160974 Y11.25498783938733
G1 X27.97262481160974 Y11.25498783938733 F100
G1 X27.97262481160974 Y12.874995296652369 F100
G1 X26.187644816951646 Y12.874995296652369 F100
G1 X26.187644816951646 Y11.25498783938733 F100
G1 X27.97262481160974 Y11.25498783938733 F100;svg > g#gge3153 > polyline
G0 X14.313889312678077 Y46.3548700142449
G1 X14.313889312678077 Y46.3548700142449 F100
G1 X12.856898598290575 Y46.3548700142449 F100;svg > g#gge3168 > polyline
G0 X14.313889312678077 Y45.0848735754985
G1 X14.313889312678077 Y45.0848735754985 F100
G1 X12.856898598290575 Y45.0848735754985 F100;svg > g#gge3183 > polyline
G0 X14.313889312678077 Y43.814877136752095
G1 X14.313889312678077 Y43.814877136752095 F100
G1 X12.856898598290575 Y43.814877136752095 F100;svg > g#gge3198 > polyline
G0 X14.313889312678077 Y42.54488069800557
G1 X14.313889312678077 Y42.54488069800557 F100
G1 X12.856898598290575 Y42.54488069800557 F100;svg > g#gge3213 > polyline
G0 X19.858693764244954 Y46.3548700142449
G1 X19.858693764244954 Y46.3548700142449 F100
G1 X18.401703049857574 Y46.3548700142449 F100;svg > g#gge3228 > polyline
G0 X19.858693764244954 Y45.0848735754985
G1 X19.858693764244954 Y45.0848735754985 F100
G1 X18.401703049857574 Y45.0848735754985 F100;svg > g#gge3243 > polyline
G0 X19.858693764244954 Y43.814877136752095
G1 X19.858693764244954 Y43.814877136752095 F100
G1 X18.401703049857574 Y43.814877136752095 F100;svg > g#gge3258 > polyline
G0 X19.858693764244954 Y42.54488069800557
G1 X19.858693764244954 Y42.54488069800557 F100
G1 X18.401703049857574 Y42.54488069800557 F100;svg > g#gge3363 > polyline
G0 X14.313889312678077 Y36.57589743589736
G1 X14.313889312678077 Y36.57589743589736 F100
G1 X12.856898598290575 Y36.57589743589736 F100;svg > g#gge3378 > polyline
G0 X14.313889312678077 Y35.30590099715096
G1 X14.313889312678077 Y35.30590099715096 F100
G1 X12.856898598290575 Y35.30590099715096 F100;svg > g#gge3393 > polyline
G0 X14.313889312678077 Y34.03590455840443
G1 X14.313889312678077 Y34.03590455840443 F100
G1 X12.856898598290575 Y34.03590455840443 F100;svg > g#gge3408 > polyline
G0 X14.313889312678077 Y32.76590811965803
G1 X14.313889312678077 Y32.76590811965803 F100
G1 X12.856898598290575 Y32.76590811965803 F100;svg > g#gge3423 > polyline
G0 X19.858693764244954 Y36.57589743589736
G1 X19.858693764244954 Y36.57589743589736 F100
G1 X18.401703049857574 Y36.57589743589736 F100;svg > g#gge3438 > polyline
G0 X19.858693764244954 Y35.30590099715096
G1 X19.858693764244954 Y35.30590099715096 F100
G1 X18.401703049857574 Y35.30590099715096 F100;svg > g#gge3453 > polyline
G0 X19.858693764244954 Y34.03590455840443
G1 X19.858693764244954 Y34.03590455840443 F100
G1 X18.401703049857574 Y34.03590455840443 F100;svg > g#gge3468 > polyline
G0 X19.858693764244954 Y32.76590811965803
G1 X19.858693764244954 Y32.76590811965803 F100
G1 X18.401703049857574 Y32.76590811965803 F100;svg > g#gge3573 > polyline
G0 X14.313889312678077 Y26.415925925925887
G1 X14.313889312678077 Y26.415925925925887 F100
G1 X12.856898598290575 Y26.415925925925887 F100;svg > g#gge3588 > polyline
G0 X14.313889312678077 Y25.145929487179362
G1 X14.313889312678077 Y25.145929487179362 F100
G1 X12.856898598290575 Y25.145929487179362 F100;svg > g#gge3603 > polyline
G0 X14.313889312678077 Y23.87593304843296
G1 X14.313889312678077 Y23.87593304843296 F100
G1 X12.856898598290575 Y23.87593304843296 F100;svg > g#gge3618 > polyline
G0 X14.313889312678077 Y22.60593660968655
G1 X14.313889312678077 Y22.60593660968655 F100
G1 X12.856898598290575 Y22.60593660968655 F100;svg > g#gge3633 > polyline
G0 X19.858693764244954 Y26.415925925925887
G1 X19.858693764244954 Y26.415925925925887 F100
G1 X18.401703049857574 Y26.415925925925887 F100;svg > g#gge3648 > polyline
G0 X19.858693764244954 Y25.145929487179362
G1 X19.858693764244954 Y25.145929487179362 F100
G1 X18.401703049857574 Y25.145929487179362 F100;svg > g#gge3663 > polyline
G0 X19.858693764244954 Y23.87593304843296
G1 X19.858693764244954 Y23.87593304843296 F100
G1 X18.401703049857574 Y23.87593304843296 F100;svg > g#gge3678 > polyline
G0 X19.858693764244954 Y22.60593660968655
G1 X19.858693764244954 Y22.60593660968655 F100
G1 X18.401703049857574 Y22.60593660968655 F100;svg > g#gge3753 > polygon
G0 X13.204826822649562 Y57.32583585007113
G1 X13.204826822649562 Y57.32583585007113 F100
G1 X9.60484411752136 Y57.32583585007113 F100
G1 X9.60484411752136 Y59.66582968839018 F100
G1 X13.204826822649562 Y59.66582968839018 F100
G1 X13.204826822649562 Y57.32583585007113 F100;svg > g#gge3768 > polygon
G0 X13.214834394586937 Y51.58585834579763
G1 X13.214834394586937 Y51.58585834579763 F100
G1 X14.194839846510028 Y51.58585834579763 F100
G1 X14.194839846510028 Y53.92585218411669 F100
G1 X13.214834394586937 Y53.92585218411669 F100
G1 X13.214834394586937 Y51.58585834579763 F100;svg > g#gge3783 > polygon
G0 X10.914845444088328 Y51.58585834579763
G1 X10.914845444088328 Y51.58585834579763 F100
G1 X11.894825496082591 Y51.58585834579763 F100
G1 X11.894825496082591 Y53.92585218411669 F100
G1 X10.914845444088328 Y53.92585218411669 F100
G1 X10.914845444088328 Y51.58585834579763 F100;svg > g#gge3798 > polygon
G0 X8.614831093660893 Y51.58585834579763
G1 X8.614831093660893 Y51.58585834579763 F100
G1 X9.59483654558398 Y51.58585834579763 F100
G1 X9.59483654558398 Y53.92585218411669 F100
G1 X8.614831093660893 Y53.92585218411669 F100
G1 X8.614831093660893 Y51.58585834579763 F100;svg > g#gge78 > polygon
G0 X39.78036590099718 Y54.97814583333321
G1 X39.78036590099718 Y54.97814583333321 F100
G1 X41.27896169871791 Y54.97814583333321 F100
G1 X41.27896169871791 Y53.47955003561248 F100
G1 X39.78036590099718 Y53.47955003561248 F100
G1 X39.78036590099718 Y54.97814583333321 F100;svg > g#gge78 > circle
G0 X40.98686251780623 Y54.228847934472896
G2 X40.52966379985749 Y53.77164921652404 R0.45719871794871786 F100
G2 X40.07246508190874 Y54.228847934472896 R0.45719871794871786 F100
G2 X40.52966379985749 Y54.68604665242164 R0.45719871794871786 F100
G2 X40.98686251780623 Y54.228847934472896 R0.45719871794871786 F100;svg > g#gge123 > polygon
G0 X39.78036590099718 Y44.818174323361724
G1 X39.78036590099718 Y44.818174323361724 F100
G1 X41.27896169871791 Y44.818174323361724 F100
G1 X41.27896169871791 Y43.319578525641006 F100
G1 X39.78036590099718 Y43.319578525641006 F100
G1 X39.78036590099718 Y44.818174323361724 F100;svg > g#gge123 > circle
G0 X40.98686251780623 Y44.068876424501305
G2 X40.52966379985749 Y43.61167770655256 R0.45719871794871786 F100
G2 X40.07246508190874 Y44.068876424501305 R0.45719871794871786 F100
G2 X40.52966379985749 Y44.52607514245005 R0.45719871794871786 F100
G2 X40.98686251780623 Y44.068876424501305 R0.45719871794871786 F100;svg > g#gge168 > polygon
G0 X39.78036590099718 Y34.65820281339025
G1 X39.78036590099718 Y34.65820281339025 F100
G1 X41.27896169871791 Y34.65820281339025 F100
G1 X41.27896169871791 Y33.159607015669536 F100
G1 X39.78036590099718 Y33.159607015669536 F100
G1 X39.78036590099718 Y34.65820281339025 F100;svg > g#gge168 > circle
G0 X40.98686251780623 Y33.90890491452983
G2 X40.52966379985749 Y33.451706196581085 R0.45719871794871786 F100
G2 X40.07246508190874 Y33.90890491452983 R0.45719871794871786 F100
G2 X40.52966379985749 Y34.36610363247858 R0.45719871794871786 F100
G2 X40.98686251780623 Y33.90890491452983 R0.45719871794871786 F100;svg > g#gge258 > polygon
G0 X39.78036590099718 Y57.51813871082613
G1 X39.78036590099718 Y57.51813871082613 F100
G1 X41.27896169871791 Y57.51813871082613 F100
G1 X41.27896169871791 Y56.01954291310542 F100
G1 X39.78036590099718 Y56.01954291310542 F100
G1 X39.78036590099718 Y57.51813871082613 F100;svg > g#gge258 > circle
G0 X40.98686251780623 Y56.7688408119657
G2 X40.52966379985749 Y56.31164209401697 R0.45719871794871786 F100
G2 X40.07246508190874 Y56.7688408119657 R0.45719871794871786 F100
G2 X40.52966379985749 Y57.22603952991446 R0.45719871794871786 F100
G2 X40.98686251780623 Y56.7688408119657 R0.45719871794871786 F100;svg > g#gge303 > polygon
G0 X39.78036590099718 Y47.35816720085453
G1 X39.78036590099718 Y47.35816720085453 F100
G1 X41.27896169871791 Y47.35816720085453 F100
G1 X41.27896169871791 Y45.85957140313382 F100
G1 X39.78036590099718 Y45.85957140313382 F100
G1 X39.78036590099718 Y47.35816720085453 F100;svg > g#gge303 > circle
G0 X40.98686251780623 Y46.60886930199423
G2 X40.52966379985749 Y46.15167058404549 R0.45719871794871786 F100
G2 X40.07246508190874 Y46.60886930199423 R0.45719871794871786 F100
G2 X40.52966379985749 Y47.06606801994298 R0.45719871794871786 F100
G2 X40.98686251780623 Y46.60886930199423 R0.45719871794871786 F100;svg > g#gge348 > polygon
G0 X39.78036590099718 Y37.198195690883054
G1 X39.78036590099718 Y37.198195690883054 F100
G1 X41.27896169871791 Y37.198195690883054 F100
G1 X41.27896169871791 Y35.69959989316234 F100
G1 X39.78036590099718 Y35.69959989316234 F100
G1 X39.78036590099718 Y37.198195690883054 F100;svg > g#gge348 > circle
G0 X40.98686251780623 Y36.44889779202276
G2 X40.52966379985749 Y35.99169907407389 R0.45719871794871786 F100
G2 X40.07246508190874 Y36.44889779202276 R0.45719871794871786 F100
G2 X40.52966379985749 Y36.906096509971505 R0.45719871794871786 F100
G2 X40.98686251780623 Y36.44889779202276 R0.45719871794871786 F100;svg > g#gge393 > polygon
G0 X34.13853372150982 Y16.624253383190773
G1 X34.13853372150982 Y16.624253383190773 F100
G1 X35.63712951923078 Y16.624253383190773 F100
G1 X35.63712951923078 Y15.125657585470057 F100
G1 X34.13853372150982 Y15.125657585470057 F100
G1 X34.13853372150982 Y16.624253383190773 F100;svg > g#gge393 > circle
G0 X35.345030338319226 Y15.874955484330357
G2 X34.88783162037048 Y15.417756766381613 R0.45719871794871786 F100
G2 X34.430632902421735 Y15.874955484330357 R0.45719871794871786 F100
G2 X34.88783162037048 Y16.33215420227922 R0.45719871794871786 F100
G2 X35.345030338319226 Y15.874955484330357 R0.45719871794871786 F100;svg > g#gge438 > polygon
G0 X34.13853372150982 Y19.03724661680898
G1 X34.13853372150982 Y19.03724661680898 F100
G1 X35.63712951923078 Y19.03724661680898 F100
G1 X35.63712951923078 Y17.53865081908826 F100
G1 X34.13853372150982 Y17.53865081908826 F100
G1 X34.13853372150982 Y19.03724661680898 F100;svg > g#gge438 > circle
G0 X35.345030338319226 Y18.28794871794868
G2 X34.88783162037048 Y17.830749999999938 R0.45719871794871786 F100
G2 X34.430632902421735 Y18.28794871794868 R0.45719871794871786 F100
G2 X34.88783162037048 Y18.745147435897426 R0.45719871794871786 F100
G2 X35.345030338319226 Y18.28794871794868 R0.45719871794871786 F100;svg > g#gge483 > polygon
G0 X5.321552528490035 Y18.78314572934458
G1 X5.321552528490035 Y18.78314572934458 F100
G1 X6.8201483262107505 Y18.78314572934458 F100
G1 X6.8201483262107505 Y17.284549931623864 F100
G1 X5.321552528490035 Y17.284549931623864 F100
G1 X5.321552528490035 Y18.78314572934458 F100;svg > g#gge483 > circle
G0 X6.528049145299198 Y18.033847830484284
G2 X6.070850427350453 Y17.576649112535534 R0.45719871794871786 F100
G2 X5.613651709401589 Y18.033847830484284 R0.45719871794871786 F100
G2 X6.070850427350453 Y18.491046548433026 R0.45719871794871786 F100
G2 X6.528049145299198 Y18.033847830484284 R0.45719871794871786 F100;svg > g#gge528 > polygon
G0 X5.321552528490035 Y13.703159974358844
G1 X5.321552528490035 Y13.703159974358844 F100
G1 X6.8201483262107505 Y13.703159974358844 F100
G1 X6.8201483262107505 Y12.204564176638005 F100
G1 X5.321552528490035 Y12.204564176638005 F100
G1 X5.321552528490035 Y13.703159974358844 F100;svg > g#gge528 > circle
G0 X6.528049145299198 Y12.953862075498543
G2 X6.070850427350453 Y12.496663357549801 R0.45719871794871786 F100
G2 X5.613651709401589 Y12.953862075498543 R0.45719871794871786 F100
G2 X6.070850427350453 Y13.41106079344729 R0.45719871794871786 F100
G2 X6.528049145299198 Y12.953862075498543 R0.45719871794871786 F100;svg > g#gge573 > polygon
G0 X5.321552528490035 Y11.163167096866033
G1 X5.321552528490035 Y11.163167096866033 F100
G1 X6.8201483262107505 Y11.163167096866033 F100
G1 X6.8201483262107505 Y9.664571299145196 F100
G1 X5.321552528490035 Y9.664571299145196 F100
G1 X5.321552528490035 Y11.163167096866033 F100;svg > g#gge573 > circle
G0 X6.528049145299198 Y10.413869198005616
G2 X6.070850427350453 Y9.956670480056871 R0.45719871794871786 F100
G2 X5.613651709401589 Y10.413869198005616 R0.45719871794871786 F100
G2 X6.070850427350453 Y10.87106791595436 R0.45719871794871786 F100
G2 X6.528049145299198 Y10.413869198005616 R0.45719871794871786 F100;svg > g#gge618 > polygon
G0 X5.321476328703671 Y16.24315285185177
G1 X5.321476328703671 Y16.24315285185177 F100
G1 X6.820072126424509 Y16.24315285185177 F100
G1 X6.820072126424509 Y14.744557054130935 F100
G1 X5.321476328703671 Y14.744557054130935 F100
G1 X5.321476328703671 Y16.24315285185177 F100;svg > g#gge618 > circle
G0 X6.527972945512834 Y15.493854952991354
G2 X6.070774227564091 Y15.036656235042608 R0.45719871794871786 F100
G2 X5.613575509615226 Y15.493854952991354 R0.45719871794871786 F100
G2 X6.070774227564091 Y15.95105367094022 R0.45719871794871786 F100
G2 X6.527972945512834 Y15.493854952991354 R0.45719871794871786 F100;svg > g#gge663 > polygon
G0 X5.321552528490035 Y8.623174219373103
G1 X5.321552528490035 Y8.623174219373103 F100
G1 X6.8201483262107505 Y8.623174219373103 F100
G1 X6.8201483262107505 Y7.124578421652267 F100
G1 X5.321552528490035 Y7.124578421652267 F100
G1 X5.321552528490035 Y8.623174219373103 F100;svg > g#gge663 > circle
G0 X6.528049145299198 Y7.873876320512806
G2 X6.070850427350453 Y7.416677602564062 R0.45719871794871786 F100
G2 X5.613651709401589 Y7.873876320512806 R0.45719871794871786 F100
G2 X6.070850427350453 Y8.33107503846155 R0.45719871794871786 F100
G2 X6.528049145299198 Y7.873876320512806 R0.45719871794871786 F100;svg > g#gge708 > polygon
G0 X5.321552528490035 Y6.084197339031233
G1 X5.321552528490035 Y6.084197339031233 F100
G1 X6.8201483262107505 Y6.084197339031233 F100
G1 X6.8201483262107505 Y4.585601541310517 F100
G1 X5.321552528490035 Y4.585601541310517 F100
G1 X5.321552528490035 Y6.084197339031233 F100;svg > g#gge708 > circle
G0 X6.528049145299198 Y5.334899440170815
G2 X6.070850427350453 Y4.877700722222071 R0.45719871794871786 F100
G2 X5.613651709401589 Y5.334899440170815 R0.45719871794871786 F100
G2 X6.070850427350453 Y5.792098158119679 R0.45719871794871786 F100
G2 X6.528049145299198 Y5.334899440170815 R0.45719871794871786 F100;svg > g#gge843 > polygon
G0 X34.13853372150982 Y14.084260505697845
G1 X34.13853372150982 Y14.084260505697845 F100
G1 X35.63712951923078 Y14.084260505697845 F100
G1 X35.63712951923078 Y12.58566470797713 F100
G1 X34.13853372150982 Y12.58566470797713 F100
G1 X34.13853372150982 Y14.084260505697845 F100;svg > g#gge843 > circle
G0 X35.345030338319226 Y13.334962606837548
G2 X34.88783162037048 Y12.877763888888802 R0.45719871794871786 F100
G2 X34.430632902421735 Y13.334962606837548 R0.45719871794871786 F100
G2 X34.88783162037048 Y13.792161324786292 R0.45719871794871786 F100
G2 X35.345030338319226 Y13.334962606837548 R0.45719871794871786 F100;svg > g#gge1068 > polygon
G0 X39.78036590099718 Y60.058131588318936
G1 X39.78036590099718 Y60.058131588318936 F100
G1 X41.27896169871791 Y60.058131588318936 F100
G1 X41.27896169871791 Y58.55953579059822 F100
G1 X39.78036590099718 Y58.55953579059822 F100
G1 X39.78036590099718 Y60.058131588318936 F100;svg > g#gge1068 > circle
G0 X40.98686251780623 Y59.30883368945864
G2 X40.52966379985749 Y58.851634971509895 R0.45719871794871786 F100
G2 X40.07246508190874 Y59.30883368945864 R0.45719871794871786 F100
G2 X40.52966379985749 Y59.76603240740739 R0.45719871794871786 F100
G2 X40.98686251780623 Y59.30883368945864 R0.45719871794871786 F100;svg > g#gge1113 > polygon
G0 X39.78036590099718 Y49.898160078347466
G1 X39.78036590099718 Y49.898160078347466 F100
G1 X41.27896169871791 Y49.898160078347466 F100
G1 X41.27896169871791 Y48.39956428062675 F100
G1 X39.78036590099718 Y48.39956428062675 F100
G1 X39.78036590099718 Y49.898160078347466 F100;svg > g#gge1113 > circle
G0 X40.98686251780623 Y49.14886217948705
G2 X40.52966379985749 Y48.6916634615383 R0.45719871794871786 F100
G2 X40.07246508190874 Y49.14886217948705 R0.45719871794871786 F100
G2 X40.52966379985749 Y49.60606089743591 R0.45719871794871786 F100
G2 X40.98686251780623 Y49.14886217948705 R0.45719871794871786 F100;svg > g#gge1158 > polygon
G0 X39.78036590099718 Y39.73818856837599
G1 X39.78036590099718 Y39.73818856837599 F100
G1 X41.27896169871791 Y39.73818856837599 F100
G1 X41.27896169871791 Y38.239592770655264 F100
G1 X39.78036590099718 Y38.239592770655264 F100
G1 X39.78036590099718 Y39.73818856837599 F100;svg > g#gge1158 > circle
G0 X40.98686251780623 Y38.98889066951557
G2 X40.52966379985749 Y38.53169195156683 R0.45719871794871786 F100
G2 X40.07246508190874 Y38.98889066951557 R0.45719871794871786 F100
G2 X40.52966379985749 Y39.446089387464305 R0.45719871794871786 F100
G2 X40.98686251780623 Y38.98889066951557 R0.45719871794871786 F100;svg > g#gge3855 > ellipse
G0 X31.96677631143173 Y23.74893340455835
G2 X31.216779914529937 Y22.99893700765668 R0.7499963969017092 F100
G2 X30.46678351762814 Y23.74893340455835 R0.7499963969017092 F100
G2 X31.216779914529937 Y24.498929801460026 R0.7499963969017092 F100
G2 X31.96677631143173 Y23.74893340455835 R0.7499963969017092 F100;svg > g#gge3855 > circle
G0 X31.716777512464386 Y23.748908004629524
G2 X31.216779914529937 Y23.248910406695078 R0.49999759793447285 F100
G2 X30.716782316595488 Y23.748908004629524 R0.49999759793447285 F100
G2 X31.216779914529937 Y24.248905602563976 R0.49999759793447285 F100
G2 X31.716777512464386 Y23.748908004629524 R0.49999759793447285 F100;svg > g#gge3870 > ellipse
G0 X31.96677631143173 Y26.28892628205116
G2 X31.216779914529937 Y25.538929885149486 R0.7499963969017092 F100
G2 X30.46678351762814 Y26.28892628205116 R0.7499963969017092 F100
G2 X31.216779914529937 Y27.038922678952957 R0.7499963969017092 F100
G2 X31.96677631143173 Y26.28892628205116 R0.7499963969017092 F100;svg > g#gge3870 > circle
G0 X31.716777512464386 Y26.28890088212233
G2 X31.216779914529937 Y25.78890328418789 R0.49999759793447285 F100
G2 X30.716782316595488 Y26.28890088212233 R0.49999759793447285 F100
G2 X31.216779914529937 Y26.788898480056783 R0.49999759793447285 F100
G2 X31.716777512464386 Y26.28890088212233 R0.49999759793447285 F100;svg > g#gge3885 > ellipse
G0 X31.96677631143173 Y28.82891915954409
G2 X31.216779914529937 Y28.078922762642417 R0.7499963969017092 F100
G2 X30.46678351762814 Y28.82891915954409 R0.7499963969017092 F100
G2 X31.216779914529937 Y29.57891555644576 R0.7499963969017092 F100
G2 X31.96677631143173 Y28.82891915954409 R0.7499963969017092 F100;svg > g#gge3885 > circle
G0 X31.716777512464386 Y28.828893759615262
G2 X31.216779914529937 Y28.328896161680817 R0.49999759793447285 F100
G2 X30.716782316595488 Y28.828893759615262 R0.49999759793447285 F100
G2 X31.216779914529937 Y29.32889135754971 R0.49999759793447285 F100
G2 X31.716777512464386 Y28.828893759615262 R0.49999759793447285 F100;svg > g#gge3900 > ellipse
G0 X31.96677631143173 Y31.368912037037017
G2 X31.216779914529937 Y30.618915640135228 R0.7499963969017092 F100
G2 X30.46678351762814 Y31.368912037037017 R0.7499963969017092 F100
G2 X31.216779914529937 Y32.11890843393869 R0.7499963969017092 F100
G2 X31.96677631143173 Y31.368912037037017 R0.7499963969017092 F100;svg > g#gge3900 > circle
G0 X31.716777512464386 Y31.36888663710819
G2 X31.216779914529937 Y30.868889039173624 R0.49999759793447285 F100
G2 X30.716782316595488 Y31.36888663710819 R0.49999759793447285 F100
G2 X31.216779914529937 Y31.86888423504264 R0.49999759793447285 F100
G2 X31.716777512464386 Y31.36888663710819 R0.49999759793447285 F100;svg > g#gge3915 > ellipse
G0 X31.96677631143173 Y33.90890491452983
G2 X31.216779914529937 Y33.158908517628156 R0.7499963969017092 F100
G2 X30.46678351762814 Y33.90890491452983 R0.7499963969017092 F100
G2 X31.216779914529937 Y34.65890131143151 R0.7499963969017092 F100
G2 X31.96677631143173 Y33.90890491452983 R0.7499963969017092 F100;svg > g#gge3915 > circle
G0 X31.716777512464386 Y33.908879514601004
G2 X31.216779914529937 Y33.40888191666655 R0.49999759793447285 F100
G2 X30.716782316595488 Y33.908879514601004 R0.49999759793447285 F100
G2 X31.216779914529937 Y34.40887711253545 R0.49999759793447285 F100
G2 X31.716777512464386 Y33.908879514601004 R0.49999759793447285 F100;svg > g#gge3930 > ellipse
G0 X31.96677631143173 Y36.44889779202276
G2 X31.216779914529937 Y35.69890139512097 R0.7499963969017092 F100
G2 X30.46678351762814 Y36.44889779202276 R0.7499963969017092 F100
G2 X31.216779914529937 Y37.198894188924434 R0.7499963969017092 F100
G2 X31.96677631143173 Y36.44889779202276 R0.7499963969017092 F100;svg > g#gge3930 > circle
G0 X31.716777512464386 Y36.44887239209393
G2 X31.216779914529937 Y35.94887479415948 R0.49999759793447285 F100
G2 X30.716782316595488 Y36.44887239209393 R0.49999759793447285 F100
G2 X31.216779914529937 Y36.94886999002838 R0.49999759793447285 F100
G2 X31.716777512464386 Y36.44887239209393 R0.49999759793447285 F100;svg > g#gge3945 > ellipse
G0 X31.96677631143173 Y38.98889066951557
G2 X31.216779914529937 Y38.2388942726139 R0.7499963969017092 F100
G2 X30.46678351762814 Y38.98889066951557 R0.7499963969017092 F100
G2 X31.216779914529937 Y39.73888706641724 R0.7499963969017092 F100
G2 X31.96677631143173 Y38.98889066951557 R0.7499963969017092 F100;svg > g#gge3945 > circle
G0 X31.716777512464386 Y38.98886526958674
G2 X31.216779914529937 Y38.488867671652294 R0.49999759793447285 F100
G2 X30.716782316595488 Y38.98886526958674 R0.49999759793447285 F100
G2 X31.216779914529937 Y39.488862867521185 R0.49999759793447285 F100
G2 X31.716777512464386 Y38.98886526958674 R0.49999759793447285 F100;svg > g#gge3960 > ellipse
G0 X31.96677631143173 Y41.5288835470085
G2 X31.216779914529937 Y40.778887150106826 R0.7499963969017092 F100
G2 X30.46678351762814 Y41.5288835470085 R0.7499963969017092 F100
G2 X31.216779914529937 Y42.27887994391017 R0.7499963969017092 F100
G2 X31.96677631143173 Y41.5288835470085 R0.7499963969017092 F100;svg > g#gge3960 > circle
G0 X31.716777512464386 Y41.52885814707967
G2 X31.216779914529937 Y41.02886054914522 R0.49999759793447285 F100
G2 X30.716782316595488 Y41.52885814707967 R0.49999759793447285 F100
G2 X31.216779914529937 Y42.02885574501412 R0.49999759793447285 F100
G2 X31.716777512464386 Y41.52885814707967 R0.49999759793447285 F100;svg > g#gge3975 > ellipse
G0 X31.96677631143173 Y44.068876424501305
G2 X31.216779914529937 Y43.318880027599626 R0.7499963969017092 F100
G2 X30.46678351762814 Y44.068876424501305 R0.7499963969017092 F100
G2 X31.216779914529937 Y44.81887282140298 R0.7499963969017092 F100
G2 X31.96677631143173 Y44.068876424501305 R0.7499963969017092 F100;svg > g#gge3975 > circle
G0 X31.716777512464386 Y44.068851024572474
G2 X31.216779914529937 Y43.56885342663803 R0.49999759793447285 F100
G2 X30.716782316595488 Y44.068851024572474 R0.49999759793447285 F100
G2 X31.216779914529937 Y44.56884862250693 R0.49999759793447285 F100
G2 X31.716777512464386 Y44.068851024572474 R0.49999759793447285 F100;svg > g#gge3990 > ellipse
G0 X31.96677631143173 Y46.60886930199423
G2 X31.216779914529937 Y45.85887290509256 R0.7499963969017092 F100
G2 X30.46678351762814 Y46.60886930199423 R0.7499963969017092 F100
G2 X31.216779914529937 Y47.358865698895904 R0.7499963969017092 F100
G2 X31.96677631143173 Y46.60886930199423 R0.7499963969017092 F100;svg > g#gge3990 > circle
G0 X31.716777512464386 Y46.6088439020654
G2 X31.216779914529937 Y46.10884630413096 R0.49999759793447285 F100
G2 X30.716782316595488 Y46.6088439020654 R0.49999759793447285 F100
G2 X31.216779914529937 Y47.108841499999855 R0.49999759793447285 F100
G2 X31.716777512464386 Y46.6088439020654 R0.49999759793447285 F100;svg > g#gge4005 > ellipse
G0 X31.96677631143173 Y49.14886217948705
G2 X31.216779914529937 Y48.39886578258537 R0.7499963969017092 F100
G2 X30.46678351762814 Y49.14886217948705 R0.7499963969017092 F100
G2 X31.216779914529937 Y49.89885857638884 R0.7499963969017092 F100
G2 X31.96677631143173 Y49.14886217948705 R0.7499963969017092 F100;svg > g#gge4005 > circle
G0 X31.716777512464386 Y49.148836779558216
G2 X31.216779914529937 Y48.648839181623764 R0.49999759793447285 F100
G2 X30.716782316595488 Y49.148836779558216 R0.49999759793447285 F100
G2 X31.216779914529937 Y49.64883437749278 R0.49999759793447285 F100
G2 X31.716777512464386 Y49.148836779558216 R0.49999759793447285 F100;svg > g#gge4020 > ellipse
G0 X31.96677631143173 Y51.688855056979975
G2 X31.216779914529937 Y50.9388586600783 R0.7499963969017092 F100
G2 X30.46678351762814 Y51.688855056979975 R0.7499963969017092 F100
G2 X31.216779914529937 Y52.43885145388165 R0.7499963969017092 F100
G2 X31.96677631143173 Y51.688855056979975 R0.7499963969017092 F100;svg > g#gge4020 > circle
G0 X31.716777512464386 Y51.68882965705115
G2 X31.216779914529937 Y51.1888320591167 R0.49999759793447285 F100
G2 X30.716782316595488 Y51.68882965705115 R0.49999759793447285 F100
G2 X31.216779914529937 Y52.18882725498559 R0.49999759793447285 F100
G2 X31.716777512464386 Y51.68882965705115 R0.49999759793447285 F100;svg > g#gge4035 > ellipse
G0 X31.96677631143173 Y54.228847934472896
G2 X31.216779914529937 Y53.47885153757111 R0.7499963969017092 F100
G2 X30.46678351762814 Y54.228847934472896 R0.7499963969017092 F100
G2 X31.216779914529937 Y54.978844331374574 R0.7499963969017092 F100
G2 X31.96677631143173 Y54.228847934472896 R0.7499963969017092 F100;svg > g#gge4035 > circle
G0 X31.716777512464386 Y54.22882253454407
G2 X31.216779914529937 Y53.728824936609634 R0.49999759793447285 F100
G2 X30.716782316595488 Y54.22882253454407 R0.49999759793447285 F100
G2 X31.216779914529937 Y54.72882013247852 R0.49999759793447285 F100
G2 X31.716777512464386 Y54.22882253454407 R0.49999759793447285 F100;svg > g#gge4050 > ellipse
G0 X31.96677631143173 Y56.7688408119657
G2 X31.216779914529937 Y56.01884441506404 R0.7499963969017092 F100
G2 X30.46678351762814 Y56.7688408119657 R0.7499963969017092 F100
G2 X31.216779914529937 Y57.518837208867374 R0.7499963969017092 F100
G2 X31.96677631143173 Y56.7688408119657 R0.7499963969017092 F100;svg > g#gge4050 > circle
G0 X31.716777512464386 Y56.76881541203688
G2 X31.216779914529937 Y56.268817814102434 R0.49999759793447285 F100
G2 X30.716782316595488 Y56.76881541203688 R0.49999759793447285 F100
G2 X31.216779914529937 Y57.26881300997134 R0.49999759793447285 F100
G2 X31.716777512464386 Y56.76881541203688 R0.49999759793447285 F100;svg > g#gge4065 > ellipse
G0 X31.96677631143173 Y59.30883368945864
G2 X31.216779914529937 Y58.55883729255696 R0.7499963969017092 F100
G2 X30.46678351762814 Y59.30883368945864 R0.7499963969017092 F100
G2 X31.216779914529937 Y60.05883008636031 R0.7499963969017092 F100
G2 X31.96677631143173 Y59.30883368945864 R0.7499963969017092 F100;svg > g#gge4065 > circle
G0 X31.716777512464386 Y59.30880828952981
G2 X31.216779914529937 Y58.80881069159536 R0.49999759793447285 F100
G2 X30.716782316595488 Y59.30880828952981 R0.49999759793447285 F100
G2 X31.216779914529937 Y59.80880588746427 R0.49999759793447285 F100
G2 X31.716777512464386 Y59.30880828952981 R0.49999759793447285 F100;svg > g#gge4080 > ellipse
G0 X6.566847536502797 Y56.7688408119657
G2 X5.816851139601123 Y56.01884441506404 R0.7499963969017092 F100
G2 X5.066854742699451 Y56.7688408119657 R0.7499963969017092 F100
G2 X5.816851139601123 Y57.518837208867374 R0.7499963969017092 F100
G2 X6.566847536502797 Y56.7688408119657 R0.7499963969017092 F100;svg > g#gge4080 > circle
G0 X6.316924937321935 Y56.76891701175207
G2 X5.816927339387487 Y56.26891941381762 R0.49999759793447285 F100
G2 X5.316929741453038 Y56.76891701175207 R0.49999759793447285 F100
G2 X5.816927339387487 Y57.26891460968652 R0.49999759793447285 F100
G2 X6.316924937321935 Y56.76891701175207 R0.49999759793447285 F100;svg > g#gge4095 > ellipse
G0 X6.566847536502797 Y54.228847934472896
G2 X5.816851139601123 Y53.47885153757111 R0.7499963969017092 F100
G2 X5.066854742699451 Y54.228847934472896 R0.7499963969017092 F100
G2 X5.816851139601123 Y54.978844331374574 R0.7499963969017092 F100
G2 X6.566847536502797 Y54.228847934472896 R0.7499963969017092 F100;svg > g#gge4095 > circle
G0 X6.316924937321935 Y54.22892413425926
G2 X5.816927339387487 Y53.72892653632481 R0.49999759793447285 F100
G2 X5.316929741453038 Y54.22892413425926 R0.49999759793447285 F100
G2 X5.816927339387487 Y54.72892173219372 R0.49999759793447285 F100
G2 X6.316924937321935 Y54.22892413425926 R0.49999759793447285 F100;svg > g#gge4110 > ellipse
G0 X6.566847536502797 Y51.688855056979975
G2 X5.816851139601123 Y50.9388586600783 R0.7499963969017092 F100
G2 X5.066854742699451 Y51.688855056979975 R0.7499963969017092 F100
G2 X5.816851139601123 Y52.43885145388165 R0.7499963969017092 F100
G2 X6.566847536502797 Y51.688855056979975 R0.7499963969017092 F100;svg > g#gge4110 > circle
G0 X6.316924937321935 Y51.68893125676633
G2 X5.816927339387487 Y51.188933658831886 R0.49999759793447285 F100
G2 X5.316929741453038 Y51.68893125676633 R0.49999759793447285 F100
G2 X5.816927339387487 Y52.188928854700784 R0.49999759793447285 F100
G2 X6.316924937321935 Y51.68893125676633 R0.49999759793447285 F100;svg > g#gge4125 > ellipse
G0 X6.566847536502797 Y49.14886217948705
G2 X5.816851139601123 Y48.39886578258537 R0.7499963969017092 F100
G2 X5.066854742699451 Y49.14886217948705 R0.7499963969017092 F100
G2 X5.816851139601123 Y49.89885857638884 R0.7499963969017092 F100
G2 X6.566847536502797 Y49.14886217948705 R0.7499963969017092 F100;svg > g#gge4125 > circle
G0 X6.316924937321935 Y49.14893837927341
G2 X5.816927339387487 Y48.64894078133896 R0.49999759793447285 F100
G2 X5.316929741453038 Y49.14893837927341 R0.49999759793447285 F100
G2 X5.816927339387487 Y49.64893597720798 R0.49999759793447285 F100
G2 X6.316924937321935 Y49.14893837927341 R0.49999759793447285 F100;svg > g#gge4140 > ellipse
G0 X6.566847536502797 Y46.60886930199423
G2 X5.816851139601123 Y45.85887290509256 R0.7499963969017092 F100
G2 X5.066854742699451 Y46.60886930199423 R0.7499963969017092 F100
G2 X5.816851139601123 Y47.358865698895904 R0.7499963969017092 F100
G2 X6.566847536502797 Y46.60886930199423 R0.7499963969017092 F100;svg > g#gge4140 > circle
G0 X6.316924937321935 Y46.608945501780596
G2 X5.816927339387487 Y46.10894790384615 R0.49999759793447285 F100
G2 X5.316929741453038 Y46.608945501780596 R0.49999759793447285 F100
G2 X5.816927339387487 Y47.10894309971505 R0.49999759793447285 F100
G2 X6.316924937321935 Y46.608945501780596 R0.49999759793447285 F100;svg > g#gge4155 > ellipse
G0 X6.566847536502797 Y44.068876424501305
G2 X5.816851139601123 Y43.318880027599626 R0.7499963969017092 F100
G2 X5.066854742699451 Y44.068876424501305 R0.7499963969017092 F100
G2 X5.816851139601123 Y44.81887282140298 R0.7499963969017092 F100
G2 X6.566847536502797 Y44.068876424501305 R0.7499963969017092 F100;svg > g#gge4155 > circle
G0 X6.316924937321935 Y44.06895262428767
G2 X5.816927339387487 Y43.568955026353215 R0.49999759793447285 F100
G2 X5.316929741453038 Y44.06895262428767 R0.49999759793447285 F100
G2 X5.816927339387487 Y44.56895022222212 R0.49999759793447285 F100
G2 X6.316924937321935 Y44.06895262428767 R0.49999759793447285 F100;svg > g#gge4170 > ellipse
G0 X6.566847536502797 Y41.5288835470085
G2 X5.816851139601123 Y40.778887150106826 R0.7499963969017092 F100
G2 X5.066854742699451 Y41.5288835470085 R0.7499963969017092 F100
G2 X5.816851139601123 Y42.27887994391017 R0.7499963969017092 F100
G2 X6.566847536502797 Y41.5288835470085 R0.7499963969017092 F100;svg > g#gge4170 > circle
G0 X6.316924937321935 Y41.52895974679486
G2 X5.816927339387487 Y41.028962148860415 R0.49999759793447285 F100
G2 X5.316929741453038 Y41.52895974679486 R0.49999759793447285 F100
G2 X5.816927339387487 Y42.02895734472931 R0.49999759793447285 F100
G2 X6.316924937321935 Y41.52895974679486 R0.49999759793447285 F100;svg > g#gge4185 > ellipse
G0 X6.566847536502797 Y38.98889066951557
G2 X5.816851139601123 Y38.2388942726139 R0.7499963969017092 F100
G2 X5.066854742699451 Y38.98889066951557 R0.7499963969017092 F100
G2 X5.816851139601123 Y39.73888706641724 R0.7499963969017092 F100
G2 X6.566847536502797 Y38.98889066951557 R0.7499963969017092 F100;svg > g#gge4185 > circle
G0 X6.316823337606745 Y38.989017669159466
G2 X5.8168257396722955 Y38.48902007122501 R0.49999759793447285 F100
G2 X5.316828141737848 Y38.989017669159466 R0.49999759793447285 F100
G2 X5.8168257396722955 Y39.48901526709391 R0.49999759793447285 F100
G2 X6.316823337606745 Y38.989017669159466 R0.49999759793447285 F100;svg > g#gge4200 > ellipse
G0 X6.566847536502797 Y36.44889779202276
G2 X5.816851139601123 Y35.69890139512097 R0.7499963969017092 F100
G2 X5.066854742699451 Y36.44889779202276 R0.7499963969017092 F100
G2 X5.816851139601123 Y37.198894188924434 R0.7499963969017092 F100
G2 X6.566847536502797 Y36.44889779202276 R0.7499963969017092 F100;svg > g#gge4200 > circle
G0 X6.316823337606745 Y36.44902479166665
G2 X5.8168257396722955 Y35.949027193732206 R0.49999759793447285 F100
G2 X5.316828141737848 Y36.44902479166665 R0.49999759793447285 F100
G2 X5.8168257396722955 Y36.949022389601105 R0.49999759793447285 F100
G2 X6.316823337606745 Y36.44902479166665 R0.49999759793447285 F100;svg > g#gge4215 > ellipse
G0 X6.566847536502797 Y33.90890491452983
G2 X5.816851139601123 Y33.158908517628156 R0.7499963969017092 F100
G2 X5.066854742699451 Y33.90890491452983 R0.7499963969017092 F100
G2 X5.816851139601123 Y34.65890131143151 R0.7499963969017092 F100
G2 X6.566847536502797 Y33.90890491452983 R0.7499963969017092 F100;svg > g#gge4215 > circle
G0 X6.316823337606745 Y33.909031914173724
G2 X5.8168257396722955 Y33.40903431623928 R0.49999759793447285 F100
G2 X5.316828141737848 Y33.909031914173724 R0.49999759793447285 F100
G2 X5.8168257396722955 Y34.40902951210818 R0.49999759793447285 F100
G2 X6.316823337606745 Y33.909031914173724 R0.49999759793447285 F100;svg > g#gge4230 > ellipse
G0 X6.566847536502797 Y31.368912037037017
G2 X5.816851139601123 Y30.618915640135228 R0.7499963969017092 F100
G2 X5.066854742699451 Y31.368912037037017 R0.7499963969017092 F100
G2 X5.816851139601123 Y32.11890843393869 R0.7499963969017092 F100
G2 X6.566847536502797 Y31.368912037037017 R0.7499963969017092 F100;svg > g#gge4230 > circle
G0 X6.316823337606745 Y31.369039036680917
G2 X5.8168257396722955 Y30.86904143874635 R0.49999759793447285 F100
G2 X5.316828141737848 Y31.369039036680917 R0.49999759793447285 F100
G2 X5.8168257396722955 Y31.869036634615362 R0.49999759793447285 F100
G2 X6.316823337606745 Y31.369039036680917 R0.49999759793447285 F100;svg > g#gge4245 > ellipse
G0 X6.566847536502797 Y28.82891915954409
G2 X5.816851139601123 Y28.078922762642417 R0.7499963969017092 F100
G2 X5.066854742699451 Y28.82891915954409 R0.7499963969017092 F100
G2 X5.816851139601123 Y29.57891555644576 R0.7499963969017092 F100
G2 X6.566847536502797 Y28.82891915954409 R0.7499963969017092 F100;svg > g#gge4245 > circle
G0 X6.316823337606745 Y28.82904615918799
G2 X5.8168257396722955 Y28.32904856125354 R0.49999759793447285 F100
G2 X5.316828141737848 Y28.82904615918799 R0.49999759793447285 F100
G2 X5.8168257396722955 Y29.329043757122438 R0.49999759793447285 F100
G2 X6.316823337606745 Y28.82904615918799 R0.49999759793447285 F100;svg > g#gge4260 > ellipse
G0 X6.566847536502797 Y26.28892628205116
G2 X5.816851139601123 Y25.538929885149486 R0.7499963969017092 F100
G2 X5.066854742699451 Y26.28892628205116 R0.7499963969017092 F100
G2 X5.816851139601123 Y27.038922678952957 R0.7499963969017092 F100
G2 X6.566847536502797 Y26.28892628205116 R0.7499963969017092 F100;svg > g#gge4260 > circle
G0 X6.316823337606745 Y26.28905328169506
G2 X5.8168257396722955 Y25.78905568376061 R0.49999759793447285 F100
G2 X5.316828141737848 Y26.28905328169506 R0.49999759793447285 F100
G2 X5.8168257396722955 Y26.789050879629507 R0.49999759793447285 F100
G2 X6.316823337606745 Y26.28905328169506 R0.49999759793447285 F100;svg > g#gge4275 > ellipse
G0 X6.566847536502797 Y23.74893340455835
G2 X5.816851139601123 Y22.99893700765668 R0.7499963969017092 F100
G2 X5.066854742699451 Y23.74893340455835 R0.7499963969017092 F100
G2 X5.816851139601123 Y24.498929801460026 R0.7499963969017092 F100
G2 X6.566847536502797 Y23.74893340455835 R0.7499963969017092 F100;svg > g#gge4275 > circle
G0 X6.316924937321935 Y23.74906040420225
G2 X5.816927339387487 Y23.249062806267805 R0.49999759793447285 F100
G2 X5.316929741453038 Y23.74906040420225 R0.49999759793447285 F100
G2 X5.816927339387487 Y24.249058002136696 R0.49999759793447285 F100
G2 X6.316924937321935 Y23.74906040420225 R0.49999759793447285 F100;svg > g#gge4290 > ellipse
G0 X6.566847536502797 Y59.30883368945864
G2 X5.816851139601123 Y58.55883729255696 R0.7499963969017092 F100
G2 X5.066854742699451 Y59.30883368945864 R0.7499963969017092 F100
G2 X5.816851139601123 Y60.05883008636031 R0.7499963969017092 F100
G2 X6.566847536502797 Y59.30883368945864 R0.7499963969017092 F100;svg > g#gge4290 > circle
G0 X6.316924937321935 Y59.308909889245
G2 X5.816927339387487 Y58.80891229131055 R0.49999759793447285 F100
G2 X5.316929741453038 Y59.308909889245 R0.49999759793447285 F100
G2 X5.816927339387487 Y59.808907487179454 R0.49999759793447285 F100
G2 X6.316924937321935 Y59.308909889245 R0.49999759793447285 F100;svg > g#gge4539 > polygon
G0 X34.13853372150982 Y11.417267984330312
G1 X34.13853372150982 Y11.417267984330312 F100
G1 X35.63712951923078 Y11.417267984330312 F100
G1 X35.63712951923078 Y9.918672186609717 F100
G1 X34.13853372150982 Y9.918672186609717 F100
G1 X34.13853372150982 Y11.417267984330312 F100;svg > g#gge4539 > circle
G0 X35.345030338319226 Y10.667970085470014
G2 X34.88783162037048 Y10.21077136752127 R0.45719871794871786 F100
G2 X34.430632902421735 Y10.667970085470014 R0.45719871794871786 F100
G2 X34.88783162037048 Y11.125168803418758 R0.45719871794871786 F100
G2 X35.345030338319226 Y10.667970085470014 R0.45719871794871786 F100;svg > g#gge4578 > polygon
G0 X34.13853372150982 Y8.877275106837503
G1 X34.13853372150982 Y8.877275106837503 F100
G1 X35.63712951923078 Y8.877275106837503 F100
G1 X35.63712951923078 Y7.378679309116787 F100
G1 X34.13853372150982 Y7.378679309116787 F100
G1 X34.13853372150982 Y8.877275106837503 F100;svg > g#gge4578 > circle
G0 X35.345030338319226 Y8.127977207977086
G2 X34.88783162037048 Y7.67077849002834 R0.45719871794871786 F100
G2 X34.430632902421735 Y8.127977207977086 R0.45719871794871786 F100
G2 X34.88783162037048 Y8.585175925925949 R0.45719871794871786 F100
G2 X35.345030338319226 Y8.127977207977086 R0.45719871794871786 F100;svg > g#gge96671 > circle
G0 X25.404692012464324 Y42.26068089494292
G2 X25.07967452386031 Y41.93566340633902 R0.32501748860398855 F100
G2 X24.754657035256407 Y42.26068089494292 R0.32501748860398855 F100
G2 X25.07967452386031 Y42.585698383546934 R0.32501748860398855 F100
G2 X25.404692012464324 Y42.26068089494292 R0.32501748860398855 F100;svg > g#gge96671 > circle
G0 X25.379673082621004 Y42.26068089494292
G2 X25.07967452386031 Y41.960682336182344 R0.29999855876068365 F100
G2 X24.779675965099734 Y42.26068089494292 R0.29999855876068365 F100
G2 X25.07967452386031 Y42.56067945370361 R0.29999855876068365 F100
G2 X25.379673082621004 Y42.26068089494292 R0.29999855876068365 F100;svg > g#gge96689 > circle
G0 X16.411847229700815 Y24.95672541773496
G2 X16.086829741096917 Y24.63170792913094 R0.32501748860398855 F100
G2 X15.761812252492899 Y24.95672541773496 R0.32501748860398855 F100
G2 X16.086829741096917 Y25.281742906338852 R0.32501748860398855 F100
G2 X16.411847229700815 Y24.95672541773496 R0.32501748860398855 F100;svg > g#gge96689 > circle
G0 X16.386828299857488 Y24.95672541773496
G2 X16.086829741096917 Y24.65672685897426 R0.29999855876068365 F100
G2 X15.786831182336224 Y24.95672541773496 R0.29999855876068365 F100
G2 X16.086829741096917 Y25.25672397649553 R0.29999855876068365 F100
G2 X16.386828299857488 Y24.95672541773496 R0.29999855876068365 F100;svg > g#gge96692 > circle
G0 X25.401644021011393 Y33.45706558155264
G2 X25.076626532407495 Y33.13204809294874 R0.32501748860398855 F100
G2 X24.751609043803477 Y33.45706558155264 R0.32501748860398855 F100
G2 X25.076626532407495 Y33.78208307015666 R0.32501748860398855 F100
G2 X25.401644021011393 Y33.45706558155264 R0.32501748860398855 F100;svg > g#gge96692 > circle
G0 X25.376625091168066 Y33.45706558155264
G2 X25.076626532407495 Y33.15706702279206 R0.29999855876068365 F100
G2 X24.776627973646796 Y33.45706558155264 R0.29999855876068365 F100
G2 X25.076626532407495 Y33.757064140313325 R0.29999855876068365 F100
G2 X25.376625091168066 Y33.45706558155264 R0.29999855876068365 F100;svg > g#gge96707 > circle
G0 X25.736161082977198 Y28.53176539280619
G2 X25.4111435943733 Y28.2067479042023 R0.32501748860398855 F100
G2 X25.08612610576928 Y28.53176539280619 R0.32501748860398855 F100
G2 X25.4111435943733 Y28.85678288141021 R0.32501748860398855 F100
G2 X25.736161082977198 Y28.53176539280619 R0.32501748860398855 F100;svg > g#gge96707 > circle
G0 X25.711142153133874 Y28.53176539280619
G2 X25.4111435943733 Y28.23176683404562 R0.29999855876068365 F100
G2 X25.11114503561261 Y28.53176539280619 R0.29999855876068365 F100
G2 X25.4111435943733 Y28.831763951566888 R0.29999855876068365 F100
G2 X25.711142153133874 Y28.53176539280619 R0.29999855876068365 F100;svg > g#gge96722 > circle
G0 X21.664298501068224 Y36.06843225890312
G2 X21.339281012464326 Y35.743414770299104 R0.32501748860398855 F100
G2 X21.014263523860425 Y36.06843225890312 R0.32501748860398855 F100
G2 X21.339281012464326 Y36.39344974750701 R0.32501748860398855 F100
G2 X21.664298501068224 Y36.06843225890312 R0.32501748860398855 F100;svg > g#gge96722 > circle
G0 X21.639279571224897 Y36.06843225890312
G2 X21.339281012464326 Y35.768433700142424 R0.29999855876068365 F100
G2 X21.039282453703635 Y36.06843225890312 R0.29999855876068365 F100
G2 X21.339281012464326 Y36.36843081766369 R0.29999855876068365 F100
G2 X21.639279571224897 Y36.06843225890312 R0.29999855876068365 F100;svg > g#gge96725 > circle
G0 X12.453268330128179 Y34.67092817770653
G2 X12.12825084152428 Y34.345910689102624 R0.32501748860398855 F100
G2 X11.80323335292026 Y34.67092817770653 R0.32501748860398855 F100
G2 X12.12825084152428 Y34.99594566631042 R0.32501748860398855 F100
G2 X12.453268330128179 Y34.67092817770653 R0.32501748860398855 F100;svg > g#gge96725 > circle
G0 X12.428249400284853 Y34.67092817770653
G2 X12.12825084152428 Y34.37092961894595 R0.29999855876068365 F100
G2 X11.828252282763586 Y34.67092817770653 R0.29999855876068365 F100
G2 X12.12825084152428 Y34.97092673646709 R0.29999855876068365 F100
G2 X12.428249400284853 Y34.67092817770653 R0.29999855876068365 F100;svg > g#gge96734 > circle
G0 X17.463658280270565 Y24.077633882834675
G2 X17.138640791666546 Y23.752616394230774 R0.32501748860398855 F100
G2 X16.81362330306265 Y24.077633882834675 R0.32501748860398855 F100
G2 X17.138640791666546 Y24.402651371438694 R0.32501748860398855 F100
G2 X17.463658280270565 Y24.077633882834675 R0.32501748860398855 F100;svg > g#gge96734 > circle
G0 X17.438639350427238 Y24.077633882834675
G2 X17.138640791666546 Y23.7776353240741 R0.29999855876068365 F100
G2 X16.838642232905972 Y24.077633882834675 R0.29999855876068365 F100
G2 X17.138640791666546 Y24.377632441595363 R0.29999855876068365 F100
G2 X17.438639350427238 Y24.077633882834675 R0.29999855876068365 F100;svg > g#gge96758 > circle
G0 X16.208901798789196 Y12.529556265313317
G2 X15.883884310185177 Y12.204538776709299 R0.32501748860398855 F100
G2 X15.558866821581276 Y12.529556265313317 R0.32501748860398855 F100
G2 X15.883884310185177 Y12.854573753917215 R0.32501748860398855 F100
G2 X16.208901798789196 Y12.529556265313317 R0.32501748860398855 F100;svg > g#gge96758 > circle
G0 X16.18388286894587 Y12.529556265313317
G2 X15.883884310185177 Y12.229557706552624 R0.29999855876068365 F100
G2 X15.583885751424601 Y12.529556265313317 R0.29999855876068365 F100
G2 X15.883884310185177 Y12.82955482407389 R0.29999855876068365 F100
G2 X16.18388286894587 Y12.529556265313317 R0.29999855876068365 F100;svg > g#gge96761 > circle
G0 X17.25004487927337 Y6.885946090811871
G2 X16.925027390669474 Y6.560928602207971 R0.32501748860398855 F100
G2 X16.600009902065572 Y6.885946090811871 R0.32501748860398855 F100
G2 X16.925027390669474 Y7.210963579415769 R0.32501748860398855 F100
G2 X17.25004487927337 Y6.885946090811871 R0.32501748860398855 F100;svg > g#gge96761 > circle
G0 X17.225025949430048 Y6.885946090811871
G2 X16.925027390669474 Y6.5859475320511764 R0.29999855876068365 F100
G2 X16.6250288319089 Y6.885946090811871 R0.29999855876068365 F100
G2 X16.925027390669474 Y7.185944649572443 R0.29999855876068365 F100
G2 X17.225025949430048 Y6.885946090811871 R0.29999855876068365 F100;svg > g#gge96848 > circle
G0 X22.933532941951363 Y12.692369808760597
G2 X22.608515453347465 Y12.367352320156698 R0.32501748860398855 F100
G2 X22.283497964743567 Y12.692369808760597 R0.32501748860398855 F100
G2 X22.608515453347465 Y13.017387297364614 R0.32501748860398855 F100
G2 X22.933532941951363 Y12.692369808760597 R0.32501748860398855 F100;svg > g#gge96848 > circle
G0 X22.90851401210816 Y12.692369808760597
G2 X22.608515453347465 Y12.392371250000021 R0.29999855876068365 F100
G2 X22.308516894586894 Y12.692369808760597 R0.29999855876068365 F100
G2 X22.608515453347465 Y12.99236836752129 R0.29999855876068365 F100
G2 X22.90851401210816 Y12.692369808760597 R0.29999855876068365 F100;svg > g#gge96863 > circle
G0 X21.831176033119736 Y42.277698847222155
G2 X21.506158544515596 Y41.95268135861825 R0.32501748860398855 F100
G2 X21.1811410559117 Y42.277698847222155 R0.32501748860398855 F100
G2 X21.506158544515596 Y42.60271633582605 R0.32501748860398855 F100
G2 X21.831176033119736 Y42.277698847222155 R0.32501748860398855 F100;svg > g#gge96863 > circle
G0 X21.806157103276412 Y42.277698847222155
G2 X21.506158544515596 Y41.977700288461584 R0.29999855876068365 F100
G2 X21.206159985755026 Y42.277698847222155 R0.29999855876068365 F100
G2 X21.506158544515596 Y42.577697405982846 R0.29999855876068365 F100
G2 X21.806157103276412 Y42.277698847222155 R0.29999855876068365 F100;svg > g#gge96878 > circle
G0 X21.812126086538505 Y45.745805122150955
G2 X21.487108597934487 Y45.42078763354694 R0.32501748860398855 F100
G2 X21.162091109330586 Y45.745805122150955 R0.32501748860398855 F100
G2 X21.487108597934487 Y46.07082261075485 R0.32501748860398855 F100
G2 X21.812126086538505 Y45.745805122150955 R0.32501748860398855 F100;svg > g#gge96878 > circle
G0 X21.78710715669518 Y45.745805122150955
G2 X21.487108597934487 Y45.44580656339026 R0.29999855876068365 F100
G2 X21.187110039173913 Y45.745805122150955 R0.29999855876068365 F100
G2 X21.487108597934487 Y46.04580368091153 R0.29999855876068365 F100
G2 X21.78710715669518 Y45.745805122150955 R0.29999855876068365 F100;svg > g#gge96881 > circle
G0 X12.487812233262119 Y43.17380833440155
G2 X12.1627947446581 Y42.84879084579765 R0.32501748860398855 F100
G2 X11.837777256054203 Y43.17380833440155 R0.32501748860398855 F100
G2 X12.1627947446581 Y43.498825823005575 R0.32501748860398855 F100
G2 X12.487812233262119 Y43.17380833440155 R0.32501748860398855 F100;svg > g#gge96881 > circle
G0 X12.462793303418794 Y43.17380833440155
G2 X12.1627947446581 Y42.87380977564098 R0.29999855876068365 F100
G2 X11.862796185897528 Y43.17380833440155 R0.29999855876068365 F100
G2 X12.1627947446581 Y43.47380689316225 R0.29999855876068365 F100
G2 X12.462793303418794 Y43.17380833440155 R0.29999855876068365 F100;svg > g#gge96911 > circle
G0 X13.67703689850425 Y17.53461223041298
G2 X13.352019409900231 Y17.20959474180908 R0.32501748860398855 F100
G2 X13.027001921296334 Y17.53461223041298 R0.32501748860398855 F100
G2 X13.352019409900231 Y17.859629719016997 R0.32501748860398855 F100
G2 X13.67703689850425 Y17.53461223041298 R0.32501748860398855 F100;svg > g#gge96911 > circle
G0 X13.652017968660926 Y17.53461223041298
G2 X13.352019409900231 Y17.234613671652404 R0.29999855876068365 F100
G2 X13.052020851139659 Y17.53461223041298 R0.29999855876068365 F100
G2 X13.352019409900231 Y17.834610789173666 R0.29999855876068365 F100
G2 X13.652017968660926 Y17.53461223041298 R0.29999855876068365 F100;svg > g#gge96926 > circle
G0 X21.85022597970085 Y26.92775989066945
G2 X21.52520849109683 Y26.60274240206555 R0.32501748860398855 F100
G2 X21.20019100249281 Y26.92775989066945 R0.32501748860398855 F100
G2 X21.52520849109683 Y27.252777379273347 R0.32501748860398855 F100
G2 X21.85022597970085 Y26.92775989066945 R0.32501748860398855 F100;svg > g#gge96926 > circle
G0 X21.825207049857525 Y26.92775989066945
G2 X21.52520849109683 Y26.627761331908875 R0.29999855876068365 F100
G2 X21.22520993233614 Y26.92775989066945 R0.29999855876068365 F100
G2 X21.52520849109683 Y27.22775844943014 R0.29999855876068365 F100
G2 X21.825207049857525 Y26.92775989066945 R0.29999855876068365 F100;svg > g#gge96929 > circle
G0 X15.577205570156663 Y23.875958448361786
G2 X15.252188081552765 Y23.550940959757888 R0.32501748860398855 F100
G2 X14.927170592948746 Y23.875958448361786 R0.32501748860398855 F100
G2 X15.252188081552765 Y24.200975936965804 R0.32501748860398855 F100
G2 X15.577205570156663 Y23.875958448361786 R0.32501748860398855 F100;svg > g#gge96929 > circle
G0 X15.552186640313334 Y23.875958448361786
G2 X15.252188081552765 Y23.575959889601208 R0.29999855876068365 F100
G2 X14.952189522792068 Y23.875958448361786 R0.29999855876068365 F100
G2 X15.252188081552765 Y24.175957007122477 R0.29999855876068365 F100
G2 X15.552186640313334 Y23.875958448361786 R0.29999855876068365 F100;svg > g#gge96989 > circle
G0 X35.21287450890296 Y56.23241971616805
G2 X34.887857020299066 Y55.907402227564035 R0.32501748860398855 F100
G2 X34.56283953169505 Y56.23241971616805 R0.32501748860398855 F100
G2 X34.887857020299066 Y56.557437204771944 R0.32501748860398855 F100
G2 X35.21287450890296 Y56.23241971616805 R0.32501748860398855 F100;svg > g#gge96989 > circle
G0 X35.18785557905964 Y56.23241971616805
G2 X34.887857020299066 Y55.932421157407354 R0.29999855876068365 F100
G2 X34.587858461538374 Y56.23241971616805 R0.29999855876068365 F100
G2 X34.887857020299066 Y56.53241827492862 R0.29999855876068365 F100
G2 X35.18785557905964 Y56.23241971616805 R0.29999855876068365 F100;svg > g#gge96992 > circle
G0 X29.68280201602553 Y57.5331500687322
G2 X29.357784527421636 Y57.208132580128186 R0.32501748860398855 F100
G2 X29.032767038817617 Y57.5331500687322 R0.32501748860398855 F100
G2 X29.357784527421636 Y57.858167557336095 R0.32501748860398855 F100
G2 X29.68280201602553 Y57.5331500687322 R0.32501748860398855 F100;svg > g#gge96992 > circle
G0 X29.657783086182203 Y57.5331500687322
G2 X29.357784527421636 Y57.2331515099715 R0.29999855876068365 F100
G2 X29.057785968660937 Y57.5331500687322 R0.29999855876068365 F100
G2 X29.357784527421636 Y57.83314862749277 R0.29999855876068365 F100
G2 X29.657783086182203 Y57.5331500687322 R0.29999855876068365 F100;svg > g#gge97040 > circle
G0 X24.98559318767805 Y19.633154345797664
G2 X24.66057569907415 Y19.308136857193645 R0.32501748860398855 F100
G2 X24.335558210470133 Y19.633154345797664 R0.32501748860398855 F100
G2 X24.66057569907415 Y19.95817183440156 R0.32501748860398855 F100
G2 X24.98559318767805 Y19.633154345797664 R0.32501748860398855 F100;svg > g#gge97040 > circle
G0 X24.960574257834722 Y19.633154345797664
G2 X24.66057569907415 Y19.333155787036976 R0.29999855876068365 F100
G2 X24.360577140313456 Y19.633154345797664 R0.29999855876068365 F100
G2 X24.66057569907415 Y19.93315290455824 R0.29999855876068365 F100
G2 X24.960574257834722 Y19.633154345797664 R0.29999855876068365 F100;svg > g#gge97079 > circle
G0 X25.58680950178051 Y34.554342504629574
G2 X25.261792013176493 Y34.229325016025555 R0.32501748860398855 F100
G2 X24.936774524572595 Y34.554342504629574 R0.32501748860398855 F100
G2 X25.261792013176493 Y34.87935999323347 R0.32501748860398855 F100
G2 X25.58680950178051 Y34.554342504629574 R0.32501748860398855 F100;svg > g#gge97079 > circle
G0 X25.56179057193719 Y34.554342504629574
G2 X25.261792013176493 Y34.25434394586888 R0.29999855876068365 F100
G2 X24.961793454415922 Y34.554342504629574 R0.29999855876068365 F100
G2 X25.261792013176493 Y34.85434106339015 R0.29999855876068365 F100
G2 X25.56179057193719 Y34.554342504629574 R0.29999855876068365 F100;svg > g#gge97082 > circle
G0 X26.157545901353146 Y39.04301791773492
G2 X25.83252841274925 Y38.71800042913102 R0.32501748860398855 F100
G2 X25.507510924145233 Y39.04301791773492 R0.32501748860398855 F100
G2 X25.83252841274925 Y39.36803540633894 R0.32501748860398855 F100
G2 X26.157545901353146 Y39.04301791773492 R0.32501748860398855 F100;svg > g#gge97082 > circle
G0 X26.132526971509822 Y39.04301791773492
G2 X25.83252841274925 Y38.74301935897434 R0.29999855876068365 F100
G2 X25.53252985398856 Y39.04301791773492 R0.29999855876068365 F100
G2 X25.83252841274925 Y39.343016476495606 R0.29999855876068365 F100
G2 X26.132526971509822 Y39.04301791773492 R0.29999855876068365 F100;svg > g#gge97208 > circle
G0 X27.40519040277771 Y15.103331048076925
G2 X27.080172914173815 Y14.778313559472904 R0.32501748860398855 F100
G2 X26.755155425569797 Y15.103331048076925 R0.32501748860398855 F100
G2 X27.080172914173815 Y15.42834853668082 R0.32501748860398855 F100
G2 X27.40519040277771 Y15.103331048076925 R0.32501748860398855 F100;svg > g#gge97208 > circle
G0 X27.380171472934386 Y15.103331048076925
G2 X27.080172914173815 Y14.803332489316233 R0.29999855876068365 F100
G2 X26.78017435541312 Y15.103331048076925 R0.29999855876068365 F100
G2 X27.080172914173815 Y15.403329606837497 R0.29999855876068365 F100
G2 X27.380171472934386 Y15.103331048076925 R0.29999855876068365 F100;svg > g#gge97217 > circle
G0 X23.82710243625342 Y29.888883587250653
G2 X23.50208494764952 Y29.563866098646635 R0.32501748860398855 F100
G2 X23.177067459045503 Y29.888883587250653 R0.32501748860398855 F100
G2 X23.50208494764952 Y30.213901075854555 R0.32501748860398855 F100
G2 X23.82710243625342 Y29.888883587250653 R0.32501748860398855 F100;svg > g#gge97217 > circle
G0 X23.802083506410096 Y29.888883587250653
G2 X23.50208494764952 Y29.588885028489962 R0.29999855876068365 F100
G2 X23.202086388888826 Y29.888883587250653 R0.29999855876068365 F100
G2 X23.50208494764952 Y30.18888214601123 R0.29999855876068365 F100
G2 X23.802083506410096 Y29.888883587250653 R0.29999855876068365 F100;svg > g#gge97241 > circle
G0 X25.241878469017166 Y13.132042575854635
G2 X24.916860980413148 Y12.807025087250738 R0.32501748860398855 F100
G2 X24.59184349180925 Y13.132042575854635 R0.32501748860398855 F100
G2 X24.916860980413148 Y13.457060064458654 R0.32501748860398855 F100
G2 X25.241878469017166 Y13.132042575854635 R0.32501748860398855 F100;svg > g#gge97241 > circle
G0 X25.216859539173843 Y13.132042575854635
G2 X24.916860980413148 Y12.83204401709406 R0.29999855876068365 F100
G2 X24.616862421652577 Y13.132042575854635 R0.29999855876068365 F100
G2 X24.916860980413148 Y13.432041134615327 R0.29999855876068365 F100
G2 X25.216859539173843 Y13.132042575854635 R0.29999855876068365 F100;svg > polyline#gge4524
G0 X2.530100356125362 Y68.79316709401705
G1 X2.530100356125362 Y68.79316709401705 F100
G1 X45.56773967236468 Y68.79316709401705 F100
G1 X45.56773967236468 Y2.539992877492809 F100
G1 X2.530100356125362 Y2.539992877492809 F100
G1 X2.530100356125362 Y68.79316709401705 F100
