G0 X3.4674886729166663 Y16.186092056249997
G1 X4.5909341125 Y16.186092056249997 F300
G1 X4.5909341125 Y17.309537760416667 F300
G1 X3.4674886729166663 Y17.309537760416667 F300
G1 X3.4674886729166663 Y16.186092056249997 F300
G0 X3.4674886729166663 Y16.186092056249997;svg > path
G0 X3.4674886729166663 Y12.376505599999998
G1 X4.5909341125 Y12.376505599999998 F300
G1 X4.5909341125 Y13.499951304166665 F300
G1 X3.4674886729166663 Y13.499951304166665 F300
G1 X3.4674886729166663 Y12.376505599999998 F300
G0 X3.4674886729166663 Y12.376505599999998;svg > path
G0 X7.708056508333334 Y9.642822133333333
G1 X8.923486195833334 Y9.642822133333333 F300
G1 X8.923486195833334 Y10.981241795833332 F300
G1 X7.708056508333334 Y10.981241795833332 F300
G1 X7.708056508333334 Y9.642822133333333 F300
G0 X7.708056508333334 Y9.642822133333333;svg > path
G0 X7.708056508333334 Y11.6561362
G1 X8.923486195833334 Y11.6561362 F300
G1 X8.923486195833334 Y12.994555597916666 F300
G1 X7.708056508333334 Y12.994555597916666 F300
G1 X7.708056508333334 Y11.6561362 F300
G0 X7.708056508333334 Y11.6561362;svg > path
G0 X11.213785674999999 Y14.492138804166665
G1 X11.162190033642576 Y14.487182609658811 F300
G1 X11.11747381113281 Y14.473175973006182 F300
G3 X11.048679622656248 Y14.423183054492185 R0.19837190351044465 F300
G3 X10.993644271874997 Y14.271480405208333 R0.2273966764537336 F300
G3 X11.048679622656248 Y14.119777755924478 R0.22739667645452863 F300
G3 X11.11747381113281 Y14.06978483741048 R0.19837190350444242 F300
G1 X11.162190033642576 Y14.055778200757853 F300
G1 X11.213785674999999 Y14.05082200625 F300
G1 X12.307259114583333 Y14.05082200625 F300
G1 X12.358854802449546 Y14.055778200757853 F300
G1 X12.403571065266929 Y14.06978483741048 F300
G3 X12.47236531575521 Y14.119777755924478 R0.198372072925324 F300
G3 X12.527400716145834 Y14.271480405208333 R0.22739656624313134 F300
G3 X12.47236531575521 Y14.423183054492185 R0.22739656624306406 F300
G3 X12.403571065266929 Y14.473175973006182 R0.19837207292817555 F300
G1 X12.358854802449546 Y14.487182609658811 F300
G1 X12.307259114583333 Y14.492138804166665 F300
G1 X11.213785674999999 Y14.492138804166665 F300;svg > path
G0 X11.213785674999999 Y13.539225260416668
G1 X11.162190033642576 Y13.534280672177125 F300
G1 X11.11747381113281 Y13.520306835847983 F300
G3 X11.048679622656248 Y13.470430989257814 R0.19834814543744406 F300
G3 X10.993644271874997 Y13.319083592708335 R0.22657874816588922 F300
G3 X11.048679622656248 Y13.167736196158856 R0.22657874816567444 F300
G3 X11.11747381113281 Y13.117860349568687 R0.19834814543677787 F300
G1 X11.162190033642576 Y13.103886513239544 F300
G1 X11.213785674999999 Y13.098941925000002 F300
G1 X12.307259114583333 Y13.098941925000002 F300
G1 X12.358854802449546 Y13.103886513239544 F300
G1 X12.403571065266929 Y13.117860349568687 F300
G3 X12.47236531575521 Y13.167736196158856 R0.19834831535830638 F300
G3 X12.527400716145834 Y13.319083592708335 R0.2265786386459631 F300
G3 X12.47236531575521 Y13.470430989257814 R0.22657863864631925 F300
G3 X12.403571065266929 Y13.520306835847983 R0.19834831535487296 F300
G1 X12.358854802449546 Y13.534280672177125 F300
G1 X12.307259114583333 Y13.539225260416668 F300
G1 X11.213785674999999 Y13.539225260416668 F300;svg > path
G0 X11.213785674999999 Y12.587345443749998
G1 X11.162190033642576 Y12.582389249242144 F300
G1 X11.11747381113281 Y12.568382612589517 F300
G3 X11.048679622656248 Y12.51838969407552 R0.19837190351017778 F300
G3 X10.993644271874997 Y12.366687044791664 R0.22739667645399542 F300
G3 X11.048679622656248 Y12.214984395507813 R0.22739667645371744 F300
G3 X11.11747381113281 Y12.164991476993816 R0.1983719035076997 F300
G1 X11.162190033642576 Y12.150984840341186 F300
G1 X11.213785674999999 Y12.146028645833333 F300
G1 X12.307259114583333 Y12.146028645833333 F300
G1 X12.358854802449546 Y12.150984840341186 F300
G1 X12.403571065266929 Y12.164991476993816 F300
G3 X12.47236531575521 Y12.214984395507813 R0.19837207292941186 F300
G3 X12.527400716145834 Y12.366687044791664 R0.22739656624284982 F300
G3 X12.47236531575521 Y12.51838969407552 R0.2273965662426402 F300
G3 X12.403571065266929 Y12.568382612589517 R0.19837207292430126 F300
G1 X12.358854802449546 Y12.582389249242144 F300
G1 X12.307259114583333 Y12.587345443749998 F300
G1 X11.213785674999999 Y12.587345443749998 F300;svg > path
G0 X11.213785674999999 Y11.634431900000001
G1 X11.162190033642576 Y11.629475708463543 F300
G1 X11.11747381113281 Y11.615469080208333 F300
G3 X11.048679622656248 Y11.565476191666667 R0.19837189725818233 F300
G3 X10.993644271874997 Y11.413773633333332 R0.22739646682039533 F300
G3 X11.048679622656248 Y11.262071074999998 R0.2273964668202234 F300
G3 X11.11747381113281 Y11.212078186458333 R0.19837189725743176 F300
G1 X11.162190033642576 Y11.198071558203123 F300
G1 X11.213785674999999 Y11.193115366666666 F300
G1 X12.307259114583333 Y11.193115366666666 F300
G1 X12.358854802449546 Y11.198071558203123 F300
G1 X12.403571065266929 Y11.212078186458333 F300
G3 X12.47236531575521 Y11.262071074999998 R0.19837206668081694 F300
G3 X12.527400716145834 Y11.413773633333333 R0.2273963566100479 F300
G3 X12.47236531575521 Y11.565476191666669 R0.2273963566100714 F300
G3 X12.403571065266929 Y11.615469080208333 R0.19837206668010046 F300
G1 X12.358854802449546 Y11.629475708463543 F300
G1 X12.307259114583333 Y11.634431900000001 F300
G1 X11.213785674999999 Y11.634431900000001 F300;svg > path
G0 X15.372704945833332 Y14.492138804166665
G1 X15.32110930447591 Y14.487182609658811 F300
G1 X15.276393081966143 Y14.473175973006182 F300
G3 X15.207598893489582 Y14.423183054492185 R0.19837190350830755 F300
G3 X15.152563542708332 Y14.271480405208333 R0.2273966764545834 F300
G3 X15.207598893489582 Y14.119777755924478 R0.22739667645410475 F300
G3 X15.276393081966143 Y14.06978483741048 R0.19837190350918807 F300
G1 X15.32110930447591 Y14.055778200757853 F300
G1 X15.372704945833332 Y14.05082200625 F300
G1 X16.465144922916664 Y14.05082200625 F300
G1 X16.51692227411295 Y14.055778200757853 F300
G1 X16.56179597848307 Y14.06978483741048 F300
G3 X16.63083244674479 Y14.119777755924478 R0.19903529079152443 F300
G3 X16.686061621354163 Y14.271480405208333 R0.22696810961929564 F300
G3 X16.63083244674479 Y14.423183054492185 R0.22696810961952385 F300
G3 X16.56179597848307 Y14.473175973006182 R0.19903529079365187 F300
G1 X16.51692227411295 Y14.487182609658811 F300
G1 X16.465144922916664 Y14.492138804166665 F300
G1 X15.372704945833332 Y14.492138804166665 F300;svg > path
G0 X15.372704945833332 Y13.539225260416668
G1 X15.32110930447591 Y13.534280672177125 F300
G1 X15.276393081966143 Y13.520306835847983 F300
G3 X15.207598893489582 Y13.470430989257814 R0.19834814543384305 F300
G3 X15.152563542708332 Y13.319083592708335 R0.22657874816567108 F300
G3 X15.207598893489582 Y13.167736196158856 R0.22657874816575907 F300
G3 X15.276393081966143 Y13.117860349568687 R0.19834814543662047 F300
G1 X15.32110930447591 Y13.103886513239544 F300
G1 X15.372704945833332 Y13.098941925000002 F300
G1 X16.465144922916664 Y13.098941925000002 F300
G1 X16.51692227411295 Y13.103886513239544 F300
G1 X16.56179597848307 Y13.117860349568687 F300
G3 X16.63083244674479 Y13.167736196158856 R0.19901349294684673 F300
G3 X16.686061621354163 Y13.319083592708335 R0.22615287500000059 F300
G3 X16.63083244674479 Y13.470430989257814 R0.22615287499929335 F300
G3 X16.56179597848307 Y13.520306835847983 R0.19901349294415568 F300
G1 X16.51692227411295 Y13.534280672177125 F300
G1 X16.465144922916664 Y13.539225260416668 F300
G1 X15.372704945833332 Y13.539225260416668 F300;svg > path
G0 X15.372704945833332 Y12.587345443749998
G1 X15.32110930447591 Y12.582389249242144 F300
G1 X15.276393081966143 Y12.568382612589517 F300
G3 X15.207598893489582 Y12.51838969407552 R0.19837190350833125 F300
G3 X15.152563542708332 Y12.366687044791664 R0.22739667645450093 F300
G3 X15.207598893489582 Y12.214984395507813 R0.22739667645408668 F300
G3 X15.276393081966143 Y12.164991476993816 R0.1983719035092478 F300
G1 X15.32110930447591 Y12.150984840341186 F300
G1 X15.372704945833332 Y12.146028645833333 F300
G1 X16.465144922916664 Y12.146028645833333 F300
G1 X16.51692227411295 Y12.150984840341186 F300
G1 X16.56179597848307 Y12.164991476993816 F300
G3 X16.63083244674479 Y12.214984395507813 R0.19903529079462506 F300
G3 X16.686061621354163 Y12.366687044791664 R0.22696810961876138 F300
G3 X16.63083244674479 Y12.51838969407552 R0.22696810961923822 F300
G3 X16.56179597848307 Y12.568382612589517 R0.1990352907899597 F300
G1 X16.51692227411295 Y12.582389249242144 F300
G1 X16.465144922916664 Y12.587345443749998 F300
G1 X15.372704945833332 Y12.587345443749998 F300;svg > path
G0 X15.372704945833332 Y11.634431900000001
G1 X15.32110930447591 Y11.629475708463543 F300
G1 X15.276393081966143 Y11.615469080208333 F300
G3 X15.207598893489582 Y11.565476191666667 R0.19837189726182355 F300
G3 X15.152563542708332 Y11.413773633333332 R0.22739646682050274 F300
G3 X15.207598893489582 Y11.262071074999998 R0.22739646682130812 F300
G3 X15.276393081966143 Y11.212078186458333 R0.19837189725754298 F300
G1 X15.32110930447591 Y11.198071558203123 F300
G1 X15.372704945833332 Y11.193115366666666 F300
G1 X16.465144922916664 Y11.193115366666666 F300
G1 X16.51692227411295 Y11.198071558203123 F300
G1 X16.56179597848307 Y11.212078186458333 F300
G3 X16.63083244674479 Y11.262071074999998 R0.1990352850432317 F300
G3 X16.686061621354163 Y11.413773633333333 R0.2269679006764431 F300
G3 X16.63083244674479 Y11.565476191666669 R0.22696790067679137 F300
G3 X16.56179597848307 Y11.615469080208333 R0.1990352850421858 F300
G1 X16.51692227411295 Y11.629475708463543 F300
G1 X16.465144922916664 Y11.634431900000001 F300
G1 X15.372704945833332 Y11.634431900000001 F300;svg > path
G0 X14.851806508333333 Y7.275008204166666
G1 X16.067236195833335 Y7.275008204166666 F300
G1 X16.067236195833335 Y8.613427866666665 F300
G1 X14.851806508333333 Y8.613427866666665 F300
G1 X14.851806508333333 Y7.275008204166666 F300
G0 X14.851806508333333 Y7.275008204166666;svg > path
G0 X14.851806508333333 Y5.2606606750000005
G1 X16.067236195833335 Y5.2606606750000005 F300
G1 X16.067236195833335 Y6.5990803375 F300
G1 X14.851806508333333 Y6.5990803375 F300
G1 X14.851806508333333 Y5.2606606750000005 F300
G0 X14.851806508333333 Y5.2606606750000005;svg > path
G0 X23.226489191666666 Y10.711490885416666
G1 X24.564908854166667 Y10.711490885416666 F300
G1 X24.564908854166667 Y11.926920572916666 F300
G1 X23.226489191666666 Y11.926920572916666 F300
G1 X23.226489191666666 Y10.711490885416666 F300
G0 X23.226489191666666 Y10.711490885416666;svg > path
G0 X21.21214192708333 Y10.711490885416666
G1 X22.550561589583335 Y10.711490885416666 F300
G1 X22.550561589583335 Y11.926920572916666 F300
G1 X21.21214192708333 Y11.926920572916666 F300
G1 X21.21214192708333 Y10.711490885416666 F300
G0 X21.21214192708333 Y10.711490885416666;svg > path
G0 X26.327075129166666 Y10.661881510416665
G1 X27.450520833333336 Y10.661881510416665 F300
G1 X27.450520833333336 Y11.785327214583331 F300
G1 X26.327075129166666 Y11.785327214583331 F300
G1 X26.327075129166666 Y10.661881510416665 F300
G0 X26.327075129166666 Y10.661881510416665;svg > path
G0 X18.316194529166665 Y15.129825912500001
G1 X23.191349350000003 Y15.129825912500001 F300
G1 X23.191349350000003 Y19.629809504166666 F300
G1 X18.316194529166665 Y19.629809504166666 F300
G1 X18.316194529166665 Y15.129825912500001 F300
G0 X18.316194529166665 Y15.129825912500001;svg > path
G0 X24.642423568749997 Y15.065747004166667
G1 X26.892415364583336 Y15.065747004166667 F300
G1 X26.892415364583336 Y16.265673695833332 F300
G1 X24.642423568749997 Y16.265673695833332 F300
G1 X24.642423568749997 Y15.065747004166667 F300
G0 X24.642423568749997 Y15.065747004166667;svg > path
G0 X24.642423568749997 Y18.492927993749998
G1 X26.892415364583336 Y18.492927993749998 F300
G1 X26.892415364583336 Y19.692854949999997 F300
G1 X24.642423568749997 Y19.692854949999997 F300
G1 X24.642423568749997 Y18.492927993749998 F300
G0 X24.642423568749997 Y18.492927993749998;svg > path
G0 X17.1142009125 Y0.9456787770833331
G1 X21.614184504166666 Y0.9456787770833331 F300
G1 X21.614184504166666 Y5.820833333333333 F300
G1 X17.1142009125 Y5.820833333333333 F300
G1 X17.1142009125 Y0.9456787770833331 F300
G0 X17.1142009125 Y0.9456787770833331;svg > path
G0 X20.478336720833333 Y7.271907552083333
G1 X21.678263412499998 Y7.271907552083333 F300
G1 X21.678263412499998 Y9.521899347916666 F300
G1 X20.478336720833333 Y9.521899347916666 F300
G1 X20.478336720833333 Y7.271907552083333 F300
G0 X20.478336720833333 Y7.271907552083333;svg > path
G0 X17.051155466666664 Y7.271907552083333
G1 X18.251082422916664 Y7.271907552083333 F300
G1 X18.251082422916664 Y9.521899347916666 F300
G1 X17.051155466666664 Y9.521899347916666 F300
G1 X17.051155466666664 Y7.271907552083333 F300
G0 X17.051155466666664 Y7.271907552083333;svg > path
G0 X3.4674886729166663 Y4.756298695833333
G1 X4.5909341125 Y4.756298695833333 F300
G1 X4.5909341125 Y5.879744399999999 F300
G1 X3.4674886729166663 Y5.879744399999999 F300
G1 X3.4674886729166663 Y4.756298695833333 F300
G0 X3.4674886729166663 Y4.756298695833333;svg > path
G0 X3.4674886729166663 Y8.565885416666665
G1 X4.5909341125 Y8.565885416666665 F300
G1 X4.5909341125 Y9.689331120833334 F300
G1 X3.4674886729166663 Y9.689331120833334 F300
G1 X3.4674886729166663 Y8.565885416666665 F300
G0 X3.4674886729166663 Y8.565885416666665;svg > path
G0 X4.028697439583333 Y12.937720716666666
G1 X5.362978489583332 Y14.272001766666666 F300;svg > path
G0 X5.362978489583332 Y14.272001766666666
G1 X11.760520939583333 Y14.272001766666666 F300;svg > path
G0 X18.50429713958333 Y19.629814266666667
G1 X20.754292639583326 Y17.379818766666663 F300;svg > path
G0 X8.315766589583331 Y10.311506766666668
G1 X10.658783239583336 Y10.311506766666668 F300;svg > path
G0 X10.658783239583336 Y10.311506766666668
G1 X11.760520939583333 Y11.414292216666665 F300;svg > path
G0 X19.185391789583328 Y3.5615393166666665
G1 X19.36419508958333 Y3.3827360166666653 F300;svg > path
G0 X26.88930703958333 Y11.223087366666665
G1 X28.017924289583334 Y12.352733316666669 F300;svg > path
G0 X28.017924289583334 Y12.352733316666669
G1 X28.017924289583334 Y16.844456616666662 F300;svg > path
G0 X28.017924289583334 Y16.844456616666662
G1 X25.767928789583333 Y19.093404366666665 F300;svg > path
G0 X15.459516589583334 Y7.943706066666666
G1 X16.41140698958333 Y6.991815666666665 F300;svg > path
G0 X16.41140698958333 Y6.991815666666665
G1 X18.316197439583334 Y6.991815666666665 F300;svg > path
G0 X18.316197439583334 Y6.991815666666665
G1 X20.222016589583333 Y8.896606116666666 F300;svg > path
G0 X20.222016589583333 Y8.896606116666666
G1 X20.222016589583333 Y9.658320366666665 F300;svg > path
G0 X20.222016589583333 Y9.658320366666665
G1 X21.06332173958333 Y10.500654216666666 F300;svg > path
G0 X21.06332173958333 Y10.500654216666666
G1 X22.69836418958333 Y10.500654216666666 F300;svg > path
G0 X22.69836418958333 Y10.500654216666666
G1 X22.88852128958333 Y10.690811316666665 F300;svg > path
G0 X22.88852128958333 Y10.690811316666665
G1 X22.88852128958333 Y12.786825666666665 F300;svg > path
G0 X22.88852128958333 Y12.786825666666665
G1 X25.767928789583333 Y15.666233166666665 F300;svg > path
G0 X23.895180439583335 Y11.319213666666666
G1 X23.895180439583335 Y11.213790966666666 F300;svg > path
G0 X23.895180439583335 Y11.213790966666666
G1 X21.077780689583328 Y8.396391216666666 F300;svg > path
G0 X15.919440739583335 Y11.414292216666665
G1 X9.823688389583333 Y5.318539866666665 F300;svg > path
G0 X9.823688389583333 Y5.318539866666665
G1 X4.028697439583333 Y5.318539866666665 F300;svg > path
G0 X15.919440739583335 Y12.366163566666666
G1 X14.204826439583332 Y12.366163566666666 F300;svg > path
G0 X14.204826439583332 Y12.366163566666666
G1 X10.965735889583334 Y9.128120766666665 F300;svg > path
G0 X10.965735889583334 Y9.128120766666665
G1 X4.028697439583333 Y9.128120766666665 F300;svg > path
G0 X8.315766589583331 Y12.325853766666667
G1 X9.308995489583333 Y13.319082666666665 F300;svg > path
G0 X9.308995489583333 Y13.319082666666665
G1 X11.760520939583333 Y13.319082666666665 F300;svg > path
G0 X11.760520939583333 Y12.366163566666666
G1 X12.261783589583334 Y12.867426216666665 F300;svg > path
G0 X12.261783589583334 Y12.867426216666665
G1 X16.713197089583332 Y12.867426216666665 F300;svg > path
G0 X16.713197089583332 Y12.867426216666665
G1 X16.904401939583334 Y12.677269116666665 F300;svg > path
G0 X16.904401939583334 Y12.677269116666665
G1 X16.904401939583334 Y10.962635766666667 F300;svg > path
G0 X16.904401939583334 Y10.962635766666667
G1 X14.618230489583333 Y8.676464316666667 F300;svg > path
G0 X14.618230489583333 Y8.676464316666667
G1 X14.618230489583333 Y6.771673866666665 F300;svg > path
G0 X14.618230489583333 Y6.771673866666665
G1 X15.459516589583334 Y5.930387766666666 F300;svg > path
G0 X15.919440739583335 Y14.272001766666666
G1 X18.92907403958333 Y14.272001766666666 F300;svg > path
G0 X18.92907403958333 Y14.272001766666666
G1 X21.881862139583333 Y11.319213666666666 F300;svg > path
G0 X1.5657953295833333 Y3.5615393166666665
G1 X19.185391789583328 Y3.5615393166666665 F300;svg > path
G0 X8.315766589583331 Y10.311506766666668
G1 X2.070157414583334 Y10.311506766666668 F300;svg > path
G0 X2.070157414583334 Y10.311506766666668
G1 X1.5657953295833333 Y9.807158016666666 F300;svg > path
G0 X1.5657953295833333 Y9.807158016666666
G1 X1.5657953295833333 Y3.5615393166666665 F300;svg > path
G0 X4.028697439583333 Y12.937720716666666
G1 X2.2189855395833336 Y12.937720716666666 F300;svg > path
G0 X2.2189855395833336 Y12.937720716666666
G1 X1.7787019395833332 Y13.378004316666665 F300;svg > path
G0 X4.028697439583333 Y16.748330316666664
G1 X11.553809389583334 Y16.748330316666664 F300;svg > path
G0 X11.553809389583334 Y16.748330316666664
G1 X14.983057039583334 Y13.319082666666665 F300;svg > path
G0 X14.983057039583334 Y13.319082666666665
G1 X15.919440739583335 Y13.319082666666665 F300;svg > path
G0 X19.269116539583337 Y11.700575616666665
G1 X19.269116539583337 Y10.014898266666664 F300;svg > path
G0 X19.269116539583337 Y10.014898266666664
G1 X17.65060948958333 Y8.396391216666666 F300;svg > path
G0 X1.7787019395833332 Y13.378004316666665
G1 X1.7787019395833332 Y18.879472866666664 F300;svg > path
G0 X1.7787019395833332 Y18.879472866666664
G1 X2.5290433395833336 Y19.629814266666667 F300;svg > path
G0 X2.5290433395833336 Y19.629814266666667
G1 X18.50429713958333 Y19.629814266666667 F300;svg > path
G0 X17.65060948958333 Y13.319082666666665
G1 X19.269116539583337 Y11.700575616666665 F300;svg > path
G0 X15.919440739583335 Y13.319082666666665
G1 X17.65060948958333 Y13.319082666666665 F300;svg > path
G0 X19.185391789583328 Y3.5615393166666665
G1 X26.276430439583336 Y3.5615393166666665 F300;svg > path
G0 X26.276430439583336 Y3.5615393166666665
G1 X26.88930703958333 Y4.175463666666666 F300;svg > path
G0 X26.88930703958333 Y4.175463666666666
G1 X26.88930703958333 Y11.223087366666665 F300
