; generated by PrusaSlicer 2.9.4 on 2026-01-21 at 09:06:11 UTC

; 

; external perimeters extrusion width = 0.45mm
; perimeters extrusion width = 0.45mm
; infill extrusion width = 0.45mm
; solid infill extrusion width = 0.45mm
; top infill extrusion width = 0.40mm
; support material extrusion width = 0.35mm
; first layer extrusion width = 0.42mm

M190 S60 ; set bed temperature and wait for it to be reached
M104 S200 ; set temperature
;TYPE:Custom
G28 ; home all axes
G1 Z5 F5000 ; lift nozzle
M109 S200 ; set temperature and wait for it to be reached
G21 ; set units to millimeters
G90 ; use absolute coordinates
M82 ; use absolute distances for extrusion
G92 E0
; Filament gcode
M107
;LAYER_CHANGE
;Z:0.15
;HEIGHT:0.15
G1 X6.281 Y6.257 F7800
G1 Z.15
;TYPE:Skirt/Brim
;WIDTH:0.42
G1 F1800
G1 X6.611 Y5.926 E.0113
G1 X7.935 Y4.821 E.05301
G1 X9.199 Y4.043 E.08891
G1 X9.939 Y3.686 E.10878
G1 X11.849 Y3.04 E.15754
G1 X13.337 Y2.777 E.19408
G1 X27.227 Y1.354 E.53177
G1 X36.665 Y1.323 E.76003
G1 X41.155 Y1.445 E.86866
G1 X42.557 Y1.589 E.90275
G1 X44.54 Y2.071 E.95211
G1 X46.455 Y2.883 E1.00242
G1 X47.534 Y3.518 E1.0327
G1 X48.518 Y4.235 E1.06215
G1 X50.605 Y6.229 E1.13196
G1 X51.942 Y7.933 E1.18434
G1 X52.978 Y9.858 E1.23721
G1 X53.646 Y11.84 E1.28779
G1 X53.981 Y13.931 E1.33901
G1 X54.488 Y24.511 E1.59518
G1 X54.488 Y30.214 E1.73311
G1 X54.303 Y32.036 E1.7774
G1 X53.847 Y33.842 E1.82245
G1 X53.138 Y35.55 E1.86718
G1 X52.172 Y37.159 E1.91257
G1 X50.934 Y38.657 E1.95957
G1 X49.68 Y39.905 E2.00236
G1 X48.818 Y40.647 E2.02987
G1 X47.051 Y41.811 E2.08104
G1 X45.172 Y42.645 E2.13076
G1 X43.991 Y42.995 E2.16055
G1 X42.817 Y43.224 E2.18948
G1 X30.221 Y44.823 E2.49656
G1 X28.716 Y44.917 E2.53303
G1 X14.881 Y44.917 E2.86763
G1 X13.713 Y44.858 E2.89591
G1 X12.132 Y44.603 E2.93464
G1 X10.557 Y44.137 E2.97436
G1 X9.042 Y43.464 E3.01445
G1 X7.653 Y42.618 E3.05378
G1 X6.295 Y41.519 E3.09603
G1 X4.006 Y39.241 E3.17413
G1 X3.182 Y38.315 E3.20411
G1 X2.45 Y37.308 E3.23422
G1 X1.701 Y36 E3.27067
G1 X1.104 Y34.593 E3.30763
G1 X.686 Y33.145 E3.34408
G1 X.436 Y31.595 E3.38205
G1 X.376 Y30.453 E3.40971
G1 X.377 Y24.669 E3.5496
G1 X.552 Y22.743 E3.59637
G1 X2.454 Y12.365 E3.85154
G1 X2.907 Y10.947 E3.88754
G1 X3.235 Y10.184 E3.90763
G1 X4.324 Y8.378 E3.95863
G1 X5.064 Y7.479 E3.98679
G1 X6.239 Y6.3 E4.02705
G92 E0
G1 X10.926 Y11.174 F7800
G1 F1800
G1 X11.787 Y10.347 E.02887
G1 X12.719 Y9.823 E.05473
G1 X13.747 Y9.527 E.0806
G1 X26.683 Y9.478 E.39346
G1 X27.352 Y8.844 E.41575
G1 X28.842 Y8.146 E.45554
G1 X29.534 Y8.055 E.47242
G1 X34.897 Y8.059 E.60212
G1 X35.503 Y8.166 E.617
G1 X40.747 Y8.169 E.74383
G1 X41.686 Y8.274 E.76668
G1 X42.6 Y8.525 E.7896
G1 X43.453 Y8.914 E.81227
G1 X44.67 Y9.808 E.84879
G1 X46.042 Y11.247 E.89688
G1 X46.502 Y11.94 E.917
G1 X46.859 Y12.681 E.93689
G1 X47.163 Y13.7 E.96261
G1 X47.283 Y14.76 E.98841
G1 X47.279 Y22.036 E1.16438
G1 X47.22 Y22.446 E1.1744
G1 X47.673 Y23.879 E1.21075
G1 X47.756 Y24.713 E1.23102
G1 X47.755 Y30.105 E1.36142
G1 X47.627 Y31.088 E1.38539
G1 X47.34 Y32.037 E1.40937
G1 X46.893 Y32.936 E1.43365
G1 X46.287 Y33.763 E1.45845
G1 X44.993 Y35.069 E1.50291
G1 X44.275 Y35.629 E1.52493
G1 X43.289 Y36.156 E1.55197
G1 X42.203 Y36.496 E1.57949
G1 X41.164 Y36.621 E1.6048
G1 X38.281 Y36.614 E1.67453
G1 X37.201 Y36.459 E1.70092
G1 X36.207 Y36.128 E1.72626
G1 X35.322 Y35.654 E1.75054
G1 X33.661 Y35.657 E1.79071
G1 X32.596 Y36.713 E1.82698
G1 X31.748 Y37.331 E1.85236
G1 X31.018 Y37.704 E1.87219
G1 X30.263 Y37.969 E1.89154
G1 X29.1 Y38.168 E1.92008
G1 X14.663 Y38.175 E2.26924
G1 X13.656 Y38.043 E2.2938
G1 X12.708 Y37.75 E2.3178
G1 X11.742 Y37.252 E2.34408
G1 X10.961 Y36.659 E2.3678
G1 X8.693 Y34.399 E2.44523
G1 X8.057 Y33.579 E2.47033
G1 X7.419 Y32.25 E2.50598
G1 X7.205 Y31.414 E2.52685
G1 X7.114 Y30.556 E2.54772
G1 X7.11 Y24.737 E2.68845
G1 X7.187 Y23.894 E2.70892
G1 X7.457 Y22.851 E2.73498
G1 X7.824 Y22.026 E2.75682
G1 X8.263 Y21.331 E2.7767
G1 X8.871 Y20.62 E2.79933
G1 X8.891 Y14.533 E2.94654
G1 X9.27 Y13.205 E2.97994
G1 X10 Y12.065 E3.01268
G1 X10.883 Y11.216 E3.04231
G1 X11.15 Y11.493 F7800
G1 F1800
G1 X12 Y10.672 E3.07089
G1 X12.849 Y10.189 E3.09451
G1 X13.828 Y9.907 E3.11915
G1 X26.842 Y9.865 E3.43389
G1 X27.548 Y9.179 E3.4577
G1 X28.924 Y8.526 E3.49454
G1 X29.547 Y8.443 E3.50974
G1 X34.879 Y8.447 E3.63869
G1 X35.467 Y8.553 E3.65314
G1 X40.715 Y8.556 E3.78006
G1 X41.6 Y8.652 E3.80159
G1 X42.455 Y8.885 E3.82302
G1 X43.256 Y9.248 E3.84429
G1 X43.857 Y9.633 E3.86155
G1 X44.398 Y10.084 E3.87858
G1 X45.729 Y11.476 E3.92516
G1 X46.159 Y12.12 E3.94389
G1 X46.503 Y12.835 E3.96308
G1 X46.78 Y13.762 E3.98648
G1 X46.895 Y14.771 E4.01104
G1 X46.891 Y22.021 E4.18638
G1 X46.818 Y22.508 E4.19829
G1 X46.983 Y22.848 E4.20743
G1 X47.295 Y23.966 E4.2355
G1 X47.369 Y24.741 E4.25433
G1 X47.367 Y30.092 E4.38374
G1 X47.245 Y31.022 E4.40642
G1 X46.985 Y31.879 E4.42808
G1 X46.554 Y32.748 E4.45154
G1 X45.984 Y33.521 E4.47477
G1 X44.726 Y34.787 E4.51793
G1 X44.051 Y35.312 E4.53861
G1 X43.124 Y35.805 E4.564
G1 X42.105 Y36.12 E4.5898
G1 X41.153 Y36.234 E4.61299
G1 X38.321 Y36.228 E4.68148
G1 X37.307 Y36.086 E4.70624
G1 X36.343 Y35.765 E4.73081
G1 X35.455 Y35.266 E4.75544
G1 X33.501 Y35.269 E4.8027
G1 X32.333 Y36.427 E4.84248
G1 X31.557 Y36.993 E4.86571
G1 X30.877 Y37.342 E4.8842
G1 X30.15 Y37.597 E4.90283
G1 X29.083 Y37.78 E4.92901
G1 X14.699 Y37.788 E5.27689
G1 X13.754 Y37.668 E5.29993
G1 X12.839 Y37.384 E5.3231
G1 X11.936 Y36.916 E5.3477
G1 X11.206 Y36.359 E5.36991
G1 X8.976 Y34.134 E5.4461
G1 X8.376 Y33.358 E5.46982
G1 X7.79 Y32.134 E5.50264
G1 X7.589 Y31.358 E5.52203
G1 X7.502 Y30.546 E5.54178
G1 X7.498 Y24.746 E5.68205
G1 X7.572 Y23.946 E5.70148
G1 X7.828 Y22.965 E5.726
G1 X8.172 Y22.197 E5.74635
G1 X8.57 Y21.568 E5.76435
G1 X9.258 Y20.794 E5.7894
G1 X9.278 Y14.561 E5.94015
G1 X9.612 Y13.389 E5.96962
G1 X10.286 Y12.328 E6.00002
G1 X11.107 Y11.534 E6.02764
G1 X11.375 Y11.811 F7800
G1 F1800
G1 X12.213 Y10.997 E6.05589
G1 X13.02 Y10.538 E6.07834
G1 X13.907 Y10.288 E6.10063
G1 X27.003 Y10.253 E6.41736
G1 X27.747 Y9.514 E6.44272
G1 X29.007 Y8.906 E6.47656
G1 X29.56 Y8.831 E6.49006
G1 X34.861 Y8.835 E6.61826
G1 X35.431 Y8.941 E6.63228
G1 X40.685 Y8.942 E6.75935
G1 X41.514 Y9.03 E6.77951
G1 X42.31 Y9.245 E6.79945
G1 X43.06 Y9.583 E6.81935
G1 X44.126 Y10.36 E6.85125
G1 X45.416 Y11.706 E6.89634
G1 X45.828 Y12.324 E6.9143
G1 X46.147 Y12.989 E6.93214
G1 X46.403 Y13.855 E6.95398
G1 X46.507 Y14.781 E6.97652
G1 X46.503 Y22.005 E7.15123
G1 X46.416 Y22.571 E7.16508
G1 X46.615 Y22.971 E7.17589
G1 X46.916 Y24.053 E7.20305
G1 X46.982 Y24.767 E7.22039
G1 X46.979 Y30.08 E7.34888
G1 X46.869 Y30.926 E7.36951
G1 X46.63 Y31.722 E7.38961
G1 X46.231 Y32.532 E7.41145
G1 X45.68 Y33.28 E7.43392
G1 X44.461 Y34.504 E7.4757
G1 X43.826 Y34.995 E7.49511
G1 X42.991 Y35.44 E7.51799
G1 X42.008 Y35.744 E7.54287
G1 X41.142 Y35.846 E7.56396
G1 X38.36 Y35.842 E7.63124
G1 X37.411 Y35.712 E7.65441
G1 X36.509 Y35.414 E7.67738
G1 X35.579 Y34.878 E7.70334
G1 X33.341 Y34.882 E7.75747
G1 X32.071 Y36.141 E7.80072
G1 X31.366 Y36.655 E7.82182
G1 X30.712 Y36.991 E7.8396
G1 X30.038 Y37.226 E7.85686
G1 X29.067 Y37.392 E7.88068
G1 X14.736 Y37.402 E8.22727
G1 X13.821 Y37.285 E8.24958
G1 X12.972 Y37.02 E8.27109
G1 X12.13 Y36.58 E8.29407
G1 X11.453 Y36.059 E8.31473
G1 X9.259 Y33.868 E8.38972
G1 X8.696 Y33.138 E8.41202
G1 X8.161 Y32.019 E8.44202
G1 X7.968 Y31.275 E8.46061
G1 X7.889 Y30.535 E8.47861
G1 X7.885 Y24.755 E8.6184
G1 X7.957 Y23.999 E8.63677
G1 X8.199 Y23.08 E8.65975
G1 X8.52 Y22.369 E8.67862
G1 X8.876 Y21.806 E8.69473
G1 X9.645 Y20.959 E8.7224
G1 X9.666 Y14.59 E8.87643
G1 X9.977 Y13.525 E8.90326
G1 X10.573 Y12.59 E8.93008
G1 X11.332 Y11.852 E8.95568
G1 X11.601 Y12.128 F7800
G1 F1800
G1 X12.429 Y11.32 E8.98366
G1 X13.149 Y10.905 E9.00376
G1 X13.987 Y10.668 E9.02482
G1 X27.167 Y10.64 E9.34358
G1 X27.949 Y9.847 E9.37052
G1 X29.092 Y9.286 E9.40131
G1 X29.574 Y9.219 E9.41308
G1 X34.841 Y9.223 E9.54046
G1 X35.393 Y9.329 E9.55405
G1 X40.654 Y9.329 E9.68129
G1 X41.458 Y9.414 E9.70084
G1 X42.166 Y9.606 E9.71858
G1 X43.381 Y10.246 E9.75179
G1 X43.854 Y10.637 E9.76663
G1 X45.104 Y11.936 E9.81023
G1 X45.79 Y13.142 E9.84379
G1 X46.026 Y13.947 E9.86408
G1 X46.119 Y14.792 E9.88464
G1 X46.116 Y21.989 E10.0587
G1 X46.012 Y22.636 E10.07455
G1 X46.247 Y23.095 E10.08702
G1 X46.538 Y24.139 E10.11323
G1 X46.595 Y24.792 E10.12908
G1 X46.591 Y30.067 E10.25666
G1 X46.493 Y30.831 E10.27529
G1 X46.275 Y31.566 E10.29383
G1 X45.891 Y32.345 E10.31483
G1 X45.377 Y33.037 E10.33568
G1 X44.195 Y34.221 E10.37614
G1 X43.602 Y34.678 E10.39425
G1 X42.859 Y35.075 E10.41462
G1 X41.911 Y35.368 E10.43862
G1 X41.132 Y35.458 E10.45759
G1 X38.399 Y35.456 E10.52369
G1 X37.515 Y35.338 E10.54526
G1 X36.647 Y35.051 E10.56737
G1 X35.703 Y34.49 E10.59393
G1 X33.181 Y34.494 E10.65492
G1 X31.808 Y35.855 E10.70168
G1 X31.175 Y36.317 E10.72063
G1 X29.926 Y36.854 E10.75351
G1 X29.05 Y37.004 E10.775
G1 X14.772 Y37.016 E11.12031
G1 X13.92 Y36.91 E11.14107
G1 X13.105 Y36.655 E11.16172
G1 X12.327 Y36.245 E11.18299
G1 X11.7 Y35.761 E11.20215
G1 X9.542 Y33.603 E11.27596
G1 X9.016 Y32.918 E11.29685
G1 X8.531 Y31.903 E11.32406
G1 X8.352 Y31.218 E11.34118
G1 X8.277 Y30.524 E11.35806
G1 X8.273 Y24.764 E11.49736
G1 X8.341 Y24.052 E11.51466
G1 X8.57 Y23.195 E11.53611
G1 X8.855 Y22.564 E11.55286
G1 X9.182 Y22.044 E11.56772
G1 X10.033 Y21.125 E11.59801
G1 X10.054 Y14.618 E11.75538
G1 X10.319 Y13.708 E11.7783
G1 X10.86 Y12.851 E11.80281
G1 X11.558 Y12.17 E11.82639
G1 X11.828 Y12.445 F7800
G1 F1800
G1 X12.646 Y11.642 E11.85411
G1 X13.279 Y11.271 E11.87185
G1 X14.066 Y11.049 E11.89163
G1 X27.397 Y11.028 E12.21404
G1 X28.152 Y10.178 E12.24154
G1 X29.179 Y9.665 E12.2693
G1 X29.588 Y9.607 E12.27929
G1 X34.821 Y9.61 E12.40585
G1 X35.354 Y9.717 E12.419
G1 X40.644 Y9.717 E12.54694
G1 X41.401 Y9.798 E12.56535
G1 X42.022 Y9.966 E12.58091
G1 X42.67 Y10.254 E12.59806
G1 X43.583 Y10.915 E12.62532
G1 X44.792 Y12.167 E12.66741
G1 X45.433 Y13.293 E12.69875
G1 X45.649 Y14.038 E12.71751
G1 X45.732 Y14.802 E12.7361
G1 X45.728 Y21.973 E12.90953
G1 X45.608 Y22.701 E12.92737
G1 X45.879 Y23.219 E12.94151
G1 X46.159 Y24.225 E12.96676
G1 X46.208 Y24.815 E12.98108
G1 X46.203 Y30.054 E13.10778
G1 X46.11 Y30.765 E13.12512
G1 X45.919 Y31.411 E13.14141
G1 X45.568 Y32.129 E13.16074
G1 X45.093 Y32.773 E13.18009
G1 X43.93 Y33.938 E13.2199
G1 X43.379 Y34.361 E13.2367
G1 X42.727 Y34.71 E13.25459
G1 X41.814 Y34.992 E13.2777
G1 X41.121 Y35.07 E13.29457
G1 X38.437 Y35.07 E13.35948
G1 X37.585 Y34.956 E13.38027
G1 X36.786 Y34.688 E13.40065
G1 X35.829 Y34.102 E13.42779
G1 X33.021 Y34.107 E13.4957
G1 X31.546 Y35.57 E13.54594
G1 X30.984 Y35.979 E13.56275
G1 X29.814 Y36.482 E13.59355
G1 X29.033 Y36.617 E13.61272
G1 X14.806 Y36.629 E13.9568
G1 X14.018 Y36.534 E13.976
G1 X13.238 Y36.29 E13.99577
G1 X12.524 Y35.911 E14.01532
G1 X11.948 Y35.462 E14.03298
G1 X9.826 Y33.338 E14.10559
G1 X9.337 Y32.699 E14.12505
G1 X8.901 Y31.786 E14.14952
G1 X8.665 Y30.513 E14.18083
G1 X8.661 Y24.774 E14.31963
G1 X8.725 Y24.106 E14.33586
G1 X8.94 Y23.312 E14.35575
G1 X9.191 Y22.759 E14.37044
G1 X9.891 Y21.798 E14.39919
G1 X10.42 Y21.291 E14.41691
G1 X10.442 Y14.648 E14.57757
G1 X10.682 Y13.846 E14.59782
G1 X11.148 Y13.112 E14.61885
G1 X11.785 Y12.487 E14.64043
G1 X12.056 Y12.761 F7800
G1 F1800
G1 X12.866 Y11.962 E14.66795
G1 X13.409 Y11.637 E14.68325
G1 X14.146 Y11.429 E14.70177
G1 X27.612 Y11.415 E15.02744
G1 X27.851 Y11.041 E15.03817
G1 X28.407 Y10.472 E15.05741
G1 X29.266 Y10.044 E15.08062
G1 X29.602 Y9.994 E15.08884
G1 X34.805 Y9.998 E15.21467
G1 X35.275 Y10.105 E15.22633
G1 X40.633 Y10.105 E15.35591
G1 X41.344 Y10.182 E15.37321
G1 X41.88 Y10.327 E15.38664
G1 X42.927 Y10.874 E15.41521
G1 X44.48 Y12.398 E15.46783
G1 X45.076 Y13.446 E15.49699
G1 X45.265 Y14.098 E15.51341
G1 X45.344 Y14.812 E15.53078
G1 X45.34 Y21.956 E15.70356
G1 X45.204 Y22.767 E15.72345
G1 X45.511 Y23.345 E15.73928
G1 X45.78 Y24.31 E15.76351
G1 X45.82 Y24.837 E15.77629
G1 X45.816 Y30.041 E15.90215
G1 X45.563 Y31.256 E15.93216
G1 X45.228 Y31.943 E15.95065
G1 X44.808 Y32.51 E15.96772
G1 X43.665 Y33.655 E16.00685
G1 X43.156 Y34.043 E16.02233
G1 X42.593 Y34.346 E16.03779
G1 X41.751 Y34.609 E16.05912
G1 X41.11 Y34.682 E16.07472
G1 X38.474 Y34.683 E16.13847
G1 X37.69 Y34.582 E16.15759
G1 X36.925 Y34.326 E16.1771
G1 X35.955 Y33.714 E16.20484
G1 X32.862 Y33.719 E16.27964
G1 X31.283 Y35.284 E16.33341
G1 X30.791 Y35.642 E16.34813
G1 X29.702 Y36.111 E16.37681
G1 X29.016 Y36.229 E16.39364
G1 X14.841 Y36.243 E16.73646
G1 X14.083 Y36.151 E16.75493
G1 X13.373 Y35.926 E16.77294
G1 X12.723 Y35.577 E16.79078
G1 X12.197 Y35.165 E16.80694
G1 X10.109 Y33.074 E16.87841
G1 X9.657 Y32.48 E16.89646
G1 X9.271 Y31.669 E16.91818
G1 X9.053 Y30.502 E16.94689
G1 X9.049 Y24.783 E17.0852
G1 X9.11 Y24.16 E17.10034
G1 X9.31 Y23.43 E17.11865
G1 X9.797 Y22.518 E17.14365
G1 X10.807 Y21.457 E17.17908
G1 X10.829 Y14.68 E17.34298
G1 X11.045 Y13.987 E17.36054
G1 X11.436 Y13.373 E17.37814
G1 X12.013 Y12.803 E17.39776
G1 X12.285 Y13.077 F7800
G1 F1800
G1 X13.089 Y12.28 E17.42514
G1 X13.541 Y12.003 E17.43796
G1 X14.226 Y11.81 E17.45517
G1 X27.888 Y11.803 E17.78558
G1 X28.144 Y11.296 E17.79932
G1 X28.661 Y10.767 E17.81721
G1 X29.355 Y10.422 E17.83595
G1 X34.786 Y10.386 E17.9673
G1 X35.202 Y10.492 E17.97768
G1 X40.622 Y10.492 E18.10876
G1 X41.763 Y10.697 E18.1368
G1 X42.282 Y10.926 E18.15052
G1 X43.042 Y11.471 E18.17314
G1 X44.168 Y12.629 E18.2122
G1 X44.718 Y13.596 E18.2391
G1 X44.887 Y14.188 E18.25399
G1 X44.956 Y14.822 E18.26941
G1 X44.952 Y21.939 E18.44153
G1 X44.798 Y22.834 E18.46349
G1 X45.144 Y23.472 E18.48104
G1 X45.395 Y24.36 E18.50336
G1 X45.428 Y30.029 E18.64047
G1 X45.207 Y31.101 E18.66694
G1 X44.887 Y31.756 E18.68457
G1 X44.524 Y32.245 E18.6993
G1 X43.4 Y33.372 E18.7378
G1 X42.957 Y33.71 E18.75128
G1 X42.459 Y33.982 E18.765
G1 X41.654 Y34.233 E18.78539
G1 X41.079 Y34.296 E18.79938
G1 X38.487 Y34.296 E18.86207
G1 X37.759 Y34.2 E18.87983
G1 X37.095 Y33.977 E18.89677
G1 X36.622 Y33.722 E18.90977
G1 X36.122 Y33.325 E18.92521
G1 X32.702 Y33.332 E19.00792
G1 X31.021 Y34.998 E19.06516
G1 X30.576 Y35.319 E19.07843
G1 X29.592 Y35.739 E19.10431
G1 X28.999 Y35.841 E19.11886
G1 X14.876 Y35.857 E19.46042
G1 X14.148 Y35.769 E19.47815
G1 X13.51 Y35.563 E19.49436
G1 X12.922 Y35.245 E19.51053
G1 X12.464 Y34.883 E19.52465
G1 X10.393 Y32.809 E19.59553
G1 X9.979 Y32.262 E19.61212
G1 X9.641 Y31.551 E19.63116
G1 X9.441 Y30.492 E19.65722
G1 X9.437 Y24.792 E19.79507
G1 X9.494 Y24.216 E19.80907
G1 X9.679 Y23.549 E19.82581
G1 X10.104 Y22.755 E19.84759
G1 X11.195 Y21.623 E19.88561
G1 X11.217 Y14.71 E20.0528
G1 X11.386 Y14.172 E20.06644
G1 X11.725 Y13.632 E20.08186
G1 X12.242 Y13.119 E20.09947
G1 X12.515 Y13.393 F7800
G1 F1800
G1 X13.315 Y12.595 E20.1268
G1 X13.678 Y12.366 E20.13718
G1 X14.254 Y12.198 E20.15169
G1 X28.165 Y12.191 E20.48813
G1 X28.462 Y11.52 E20.50588
G1 X28.914 Y11.063 E20.52143
G1 X29.633 Y10.77 E20.54021
G1 X34.764 Y10.774 E20.6643
G1 X35.125 Y10.88 E20.6734
G1 X40.611 Y10.88 E20.80608
G1 X41.226 Y10.949 E20.82105
G1 X41.644 Y11.067 E20.83155
G1 X42.455 Y11.49 E20.85367
G1 X43.858 Y12.862 E20.90113
G1 X44.36 Y13.747 E20.92574
G1 X44.568 Y14.832 E20.95246
G1 X44.564 Y21.923 E21.12396
G1 X44.346 Y22.892 E21.14798
G1 X44.778 Y23.601 E21.16806
G1 X45.01 Y24.41 E21.18841
G1 X45.045 Y24.851 E21.19911
G1 X45.04 Y30.016 E21.32402
G1 X44.851 Y30.947 E21.347
G1 X44.547 Y31.57 E21.36377
G1 X44.24 Y31.981 E21.37618
G1 X42.756 Y33.378 E21.42547
G1 X42.323 Y33.617 E21.43743
G1 X41.557 Y33.857 E21.45684
G1 X38.5 Y33.908 E21.53078
G1 X37.83 Y33.818 E21.54713
G1 X36.839 Y33.4 E21.57314
G1 X36.279 Y32.937 E21.59071
G1 X32.542 Y32.944 E21.68109
G1 X30.759 Y34.711 E21.7418
G1 X30.363 Y34.995 E21.75359
G1 X29.482 Y35.366 E21.77671
G1 X28.982 Y35.453 E21.78898
G1 X14.888 Y35.469 E22.12984
G1 X14.215 Y35.386 E22.14624
G1 X13.649 Y35.2 E22.16065
G1 X13.124 Y34.913 E22.17512
G1 X10.677 Y32.545 E22.25747
G1 X10.3 Y32.045 E22.27261
G1 X10.011 Y31.434 E22.28896
G1 X9.828 Y30.481 E22.31243
G1 X9.878 Y24.271 E22.46262
G1 X10.038 Y23.696 E22.47705
G1 X10.426 Y22.971 E22.49694
G1 X11.582 Y21.789 E22.53693
G1 X11.605 Y14.744 E22.70731
G1 X11.746 Y14.318 E22.71816
G1 X12.014 Y13.891 E22.73035
G1 X12.472 Y13.435 E22.74598
G1 X12.743 Y13.708 F7800
G1 F1800
G1 X13.574 Y12.885 E22.77427
G1 X14.285 Y12.585 E22.79293
G1 X28.563 Y12.578 E23.13824
G1 X28.582 Y12.178 E23.14792
G1 X28.753 Y11.777 E23.15846
G1 X29.166 Y11.359 E23.17267
G1 X29.54 Y11.177 E23.18273
G1 X34.741 Y11.162 E23.30852
G1 X35.044 Y11.268 E23.31628
G1 X40.6 Y11.268 E23.45065
G1 X41.524 Y11.436 E23.47336
G1 X41.897 Y11.6 E23.48321
G1 X42.503 Y12.029 E23.50117
G1 X43.548 Y13.096 E23.53729
G1 X43.992 Y13.87 E23.55887
G1 X44.18 Y14.843 E23.58284
G1 X44.177 Y21.906 E23.75366
G1 X44.069 Y22.534 E23.76907
G1 X43.899 Y22.962 E23.78021
G1 X44.428 Y23.769 E23.80355
G1 X44.625 Y24.46 E23.82093
G1 X44.654 Y29.981 E23.95446
G1 X44.482 Y30.826 E23.97532
G1 X44.224 Y31.354 E23.98953
G1 X43.955 Y31.718 E24.00048
G1 X42.869 Y32.805 E24.03764
G1 X42.154 Y33.268 E24.05824
G1 X41.498 Y33.473 E24.07486
G1 X38.514 Y33.52 E24.14704
G1 X37.902 Y33.436 E24.16198
G1 X37.405 Y33.266 E24.17468
G1 X36.757 Y32.861 E24.19316
G1 X36.437 Y32.549 E24.20397
G1 X32.382 Y32.557 E24.30204
G1 X30.498 Y34.424 E24.36619
G1 X29.776 Y34.86 E24.38659
G1 X28.965 Y35.065 E24.40682
G1 X14.898 Y35.081 E24.74703
G1 X14.316 Y35.011 E24.76121
G1 X13.35 Y34.598 E24.78662
G1 X10.962 Y32.281 E24.86709
G1 X10.623 Y31.829 E24.88075
G1 X10.371 Y31.287 E24.89521
G1 X10.215 Y30.452 E24.91575
G1 X10.262 Y24.328 E25.06386
G1 X10.398 Y23.842 E25.07607
G1 X10.749 Y23.187 E25.09404
G1 X11.751 Y22.162 E25.12871
G1 X12.026 Y21.981 E25.13667
G1 X11.97 Y21.748 E25.14247
G1 X11.983 Y14.832 E25.30973
G1 X12.331 Y14.117 E25.32896
G1 X12.7 Y13.751 E25.34153
G1 X12.973 Y14.026 F7800
G1 F1800
G1 X13.833 Y13.174 E25.37081
G1 X14.317 Y12.973 E25.38348
G1 X28.96 Y12.966 E25.73762
G1 X28.96 Y12.273 E25.75438
G1 X29.044 Y12.039 E25.76039
G1 X29.415 Y11.658 E25.77325
G1 X29.64 Y11.552 E25.77927
G1 X34.686 Y11.546 E25.90131
G1 X34.964 Y11.656 E25.90854
G1 X40.588 Y11.656 E26.04456
G1 X41.103 Y11.716 E26.0571
G1 X41.706 Y11.937 E26.07263
G1 X42.234 Y12.309 E26.08825
G1 X43.238 Y13.33 E26.12288
G1 X43.634 Y14.02 E26.14212
G1 X43.793 Y14.852 E26.16261
G1 X43.789 Y21.889 E26.3328
G1 X43.691 Y22.444 E26.34643
G1 X43.449 Y23.031 E26.36179
G1 X43.824 Y23.478 E26.3759
G1 X44.077 Y23.937 E26.38858
G1 X44.24 Y24.511 E26.40301
G1 X44.266 Y29.968 E26.53499
G1 X44.114 Y30.702 E26.55312
G1 X43.901 Y31.139 E26.56488
G1 X42.605 Y32.521 E26.6107
G1 X41.986 Y32.918 E26.62848
G1 X41.438 Y33.09 E26.64237
G1 X38.528 Y33.132 E26.71276
G1 X37.974 Y33.055 E26.72629
G1 X37.273 Y32.757 E26.74471
G1 X36.555 Y32.067 E26.76879
G1 X36.251 Y32.169 E26.77655
G1 X32.222 Y32.169 E26.87399
G1 X30.259 Y34.118 E26.94089
G1 X29.637 Y34.498 E26.95852
G1 X28.946 Y34.678 E26.97579
G1 X14.909 Y34.693 E27.31527
G1 X14.416 Y34.636 E27.32727
G1 X13.576 Y34.282 E27.34932
G1 X11.246 Y32.017 E27.42791
G1 X10.947 Y31.615 E27.44003
G1 X10.731 Y31.143 E27.45258
G1 X10.602 Y30.424 E27.47025
G1 X10.646 Y24.385 E27.61631
G1 X10.757 Y23.989 E27.62626
G1 X11.07 Y23.405 E27.64228
G1 X12.004 Y22.457 E27.67447
G1 X12.496 Y22.145 E27.68856
G1 X12.358 Y21.711 E27.69957
G1 X12.363 Y14.915 E27.86393
G1 X12.621 Y14.375 E27.8784
G1 X12.931 Y14.068 E27.88895
G1 X13.204 Y14.344 F7800
G1 F1800
G1 X14.093 Y13.462 E27.91924
G1 X14.353 Y13.361 E27.92599
G1 X29.348 Y13.354 E28.28864
G1 X29.348 Y12.316 E28.31374
G1 X29.73 Y11.933 E28.32682
G1 X34.7 Y11.963 E28.44702
G1 X34.781 Y12.044 E28.44979
G1 X41.01 Y12.093 E28.60044
G1 X41.535 Y12.286 E28.61397
G1 X41.981 Y12.603 E28.6272
G1 X42.928 Y13.564 E28.65983
G1 X43.275 Y14.167 E28.67666
G1 X43.405 Y14.861 E28.69374
G1 X43.401 Y21.871 E28.86328
G1 X43.313 Y22.353 E28.87513
G1 X42.928 Y23.073 E28.89488
G1 X43.493 Y23.681 E28.91495
G1 X43.727 Y24.104 E28.92664
G1 X43.855 Y24.561 E28.93812
G1 X43.878 Y29.955 E29.06857
G1 X43.747 Y30.577 E29.08394
G1 X43.577 Y30.925 E29.09331
G1 X42.341 Y32.237 E29.1369
G1 X41.82 Y32.567 E29.15182
G1 X41.019 Y32.745 E29.17166
G1 X38.542 Y32.744 E29.23157
G1 X38.048 Y32.674 E29.24364
G1 X37.238 Y32.252 E29.26573
G1 X36.812 Y31.758 E29.28151
G1 X36.623 Y31.406 E29.29117
G1 X36.206 Y31.781 E29.30473
G1 X32.062 Y31.781 E29.40495
G1 X30.019 Y33.813 E29.47464
G1 X29.497 Y34.136 E29.48949
G1 X28.894 Y34.293 E29.50456
G1 X14.919 Y34.305 E29.84254
G1 X14.513 Y34.26 E29.85242
G1 X13.801 Y33.966 E29.87105
G1 X11.531 Y31.754 E29.9477
G1 X11.092 Y31.002 E29.96876
G1 X10.989 Y30.398 E29.98358
G1 X11.03 Y24.443 E30.1276
G1 X11.231 Y23.877 E30.14213
G1 X11.565 Y23.415 E30.15592
G1 X12.257 Y22.751 E30.17911
G1 X13.199 Y22.308 E30.20429
G1 X12.823 Y21.893 E30.21783
G1 X12.745 Y21.674 E30.22345
G1 X12.744 Y14.99 E30.3851
G1 X12.913 Y14.632 E30.39467
G1 X13.161 Y14.386 E30.40312
G1 X13.434 Y14.661 F7800
G1 F1800
G1 X14.326 Y13.778 E30.43348
G1 X29.736 Y13.741 E30.80617
G1 X29.736 Y12.435 E30.83776
G1 X29.849 Y12.321 E30.84164
G1 X34.51 Y12.321 E30.95437
G1 X34.62 Y12.432 E30.95815
G1 X40.92 Y12.47 E31.11052
G1 X41.345 Y12.624 E31.12145
G1 X41.713 Y12.884 E31.13235
G1 X42.62 Y13.8 E31.16353
G1 X42.907 Y14.289 E31.17724
G1 X43.017 Y14.871 E31.19156
G1 X43.013 Y21.854 E31.36044
G1 X42.799 Y22.575 E31.37863
G1 X42.387 Y23.08 E31.39439
G1 X43.165 Y23.889 E31.42153
G1 X43.47 Y24.614 E31.44055
G1 X43.49 Y29.941 E31.56938
G1 X43.251 Y30.714 E31.58895
G1 X42.097 Y31.934 E31.62956
G1 X41.655 Y32.216 E31.64224
G1 X41.314 Y32.323 E31.65088
G1 X38.555 Y32.357 E31.71761
G1 X37.884 Y32.206 E31.73424
G1 X37.284 Y31.75 E31.75247
G1 X36.947 Y31.104 E31.77009
G1 X36.89 Y30.602 E31.78231
G1 X36.984 Y30.104 E31.79457
G1 X37.236 Y29.636 E31.80743
G1 X37.597 Y29.286 E31.81959
G1 X38.141 Y29.028 E31.83415
G1 X40.106 Y28.97 E31.88169
G1 X40.106 Y27.711 E31.91214
G1 X39.788 Y28.029 E31.92302
G1 X37.377 Y28.029 E31.98133
G1 X37.264 Y27.916 E31.98519
G1 X37.264 Y26.555 E32.01811
G1 X37.377 Y26.441 E32.02199
G1 X37.605 Y26.441 E32.0275
G1 X37.605 Y23.69 E32.09403
G1 X35.96 Y23.69 E32.13381
G1 X35.703 Y23.433 E32.1426
G1 X35.446 Y23.69 E32.15139
G1 X34.303 Y23.69 E32.17903
G1 X31.882 Y26.097 E32.2616
G1 X31.649 Y26.193 E32.26769
G1 X31.711 Y26.505 E32.27538
G1 X36.087 Y26.505 E32.38121
G1 X36.201 Y26.619 E32.38511
G1 X36.201 Y31.28 E32.49784
G1 X36.087 Y31.393 E32.50172
G1 X31.901 Y31.393 E32.60296
G1 X29.779 Y33.508 E32.67542
G1 X29.12 Y33.858 E32.69347
G1 X28.842 Y33.908 E32.7003
G1 X14.611 Y33.884 E33.04448
G1 X14.253 Y33.772 E33.05355
G1 X13.793 Y33.47 E33.06686
G1 X11.835 Y31.512 E33.13383
G1 X11.455 Y30.864 E33.152
G1 X11.376 Y30.375 E33.16398
G1 X11.413 Y24.503 E33.306
G1 X11.699 Y23.859 E33.32304
G1 X12.482 Y23.068 E33.34996
G1 X13.248 Y22.74 E33.37011
G1 X14.151 Y22.7 E33.39197
G1 X13.133 Y21.631 E33.42767
G1 X13.127 Y15.052 E33.58678
G1 X13.206 Y14.887 E33.5912
G1 X13.391 Y14.704 E33.59749
G92 E0
G1 X15.514 Y15.775 F7800
G1 F1800
G1 X16.559 Y15.775 E.02527
G1 X16.088 Y16.245 E.04136
G1 X16.088 Y17.53 E.07244
G1 X16.201 Y17.643 E.0763
G1 X17.486 Y17.643 E.10738
G1 X17.599 Y17.53 E.11124
G1 X17.599 Y17.177 E.11978
G1 X22.518 Y17.177 E.23875
G1 X27.913 Y22.572 E.42327
G1 X27.675 Y23.215 E.43985
G1 X23.235 Y18.774 E.59173
G1 X23.055 Y18.694 E.59649
G1 X18.418 Y18.728 E.70864
G1 X17.191 Y19.943 E.7504
G1 X16.201 Y19.943 E.77434
G1 X16.088 Y20.056 E.7782
G1 X16.088 Y21.724 E.81854
G1 X15.514 Y21.149 E.83819
G1 X15.514 Y15.835 E.96671
G92 E0
G1 X15.901 Y18.031 F7800
G1 F1800
G1 X17.604 Y18.031 E.04119
G1 X17.957 Y17.72 E.05257
G1 X18.021 Y17.565 E.05663
G1 X22.358 Y17.565 E.16152
G1 X23.099 Y18.306 E.18686
G1 X18.445 Y18.312 E.29942
G1 X18.186 Y18.412 E.30613
G1 X17.031 Y19.555 E.34543
G1 X15.901 Y19.555 E.37276
G1 X15.901 Y18.091 E.40817
G1 X16.289 Y18.419 F7800
G1 F1800
G1 X17.628 Y18.419 E.44055
G1 X16.872 Y19.167 E.46627
G1 X16.289 Y19.167 E.48037
G1 X16.289 Y18.479 E.49701
G92 E0
G1 X30.606 Y25.552 F7800
G1 F1800
G1 X31.442 Y24.717 E.02858
G1 X31.802 Y24.776 E.0374
G1 X32.408 Y24.768 E.05206
G1 X31.624 Y25.552 E.07887
G1 X30.666 Y25.552 E.10204
G1 X30.667 Y26.128 F7800
G1 F1800
G1 X31.43 Y26.127 E.12049
G1 X30.938 Y26.619 E.13732
G1 X30.938 Y27.598 E.161
G1 X27.974 Y30.53 E.26183
G1 X15.641 Y30.53 E.5601
G1 X14.763 Y29.652 E.59013
G1 X14.763 Y26.107 E.67587
G1 X16.292 Y26.107 E.71285
G1 X16.859 Y26.201 E.72675
G1 X17.448 Y26.086 E.74126
G1 X17.987 Y26.624 E.75968
G1 X16.831 Y26.624 E.78764
G1 X16.316 Y26.71 E.80027
G1 X15.656 Y27.112 E.81896
G1 X15.257 Y27.729 E.83673
G1 X15.165 Y28.106 E.84612
G1 X15.26 Y28.916 E.86584
G1 X15.7 Y29.566 E.88482
G1 X16.354 Y29.938 E.90302
G1 X16.746 Y30.008 E.91265
G1 X24.414 Y30.011 E1.0981
G1 X25.086 Y29.852 E1.1148
G1 X25.537 Y29.544 E1.12801
G1 X25.749 Y29.299 E1.13585
G1 X26.014 Y28.718 E1.15129
G1 X26.04 Y28.045 E1.16758
G1 X25.91 Y27.581 E1.17923
G1 X27.731 Y25.76 E1.24151
G1 X27.854 Y26.098 E1.25021
G1 X28.184 Y26.256 E1.25906
G1 X29.284 Y26.256 E1.28566
G1 X29.624 Y26.13 E1.29443
G1 X30.607 Y26.128 E1.3182
G1 X30.55 Y26.516 F7800
G1 F1800
G1 X30.55 Y27.406 E1.33972
G1 X27.814 Y30.142 E1.4333
G1 X25.537 Y30.142 E1.48837
G1 X26.075 Y29.509 E1.50846
G1 X26.387 Y28.826 E1.52662
G1 X26.45 Y28.36 E1.53799
G1 X26.347 Y27.693 E1.55431
G1 X27.587 Y26.452 E1.59674
G1 X28.148 Y26.643 E1.61107
G1 X29.322 Y26.643 E1.63946
G1 X29.696 Y26.518 E1.649
G1 X30.49 Y26.516 E1.6682
G1 X30.162 Y26.905 F7800
G1 F1800
G1 X30.162 Y27.245 E1.67642
G1 X27.653 Y29.754 E1.76223
G1 X26.39 Y29.754 E1.79278
G1 X26.768 Y28.899 E1.81539
G1 X26.838 Y28.355 E1.82866
G1 X26.793 Y27.795 E1.84225
G1 X27.688 Y26.9 E1.87286
G1 X28.113 Y27.031 E1.88362
G1 X29.355 Y27.031 E1.91366
G1 X29.762 Y26.906 E1.92396
G1 X30.102 Y26.905 E1.93218
G1 X29.44 Y27.419 F7800
G1 F1800
G1 X27.492 Y29.366 E1.99879
G1 X27.024 Y29.366 E2.01011
G1 X27.225 Y28.383 E2.03438
G1 X27.194 Y27.942 E2.04507
G1 X27.793 Y27.343 E2.06556
G1 X28.079 Y27.419 E2.07272
G1 X29.38 Y27.419 E2.10418
G1 X28.447 Y27.863 F7800
G1 F1800
G1 X27.634 Y28.676 E2.13199
G1 X27.594 Y28.091 E2.14617
G1 X27.899 Y27.786 E2.1566
G1 X28.388 Y27.855 E2.16854
G92 E0
G1 X26.207 Y25.675 F7800
G1 F1800
G1 X25.626 Y26.256 E.01987
G1 X25.087 Y26.795 E.03831
G1 X24.567 Y26.576 E.05196
G1 X24.869 Y26.256 E.0626
G1 X25.536 Y26.256 E.07873
G1 X25.536 Y25.807 E.08959
G1 X25.455 Y25.585 E.09531
G1 X25.245 Y25.366 E.10265
G1 X25.455 Y25.145 E.11002
G1 X25.536 Y24.923 E.11574
G1 X25.325 Y24.32 E.13119
G1 X27.572 Y24.31 E.18553
G1 X26.249 Y25.632 E.23076
G1 X25.975 Y25.358 F7800
G1 F1800
G1 X25.924 Y25.409 E.2325
G1 X25.924 Y24.705 E.24953
G1 X26.631 Y24.702 E.26663
G1 X26.018 Y25.316 E.28761
G1 X26.018 Y23.743 F7800
G1 F1800
G1 X25.515 Y23.743 E.29977
G1 X25.246 Y23.46 E.30921
G1 X25.455 Y23.241 E.31653
G1 X25.6 Y22.844 E.32675
G1 X26.53 Y23.743 E.35803
G1 X26.078 Y23.743 E.36896
G92 E0
G1 X24.085 Y25.178 F7800
G1 F1800
G1 X23.695 Y25.585 E.01363
G1 X23.615 Y25.804 E.01927
G1 X18.351 Y25.804 E.14658
G1 X18.15 Y25.603 E.15345
G1 X18.508 Y24.824 E.17418
G1 X18.458 Y23.996 E.19424
G1 X18.108 Y23.382 E.21133
G1 X17.471 Y22.796 E.23226
G1 X20.678 Y22.797 E.30982
G1 X20.328 Y23.146 E.32177
G1 X20.328 Y24.645 E.35802
G1 X20.442 Y24.759 E.36192
G1 X21.585 Y24.759 E.38956
G1 X22.097 Y25.178 E.40556
G1 X24.025 Y25.178 E.45219
G92 E0
G1 X20.551 Y25.416 F7800
G1 F1800
G1 X18.75 Y25.416 E.04356
G1 X18.892 Y24.879 E.05699
G1 X18.904 Y24.215 E.07305
G1 X18.7 Y23.565 E.08953
G1 X18.478 Y23.184 E.10019
G1 X19.941 Y23.184 E.13557
G1 X19.941 Y24.764 E.17378
G1 X20.51 Y25.372 E.19392
G1 X21.932 Y24.288 F7800
G1 F1800
G1 X21.932 Y23.146 E.22154
G1 X21.674 Y22.889 E.23035
G1 X21.932 Y22.631 E.23917
G1 X21.932 Y22.296 E.24727
G1 X23.301 Y22.296 E.28038
G1 X23.705 Y22.7 E.2942
G1 X23.614 Y23.019 E.30222
G1 X23.695 Y23.241 E.30794
G1 X23.905 Y23.46 E.31528
G1 X23.695 Y23.68 E.32264
G1 X23.614 Y23.97 E.32992
G1 X23.695 Y24.192 E.33564
G1 X24.084 Y24.599 E.34926
G1 X22.243 Y24.599 E.39378
G1 X21.974 Y24.33 E.40298
G1 X22.319 Y24.212 F7800
G1 F1800
G1 X22.319 Y23.027 E.43164
G1 X22.184 Y22.7 E.4402
G1 X23.219 Y22.681 E.46524
G1 X23.237 Y23.116 E.47577
G1 X23.362 Y23.46 E.48462
G1 X23.237 Y23.806 E.49352
G1 X23.218 Y24.212 E.50335
G1 X22.379 Y24.212 E.52364
G92 E0
G1 X22.379 Y21.468 F7800
G1 F1800
G1 X21.932 Y21.468 E.01081
G1 X21.932 Y21.132 E.01894
G1 X21.818 Y21.018 E.02284
G1 X20.442 Y21.018 E.05612
G1 X20.328 Y21.132 E.06002
G1 X20.328 Y22.218 E.08628
G1 X17.923 Y22.218 E.14444
G1 X19.821 Y20.32 E.20936
G1 X22.991 Y20.32 E.28603
G1 X24.063 Y21.356 E.32208
G1 X23.867 Y21.629 E.33021
G1 X23.476 Y21.468 E.34044
G1 X22.439 Y21.468 E.36552
G92 E0
G1 X19.941 Y21.468 F7800
G1 F1800
G1 X19.941 Y21.83 E.00875
G1 X18.86 Y21.83 E.03489
G1 X19.941 Y20.749 E.07186
G1 X19.941 Y21.408 E.0878
G1 X18.937 Y20.396 F7800
G1 F1800
G1 X17.599 Y21.724 E.13339
G1 X17.599 Y20.351 E.1666
G1 X18.678 Y19.272 E.2035
G1 X22.915 Y19.272 E.30597
G1 X23.387 Y19.744 E.32211
G1 X19.562 Y19.776 E.41462
G1 X18.979 Y20.354 E.43447
G92 E0
G1 X19.008 Y16.61 F7800
G1 F1800
G1 X17.599 Y16.599 E.03408
G1 X17.599 Y16.245 E.04264
G1 X17.128 Y15.775 E.05873
G1 X27.061 Y15.775 E.29896
G1 X27.702 Y16.521 E.32275
G1 X27.472 Y16.751 E.33062
G1 X27.472 Y18.25 E.36687
G1 X27.729 Y18.507 E.37566
G1 X27.472 Y18.764 E.38445
G1 X27.472 Y20.263 E.4207
G1 X27.586 Y20.377 E.4246
G1 X28.962 Y20.377 E.45788
G1 X29.111 Y20.228 E.46298
G1 X29.41 Y20.754 E.47761
G1 X29.672 Y21.037 E.48694
G1 X29.672 Y21.172 E.4902
G1 X29.785 Y21.285 E.49406
G1 X29.919 Y21.285 E.4973
G1 X30.617 Y21.983 E.52117
G1 X30.575 Y23.49 E.55763
G1 X30.636 Y23.914 E.56799
G1 X30.23 Y24.32 E.58188
G1 X29.568 Y24.32 E.59789
G1 X29.694 Y23.902 E.60845
G1 X29.614 Y23.68 E.61416
G1 X29.404 Y23.46 E.62152
G1 X29.614 Y23.24 E.62888
G1 X29.694 Y23.018 E.63459
G1 X29.558 Y22.669 E.64365
G1 X29.3 Y22.57 E.65033
G1 X28.729 Y22.57 E.66414
G1 X22.792 Y16.639 E.8671
G1 X19.068 Y16.611 E.95717
G92 E0
G1 X27.47 Y20.765 F7800
G1 F1800
G1 X28.966 Y20.765 E.03618
G1 X29.284 Y21.189 E.049
G1 X29.313 Y21.362 E.05324
G1 X29.595 Y21.644 E.06289
G1 X29.758 Y21.673 E.06689
G1 X30.229 Y22.144 E.083
G1 X30.229 Y22.767 E.09807
G1 X29.751 Y22.33 E.11373
G1 X29.319 Y22.182 E.12477
G1 X28.889 Y22.182 E.13517
G1 X27.513 Y20.807 E.18222
G1 X27.084 Y20.379 F7800
G1 F1800
G1 X22.863 Y16.163 E.3265
G1 X26.883 Y16.163 E.42372
G1 X27.15 Y16.474 E.43363
G1 X27.084 Y16.632 E.43777
G1 X27.084 Y18.369 E.47978
G1 X27.142 Y18.507 E.4834
G1 X27.084 Y18.645 E.48702
G1 X27.084 Y20.319 E.52751
G1 X26.697 Y19.444 F7800
G1 F1800
G1 X23.8 Y16.55 E.62654
G1 X26.697 Y16.55 E.6966
G1 X26.697 Y19.384 E.76514
G1 X26.309 Y18.508 F7800
G1 F1800
G1 X24.737 Y16.938 E.81887
G1 X26.309 Y16.938 E.85689
G1 X26.309 Y18.448 E.89341
G92 E0
G1 X28.29 Y16.637 F7800
G1 F1800
G1 X28.222 Y16.242 E.00969
G1 X27.398 Y15.279 E.04034
G1 X27.201 Y15.196 E.04551
G1 X15.079 Y15.232 E.33868
G1 X14.935 Y15.482 E.34566
G1 X14.945 Y21.349 E.48755
G1 X15.762 Y22.218 E.5164
G1 X14.487 Y22.218 E.54724
G1 X13.704 Y21.436 E.574
G1 X13.704 Y15.207 E.72465
G1 X14.592 Y14.319 E.75502
G1 X29.736 Y14.319 E1.12128
G1 X29.736 Y17.471 E1.19751
G1 X29.888 Y17.623 E1.20271
G1 X29.557 Y17.822 E1.21205
G1 X29.075 Y18.304 E1.22854
G1 X29.075 Y16.751 E1.2661
G1 X28.962 Y16.637 E1.26998
G1 X28.35 Y16.637 E1.28478
G92 E0
G1 X14.557 Y16.636 F7800
G1 F1800
G1 X14.557 Y21.74 E.12344
G1 X14.092 Y21.275 E.13934
G1 X14.092 Y15.368 E.2822
G1 X14.558 Y14.902 E.29814
G1 X14.557 Y16.576 E.33863
G92 E0
G1 X27.418 Y14.707 F7800
G1 F1800
G1 X29.348 Y14.707 E.04668
G1 X29.348 Y16.36 E.08666
G1 X29.081 Y16.249 E.09365
G1 X28.652 Y16.249 E.10403
G1 X28.542 Y16.019 E.1102
G1 X27.457 Y14.753 E.15052
G1 X28.261 Y15.095 F7800
G1 F1800
G1 X28.96 Y15.095 E.16743
G1 X28.96 Y15.911 E.18716
G1 X28.3 Y15.141 E.21169
G92 E0
G1 X30.818 Y18.32 F7800
G1 F1800
G1 X33.539 Y18.32 E.06581
G1 X33.099 Y18.761 E.08088
G1 X33.099 Y20.732 E.12855
G1 X31.259 Y18.908 E.19121
G1 X31.259 Y18.761 E.19477
G1 X30.861 Y18.363 E.20838
G1 X31.609 Y18.708 F7800
G1 F1800
G1 X32.711 Y18.708 E.23503
G1 X32.711 Y19.801 E.26146
G1 X31.651 Y18.75 E.29756
G92 E0
G1 X33.254 Y21.285 F7800
G1 F1800
G1 X34.573 Y21.285 E.0319
G1 X34.686 Y21.172 E.03576
G1 X34.686 Y20.256 E.05791
G1 X35.233 Y20.256 E.07114
G1 X36.421 Y21.444 E.11177
G1 X36.421 Y22.087 E.12732
G1 X35.96 Y22.087 E.13847
G1 X35.703 Y22.344 E.14726
G1 X35.446 Y22.087 E.15605
G1 X33.947 Y22.087 E.1923
G1 X33.834 Y22.201 E.19618
G1 X33.834 Y23.342 E.22377
G1 X33.254 Y23.922 E.24361
G1 X33.254 Y21.345 E.30593
G1 X34.707 Y21.699 F7800
G1 F1800
G1 X35.074 Y21.291 E.3192
G1 X35.074 Y20.646 E.3348
G1 X35.95 Y21.521 E.36474
G1 X35.773 Y21.785 E.37243
G1 X35.565 Y21.699 E.37787
G1 X34.767 Y21.699 E.39717
G1 X36.13 Y20.343 F7800
G1 F1800
G1 X35.522 Y19.731 E.41803
G1 X34.686 Y19.678 E.43829
G1 X34.686 Y18.761 E.46047
G1 X34.246 Y18.32 E.47554
G1 X37.605 Y18.32 E.55678
G1 X37.605 Y22.087 E.64788
G1 X37 Y22.087 E.66251
G1 X36.957 Y21.173 E.68464
G1 X36.173 Y20.385 E.71152
G1 X36.446 Y20.109 F7800
G1 F1800
G1 X35.743 Y19.412 E.73546
G1 X35.424 Y19.295 E.74368
G1 X35.074 Y19.284 E.75215
G1 X35.074 Y18.708 E.76608
G1 X37.217 Y18.708 E.81791
G1 X37.217 Y20.871 E.87022
G1 X36.489 Y20.151 E.89498
G1 X36.762 Y19.875 F7800
G1 F1800
G1 X35.974 Y19.096 E.92178
G1 X36.829 Y19.096 E.94246
G1 X36.829 Y19.942 E.96292
G1 X36.805 Y19.918 E.96374
G92 E0
G1 X38.183 Y23.652 F7800
G1 F1800
G1 X40.106 Y25.59 E.06603
G1 X40.106 Y26.759 E.0943
G1 X39.788 Y26.441 E.10518
G1 X38.183 Y26.441 E.144
G1 X38.183 Y23.712 E.21
G1 X38.571 Y24.593 F7800
G1 F1800
G1 X39.718 Y25.75 E.2494
G1 X39.718 Y26.054 E.25675
G1 X38.571 Y26.054 E.28449
G1 X38.571 Y24.653 E.31837
G92 E0
G1 X38.183 Y21.885 F7800
G1 F1800
G1 X38.183 Y18.025 E.09335
G1 X38.12 Y17.848 E.09789
G1 X37.9 Y17.742 E.1038
G1 X34.623 Y17.743 E.18305
G1 X34.623 Y15.819 E.22958
G1 X39.629 Y15.819 E.35065
G1 X39.629 Y21.098 E.47832
G1 X38.93 Y21.288 E.49584
G1 X38.23 Y21.848 E.51752
G1 X38.571 Y21.012 F7800
G1 F1800
G1 X38.571 Y17.988 E.59066
G1 X38.44 Y17.619 E.60013
G1 X38.266 Y17.46 E.60583
G1 X37.935 Y17.354 E.61424
G1 X35.011 Y17.355 E.68496
G1 X35.011 Y16.207 E.71272
G1 X39.241 Y16.207 E.81502
G1 X39.241 Y20.749 E.92487
G1 X38.627 Y20.99 E.94082
G92 E0
G1 X38.854 Y17.363 F7800
G1 F1800
G1 X38.409 Y17.098 E.01253
G1 X37.86 Y16.923 E.02647
G1 X37.911 Y16.595 E.0345
G1 X38.854 Y16.595 E.05731
G1 X38.854 Y17.303 E.07443
G92 E0
G1 X37.217 Y24.078 F7800
G1 F1800
G1 X37.217 Y26.053 E.04777
G1 X36.906 Y26.365 E.05842
G1 X36.785 Y26.655 E.06602
G1 X36.206 Y26.118 E.08512
G1 X32.411 Y26.118 E.1769
G1 X34.463 Y24.078 E.24688
G1 X35.565 Y24.078 E.27353
G1 X35.703 Y24.021 E.27714
G1 X35.842 Y24.078 E.28077
G1 X37.157 Y24.078 E.31257
G1 X36.829 Y24.466 F7800
G1 F1800
G1 X36.829 Y26.047 E.35081
G1 X36.249 Y25.73 E.3668
G1 X33.351 Y25.73 E.43689
G1 X34.623 Y24.466 E.48026
G1 X36.769 Y24.466 E.53216
G1 X36.441 Y24.854 F7800
G1 F1800
G1 X36.441 Y25.342 E.54396
G1 X34.292 Y25.342 E.59593
G1 X34.783 Y24.854 E.61267
G1 X36.381 Y24.854 E.65132
G92 E0
G1 X36.588 Y27.788 F7800
G1 F1800
G1 X37.187 Y28.387 E.02049
G1 X37.753 Y28.417 E.0342
G1 X37.83 Y28.703 E.04136
G1 X37.144 Y29.159 E.06128
G1 X36.588 Y29.776 E.08137
G1 X36.588 Y27.848 E.128
G92 E0
G92 E0
G1 X25.077 Y22.984 F7800
;TYPE:External perimeter
;WIDTH:0.476364
G1 F1800
G1 X24.784 Y22.967 E.00813
;WIDTH:0.511414
G1 X24.491 Y22.949 E.0169
;WIDTH:0.552458
G1 X24.442 Y22.929 E.01862
;WIDTH:0.593502
G1 X24.392 Y22.908 E.02052
;WIDTH:0.634546
G1 X24.343 Y22.888 E.02251
G1 X24.31 Y22.821 E.02532
;WIDTH:0.58616
G1 X24.277 Y22.754 E.0279
;WIDTH:0.537773
G1 X24.245 Y22.687 E.03024
;WIDTH:0.489387
G1 X24.212 Y22.62 E.03237
;WIDTH:0.441
G1 X23.533 Y21.942 E.05683
G1 X23.388 Y21.882 E.06083
;WIDTH:0.442566
G1 X21.704 Y21.882 E.10393
G1 X22.08 Y22.018 F7800
G1 X20.527 Y22.483
;WIDTH:0.37219
G1 F1800
G1 X20.472 Y22.507 E.1052
G1 X14.367 Y22.507 E.23465
G1 X13.418 Y21.554 E.26317
G1 X13.415 Y15.087 E.40029
G1 X14.473 Y14.034 E.43194
G1 X29.946 Y14.03 E.76002
G1 X29.643 Y14.292 F7800
G92 E0
G1 X21.175 Y21.834
;TYPE:Perimeter
;WIDTH:0.475124
G1 F1800
G1 X21.12 Y21.834 E.00152
G1 X21.092 Y21.882 E.00305
G1 X21.12 Y21.93 E.00458
G1 X21.175 Y21.93 E.0061
G1 X21.203 Y21.882 E.00763
G1 X20.732 Y21.422 F7800
;TYPE:External perimeter
;WIDTH:0.419999
G1 F1800
G1 X21.528 Y21.422 E.02688
G1 X21.539 Y21.743 E.03465
;WIDTH:0.442566
G1 X21.704 Y21.882 E.04017
G1 X21.539 Y22.021 E.04569
;WIDTH:0.419999
G1 X21.528 Y22.341 E.05343
G1 X21.273 Y22.341 E.0596
G1 X20.667 Y22.393 E.07431
G1 X20.732 Y21.933 E.08555
G1 X20.732 Y21.482 E.09646
G1 X21.128 Y21.423 F7800
G92 E0
G1 X41.02 Y29.839
;TYPE:Perimeter
G1 F1800
G1 X41.194 Y29.59 E.00735
G1 X41.285 Y29.18 E.01751
G1 X41.285 Y25.504 E.10641
G1 X41.22 Y25.155 E.115
G1 X41.004 Y24.821 E.12462
G1 X39.319 Y23.122 E.18249
G1 X39.207 Y22.836 E.18992
G1 X39.22 Y22.64 E.19467
G1 X39.434 Y22.362 E.20315
G1 X39.804 Y22.268 E.21238
G1 X40.178 Y22.13 E.22202
G1 X40.493 Y21.848 E.23225
G1 X40.733 Y21.507 E.24233
G1 X40.809 Y21.131 E.25161
G1 X40.809 Y15.609 E.38516
G1 X40.733 Y15.234 E.39441
G1 X40.527 Y14.926 E.40337
G1 X40.28 Y14.746 E.41076
G1 X39.839 Y14.64 E.42173
G1 X34.413 Y14.64 E.55296
G1 X34.059 Y14.707 E.56167
G1 X33.691 Y14.962 E.5725
G1 X33.501 Y15.282 E.5815
G1 X33.444 Y15.609 E.58953
G1 X33.444 Y16.405 E.60878
G1 X30.915 Y16.405 E.66994
G1 X30.915 Y13.501 E.74017
G1 X34.03 Y13.501 E.81551
G1 X34.059 Y13.544 E.81676
G1 X34.413 Y13.611 E.82547
G1 X40.433 Y13.611 E.97106
G1 X40.746 Y13.657 E.97871
G1 X40.918 Y13.756 E.98351
G1 X41.495 Y14.337 E1.00331
G1 X41.741 Y14.631 E1.01258
G1 X41.837 Y14.96 E1.02087
G1 X41.834 Y21.708 E1.18407
G1 X41.76 Y22.007 E1.19152
G1 X41.398 Y22.398 E1.20441
G1 X41.226 Y22.637 E1.21153
G1 X41.121 Y23.019 E1.22111
G1 X41.175 Y23.404 E1.23051
G1 X41.4 Y23.762 E1.24074
G1 X42.071 Y24.433 E1.26369
G1 X42.274 Y24.717 E1.27213
G1 X42.314 Y24.951 E1.27787
G1 X42.297 Y29.893 E1.39739
G1 X42.173 Y30.187 E1.40511
G1 X41.402 Y30.963 E1.43157
G1 X41.175 Y31.124 E1.4383
G1 X40.951 Y31.178 E1.44387
G1 X38.499 Y31.177 E1.50317
G1 X38.198 Y30.989 E1.51175
G1 X38.082 Y30.716 E1.51892
G1 X38.139 Y30.424 E1.52612
G1 X38.335 Y30.227 E1.53284
G1 X38.565 Y30.152 E1.53869
G1 X40.317 Y30.149 E1.58106
G1 X40.693 Y30.073 E1.59034
G1 X40.978 Y29.88 E1.59866
G1 X40.73 Y29.561 F7800
G1 F1800
G1 X40.843 Y29.426 E1.60292
G1 X40.897 Y29.18 E1.60901
G1 X40.897 Y25.504 E1.69791
G1 X40.858 Y25.294 E1.70308
G1 X40.729 Y25.094 E1.70884
G1 X39.094 Y23.446 E1.76498
G1 X38.863 Y23.101 E1.77502
G1 X38.812 Y22.718 E1.78436
G1 X38.889 Y22.422 E1.79176
G1 X39.139 Y22.11 E1.80143
G1 X39.318 Y21.986 E1.8067
G1 X39.746 Y21.885 E1.81734
G1 X39.971 Y21.802 E1.82314
G1 X40.219 Y21.573 E1.8313
G1 X40.375 Y21.357 E1.83774
G1 X40.421 Y21.131 E1.84332
G1 X40.421 Y15.609 E1.97687
G1 X40.376 Y15.384 E1.98242
G1 X40.316 Y15.277 E1.98539
G1 X40.104 Y15.091 E1.99221
G1 X39.839 Y15.028 E1.9988
G1 X34.32 Y15.028 E2.13228
G1 X33.98 Y15.221 E2.14174
G1 X33.866 Y15.413 E2.14714
G1 X33.832 Y15.609 E2.15195
G1 X33.832 Y16.793 E2.18058
G1 X30.527 Y16.793 E2.26051
G1 X30.527 Y13.113 E2.34951
G1 X34.153 Y13.113 E2.4372
G1 X34.201 Y13.183 E2.43925
G1 X34.413 Y13.223 E2.44447
G1 X40.433 Y13.223 E2.59006
G1 X40.871 Y13.285 E2.60076
G1 X41.177 Y13.468 E2.60938
G1 X41.899 Y14.194 E2.63414
G1 X42.162 Y14.583 E2.6455
G1 X42.225 Y14.924 E2.65389
G1 X42.222 Y21.709 E2.81798
G1 X42.182 Y22.009 E2.8253
G1 X42.037 Y22.286 E2.83286
G1 X41.674 Y22.671 E2.84566
G1 X41.525 Y22.934 E2.85297
G1 X41.54 Y23.274 E2.8612
G1 X41.675 Y23.489 E2.86734
G1 X42.345 Y24.158 E2.89024
G1 X42.629 Y24.55 E2.90195
G1 X42.702 Y24.952 E2.91183
G1 X42.699 Y29.768 E3.0283
G1 X42.632 Y30.171 E3.03818
G1 X42.482 Y30.426 E3.04533
G1 X41.677 Y31.236 E3.07295
G1 X41.31 Y31.498 E3.08386
G1 X40.973 Y31.566 E3.09217
G1 X38.598 Y31.565 E3.14961
G1 X38.24 Y31.48 E3.15851
G1 X38.001 Y31.331 E3.16532
G1 X37.83 Y31.13 E3.1717
G1 X37.726 Y30.889 E3.17805
G1 X37.698 Y30.624 E3.18449
G1 X37.748 Y30.365 E3.19087
G1 X37.874 Y30.131 E3.1973
G1 X38.062 Y29.947 E3.20366
G1 X38.338 Y29.798 E3.21125
G1 X38.661 Y29.764 E3.2191
G1 X40.395 Y29.761 E3.26104
G1 X40.651 Y29.655 E3.26774
G1 X40.691 Y29.607 E3.26925
G1 X40.464 Y29.291 F7800
;TYPE:External perimeter
G1 F1800
G1 X40.51 Y29.18 E3.27216
G1 X40.51 Y25.504 E3.36106
G1 X40.453 Y25.367 E3.36465
G1 X38.693 Y23.593 E3.42509
G1 X38.495 Y23.236 E3.43496
G1 X38.445 Y22.985 E3.44115
G1 X38.431 Y22.587 E3.45078
G1 X38.605 Y22.121 E3.46281
G1 X38.929 Y21.764 E3.47447
G1 X39.245 Y21.598 E3.4831
G1 X39.731 Y21.49 E3.49514
G1 X39.976 Y21.268 E3.50314
G1 X40.033 Y21.131 E3.50673
G1 X40.033 Y15.609 E3.64028
G1 X39.977 Y15.473 E3.64384
G1 X39.839 Y15.415 E3.64746
G1 X34.413 Y15.415 E3.77869
G1 X34.269 Y15.48 E3.78251
G1 X34.219 Y15.609 E3.78586
G1 X34.219 Y17.18 E3.82385
G1 X30.139 Y17.18 E3.92252
G1 X30.139 Y14.109 E3.99679
G1 X29.946 Y14.03 E4.00183
G1 X30.139 Y13.951 E4.00687
G1 X30.139 Y12.725 E4.03652
G1 X34.277 Y12.725 E4.1366
G1 X34.343 Y12.822 E4.13944
G1 X34.413 Y12.835 E4.14116
G1 X40.433 Y12.835 E4.28675
G1 X40.996 Y12.913 E4.3005
G1 X41.437 Y13.179 E4.31296
G1 X42.296 Y14.043 E4.34243
G1 X42.532 Y14.445 E4.3537
G1 X42.613 Y14.889 E4.36462
G1 X42.609 Y21.709 E4.52956
G1 X42.555 Y22.123 E4.53966
G1 X42.353 Y22.511 E4.55024
G1 X41.95 Y22.943 E4.56453
G1 X41.895 Y23.067 E4.56781
G1 X41.951 Y23.216 E4.57166
G1 X42.619 Y23.884 E4.59451
G1 X42.984 Y24.383 E4.60946
G1 X43.035 Y24.556 E4.61382
G1 X43.09 Y24.952 E4.62349
G1 X43.086 Y29.769 E4.73999
G1 X42.997 Y30.315 E4.75337
G1 X42.792 Y30.664 E4.76316
G1 X41.952 Y31.51 E4.79199
G1 X41.476 Y31.852 E4.80617
G1 X40.996 Y31.954 E4.81804
G1 X38.662 Y31.953 E4.87449
G1 X38.246 Y31.906 E4.88461
G1 X37.892 Y31.75 E4.89397
G1 X37.601 Y31.497 E4.9033
G1 X37.399 Y31.172 E4.91255
G1 X37.302 Y30.799 E4.92187
G1 X37.319 Y30.415 E4.93117
G1 X37.449 Y30.052 E4.9405
G1 X37.679 Y29.745 E4.94978
G1 X37.834 Y29.633 E4.9544
G1 X38.126 Y29.464 E4.96256
G1 X38.498 Y29.376 E4.97181
G1 X40.316 Y29.374 E5.01578
G1 X40.423 Y29.329 E5.01859
G1 X40.502 Y28.937 F7800
G92 E0
G1 X41.721 Y14.978
;TYPE:Solid infill
;WIDTH:0.429713
G1 F1800
G1 X40.713 Y13.97 E.03534
G1 X40.651 Y13.936 E.03709
G1 X40.458 Y13.902 E.04195
G1 X40.083 Y13.902 E.05125
G1 X41.546 Y15.365 E.10254
G1 X41.546 Y15.927 E.11647
G1 X41.07 Y15.451 E.13316
G1 X41.005 Y15.129 E.1413
G1 X40.971 Y15.054 E.14334
G1 X40.873 Y14.888 E.14812
G1 X40.731 Y14.718 E.15361
G1 X40.418 Y14.489 E.16322
G1 X40.317 Y14.443 E.16597
G1 X39.998 Y14.379 E.17404
G1 X39.346 Y13.727 E.1969
G1 X39.58 Y14.524 F7800
G1 F1800
G1 X38.959 Y13.902 E.21869
G1 X38.396 Y13.902 E.23265
G1 X38.844 Y14.35 E.24836
G1 X38.282 Y14.35 E.26229
G1 X37.834 Y13.902 E.278
G1 X37.272 Y13.902 E.29193
G1 X37.721 Y14.351 E.30767
G1 X37.159 Y14.351 E.3216
G1 X36.71 Y13.902 E.33734
G1 X36.148 Y13.902 E.35127
G1 X36.597 Y14.352 E.36703
G1 X36.036 Y14.352 E.38094
G1 X35.585 Y13.902 E.39673
G1 X35.023 Y13.902 E.41066
G1 X35.474 Y14.352 E.42645
G1 X34.912 Y14.353 E.44038
G1 X34.461 Y13.902 E.45619
G1 X34.171 Y13.879 E.4634
G1 X33.917 Y13.792 E.47006
G1 X33.789 Y13.792 E.47323
G1 X34.35 Y14.353 E.4929
G1 X33.948 Y14.436 E.50308
G1 X33.903 Y14.468 E.50445
G1 X33.226 Y13.792 E.52817
G1 X32.664 Y13.792 E.5421
G1 X33.571 Y14.698 E.57388
G1 X33.475 Y14.765 E.57678
G1 X33.326 Y15.015 E.58399
G1 X32.102 Y13.792 E.62688
G1 X31.54 Y13.792 E.64081
G1 X33.173 Y15.425 E.69806
G1 X33.153 Y15.604 E.70253
G1 X33.153 Y15.967 E.71153
G1 X31.206 Y14.02 E.77979
G1 X31.206 Y14.582 E.79372
G1 X32.738 Y16.114 E.84743
G1 X32.176 Y16.114 E.86136
G1 X31.206 Y15.144 E.89537
G1 X31.206 Y15.706 E.9093
G1 X31.788 Y16.288 E.9297
G92 E0
G1 X41.72 Y16.663 F7800
G1 F1800
G1 X41.1 Y16.043 E.02174
G1 X41.1 Y16.605 E.03567
G1 X41.545 Y17.051 E.05129
G1 X41.545 Y17.613 E.06522
G1 X41.1 Y17.167 E.08084
G1 X41.1 Y17.729 E.09477
G1 X41.545 Y18.175 E.11039
G1 X41.544 Y18.737 E.12432
G1 X41.1 Y18.292 E.1399
G1 X41.1 Y18.854 E.15383
G1 X41.544 Y19.298 E.1694
G1 X41.544 Y19.86 E.18333
G1 X41.1 Y19.416 E.1989
G1 X41.1 Y19.978 E.21283
G1 X41.544 Y20.422 E.2284
G1 X41.543 Y20.984 E.24233
G1 X41.1 Y20.54 E.25788
G1 X41.1 Y21.103 E.27184
G1 X41.543 Y21.546 E.28737
G1 X41.53 Y21.804 E.29377
G1 X41.41 Y21.975 E.29895
G1 X41.014 Y21.579 E.31283
G1 X40.844 Y21.893 E.32168
G1 X40.806 Y21.933 E.32305
G1 X41.136 Y22.263 E.33462
G1 X40.966 Y22.505 E.34195
G1 X40.924 Y22.614 E.34485
G1 X40.53 Y22.219 E.35868
G1 X40.334 Y22.376 E.36491
G1 X40.194 Y22.446 E.36879
G1 X40.841 Y23.093 E.39147
G1 X40.899 Y23.503 E.40174
G1 X41.186 Y23.959 E.4151
G1 X41.883 Y24.656 E.43954
G1 X41.966 Y24.78 E.44324
G1 X39.756 Y22.57 E.52072
G1 X39.605 Y22.606 E.52457
G1 X39.503 Y22.718 E.52833
G1 X39.49 Y22.772 E.52971
G1 X39.533 Y22.909 E.53327
G1 X42.016 Y25.393 E.62034
G1 X42.017 Y25.955 E.63427
G1 X41.576 Y25.514 E.64973
G1 X41.576 Y26.076 E.66366
G1 X42.017 Y26.518 E.67914
G1 X42.018 Y27.08 E.69307
G1 X41.576 Y26.639 E.70855
G1 X41.576 Y27.201 E.72248
G1 X42.018 Y27.643 E.73798
G1 X42.019 Y28.206 E.75194
G1 X41.576 Y27.763 E.76747
G1 X41.576 Y28.325 E.7814
G1 X42.019 Y28.768 E.79693
G1 X42.02 Y29.331 E.81089
G1 X41.576 Y28.887 E.82646
G1 X41.576 Y29.185 E.83385
G1 X41.55 Y29.423 E.83979
G1 X42.003 Y29.876 E.85567
G1 X41.94 Y30.008 E.8593
G1 X41.757 Y30.193 E.86575
G1 X41.385 Y29.82 E.87881
G1 X41.214 Y30.065 E.88622
G1 X41.134 Y30.132 E.88881
G1 X41.477 Y30.475 E.90084
G1 X41.197 Y30.757 E.91069
G1 X40.787 Y30.347 E.92506
G1 X40.534 Y30.421 E.93159
G1 X40.318 Y30.44 E.93697
G1 X40.765 Y30.887 E.95264
G1 X40.202 Y30.887 E.9666
G1 X39.756 Y30.441 E.98224
G1 X39.195 Y30.442 E.99615
G1 X39.64 Y30.887 E1.01175
G1 X39.078 Y30.886 E1.02568
G1 X38.634 Y30.443 E1.04123
G1 X38.532 Y30.453 E1.04377
G1 X38.434 Y30.516 E1.04666
G1 X38.398 Y30.563 E1.04813
G1 X38.374 Y30.685 E1.05121
G1 X38.415 Y30.786 E1.05391
G1 X38.69 Y31.061 E1.06355
G92 E0
G1 X28.861 Y18.926 F7800
;TYPE:External perimeter
;WIDTH:0.37219
G1 F1800
G1 X29.756 Y18.032 E.02682
G1 X37.815 Y18.031 E.1977
G1 X37.894 Y18.071 E.19958
G1 X37.894 Y26.658 E.38165
G1 X37.599 Y26.388 F7800
G1 X38.058 Y27.235
;TYPE:Perimeter
;WIDTH:0.424308
G1 F1800
G1 X39.108 Y27.235 E.40733
G1 X39.498 Y26.845 F7800
;TYPE:External perimeter
;WIDTH:0.419999
G1 F1800
G1 X39.498 Y27.625 E.42619
G1 X37.668 Y27.625 E.47045
G1 X37.668 Y26.845 E.48931
G1 X37.851 Y26.842 E.49374
G1 X37.894 Y26.658 E.49831
G1 X37.936 Y26.842 E.50287
G1 X39.438 Y26.845 E.5392
G1 X39.497 Y27.241 F7800
G92 E0
G1 X28.274 Y19.575
;TYPE:Perimeter
;WIDTH:0.43981
G1 F1800
G1 X28.274 Y19.452 E.00313
G1 X27.876 Y19.973 F7800
;TYPE:External perimeter
;WIDTH:0.419999
G1 F1800
G1 X27.876 Y19.055 E.02533
G1 X28.274 Y19.055 E.03496
G1 X28.793 Y18.963 E.04771
;WIDTH:0.396352
G1 X28.728 Y19.035 E.04991
;WIDTH:0.419999
G1 X28.671 Y19.452 E.06009
G1 X28.671 Y19.973 E.07269
G1 X27.936 Y19.973 E.09047
G1 X27.877 Y19.577 F7800
G92 E0
G1 X28.232 Y25.842
;WIDTH:0.440282
G1 F1800
G1 X28.843 Y25.842 E.01555
;WIDTH:0.406236
G1 X29.455 Y25.842 E.02983
;WIDTH:0.37219
G1 X31.738 Y25.839 E.07824
G1 X34.109 Y23.475 E.14923
G1 X33.741 Y23.634 F7800
G1 X34.635 Y22.889
;TYPE:Perimeter
;WIDTH:0.439812
G1 F1800
G1 X34.758 Y22.889 E.15236
G1 X34.18 Y23.358 F7800
;TYPE:External perimeter
;WIDTH:0.419999
G1 F1800
G1 X34.237 Y22.889 E.16379
G1 X34.237 Y22.491 E.17342
G1 X35.156 Y22.491 E.19565
G1 X35.156 Y23.286 E.21488
G1 X34.758 Y23.286 E.22451
G1 X34.24 Y23.351 E.23714
G1 X34.228 Y22.951 F7800
G92 E0
G1 X34.469 Y19.967
;WIDTH:0.37219
G1 F1800
G1 X35.351 Y19.967 E.0187
G1 X36.687 Y21.301 E.05873
G1 X36.71 Y22.304 E.08
G1 X36.463 Y21.99 F7800
G1 X36.649 Y22.889
;TYPE:Perimeter
;WIDTH:0.440094
G1 F1800
G1 X36.771 Y22.889 E.0831
G1 X36.251 Y22.491 F7800
;TYPE:External perimeter
;WIDTH:0.419999
G1 F1800
G1 X36.637 Y22.491 E.09244
G1 X36.71 Y22.304 E.09729
G1 X36.764 Y22.489 E.10195
G1 X37.169 Y22.491 E.11174
G1 X37.169 Y23.286 E.13097
G1 X36.251 Y23.286 E.15317
G1 X36.251 Y22.551 E.17095
G1 X36.644 Y22.478 F7800
G92 E0
G1 X33.893 Y19.441
;TYPE:Perimeter
;WIDTH:0.429672
G1 F1800
G1 X33.893 Y20.491 E.02603
G1 X34.283 Y20.881 F7800
;TYPE:External perimeter
;WIDTH:0.419999
G1 F1800
G1 X33.503 Y20.881 E.04489
G1 X33.503 Y19.051 E.08915
G1 X34.283 Y19.051 E.10801
G1 X34.284 Y19.914 E.12888
G1 X34.469 Y19.967 E.13353
;WIDTH:0.406094
G1 X34.321 Y20.004 E.13709
;WIDTH:0.419999
G1 X34.283 Y20.046 E.13846
G1 X34.283 Y20.821 E.1572
G1 X33.887 Y20.881 F7800
G92 E0
G1 X31.769 Y22.905
;TYPE:Perimeter
;WIDTH:0.365336
G1 F1800
G1 X31.769 Y21.896 E.02096
;WIDTH:0.401292
G1 X31.72 Y21.543 E.02916
G1 X31.493 Y21.23 E.03806
;WIDTH:0.365392
G1 X30.365 Y20.102 E.07121
G1 X30.307 Y19.947 E.07465
;WIDTH:0.360814
G1 X30.38 Y19.828 E.07751
G1 X30.514 Y19.797 E.08033
;WIDTH:0.365392
G1 X31.973 Y21.239 E.12296
;WIDTH:0.397761
G1 X32.086 Y21.516 E.12978
G1 X32.102 Y21.896 E.13845
;WIDTH:0.365336
G1 X32.102 Y23.442 E.17057
;WIDTH:0.373549
G1 X31.943 Y23.598 E.17531
G1 X31.779 Y23.578 E.17883
G1 X31.759 Y23.497 E.18061
G1 X31.769 Y23.157 E.18785
;WIDTH:0.365336
G1 X31.769 Y22.965 E.19184
G1 X31.4 Y23.213 F7800
;WIDTH:0.419999
G1 F1800
G1 X31.408 Y21.896 E.22369
G1 X31.375 Y21.702 E.22845
G1 X31.238 Y21.485 E.23466
G1 X30.142 Y20.389 E.27215
G1 X29.981 Y20.16 E.27892
G1 X29.948 Y19.967 E.28366
G1 X29.997 Y19.74 E.28928
G1 X30.263 Y19.439 E.29899
G1 X30.669 Y19.439 E.30881
G1 X32.238 Y20.994 E.36223
G1 X32.424 Y21.265 E.37018
G1 X32.462 Y21.896 E.38547
G1 X32.462 Y23.523 E.42482
G1 X32.231 Y23.854 E.43458
G1 X31.963 Y23.963 E.44158
G1 X31.467 Y23.888 E.45371
G1 X31.398 Y23.556 E.46191
G1 X31.4 Y23.273 E.46875
G92 E0
G1 X23.141 Y27.804 F7800
G1 F1800
G1 X24.342 Y27.804 E.02905
G1 X24.751 Y27.935 E.03944
G1 X24.83 Y28.104 E.04395
G1 X24.879 Y28.338 E.04973
G1 X24.801 Y28.585 E.05599
G1 X24.574 Y28.778 E.0632
G1 X24.284 Y28.832 E.07033
G1 X16.747 Y28.831 E.25261
G1 X16.496 Y28.687 E.25961
G1 X16.367 Y28.492 E.26526
G1 X16.339 Y28.261 E.27089
G1 X16.418 Y28.042 E.27652
G1 X16.627 Y27.862 E.28319
G1 X16.948 Y27.804 E.29108
G1 X23.081 Y27.804 E.43941
G1 X23.419 Y27.416 F7800
G1 F1800
G1 X24.431 Y27.416 E.46389
G1 X25.066 Y27.621 E.48003
G1 X25.181 Y27.941 E.48825
G1 X25.263 Y28.264 E.49631
G1 X25.22 Y28.598 E.50445
G1 X25.066 Y28.881 E.51224
G1 X24.747 Y29.13 E.52203
G1 X24.384 Y29.219 E.53107
G1 X16.948 Y29.219 E.71091
G1 X16.594 Y29.18 E.71952
G1 X16.315 Y29.036 E.72711
G1 X16.092 Y28.809 E.73481
G1 X15.952 Y28.424 E.74472
G1 X15.998 Y28.016 E.75465
G1 X16.221 Y27.671 E.76459
G1 X16.565 Y27.465 E.77429
G1 X16.948 Y27.416 E.78363
G1 X23.359 Y27.416 E.93868
G1 X25.161 Y27.216 F7800
;TYPE:External perimeter
G1 F1800
G1 X25.262 Y27.171 E.94135
;WIDTH:0.391094
G1 X27.691 Y24.741 E1.01825
G1 X27.944 Y24.709 E1.02396
G1 X30.317 Y24.706 E1.07707
;WIDTH:0.390958
G1 X30.444 Y24.657 E1.08012
;WIDTH:0.391095
G1 X31.023 Y24.078 E1.09845
;WIDTH:0.41251
G1 X31.086 Y23.969 E1.10144
;WIDTH:0.419999
G1 X30.982 Y23.486 E1.11339
G1 X31.021 Y23.157 E1.1214
G1 X31.021 Y21.896 E1.1519
G1 X30.964 Y21.759 E1.15549
G1 X30.143 Y20.938 E1.18357
G1 X30.058 Y20.899 E1.18583
G1 X30.037 Y20.835 E1.18746
G1 X29.747 Y20.531 E1.19762
G1 X29.589 Y20.193 E1.20664
G1 X29.561 Y19.84 E1.2152
G1 X29.698 Y19.472 E1.2247
G1 X30.003 Y19.174 E1.23501
G1 X30.062 Y19.051 E1.23831
G1 X30.869 Y19.051 E1.25783
G1 X30.929 Y19.174 E1.26114
G1 X31.112 Y19.319 E1.26679
G1 X32.512 Y20.719 E1.31467
G1 X32.791 Y21.12 E1.32648
G1 X32.85 Y21.516 E1.33616
G1 X32.85 Y23.463 E1.38325
G1 X32.737 Y23.856 E1.39314
G1 X32.483 Y24.157 E1.40267
G1 X32.187 Y24.324 E1.41089
G1 X31.841 Y24.371 E1.41933
G1 X31.452 Y24.27 E1.42905
G1 X31.277 Y24.331 E1.43353
;WIDTH:0.399254
G1 X30.576 Y25.016 E1.45597
G1 X30.32 Y25.06 E1.46192
;WIDTH:0.391094
G1 X27.945 Y25.068 E1.51508
G1 X27.819 Y25.121 E1.51814
G1 X25.516 Y27.425 E1.59105
;WIDTH:0.419999
G1 X25.449 Y27.572 E1.59496
G1 X25.583 Y27.885 E1.60319
G1 X25.657 Y28.368 E1.61501
G1 X25.547 Y28.841 E1.62675
G1 X25.272 Y29.237 E1.63841
G1 X24.92 Y29.482 E1.64878
G1 X24.403 Y29.607 E1.66164
G1 X16.794 Y29.606 E1.84566
G1 X16.346 Y29.497 E1.85681
G1 X15.961 Y29.257 E1.86778
G1 X15.699 Y28.89 E1.87869
G1 X15.564 Y28.471 E1.88934
G1 X15.597 Y28.03 E1.90004
G1 X15.762 Y27.618 E1.91077
G1 X16.065 Y27.302 E1.92136
G1 X16.454 Y27.09 E1.93207
G1 X16.847 Y27.028 E1.94169
G1 X24.285 Y27.028 E2.12158
G1 X24.555 Y27.054 E2.12814
G1 X25.106 Y27.234 E2.14216
G1 X25.427 Y26.996 F7800
G1 X24.483 Y28.684
;TYPE:Solid infill
;WIDTH:0.443485
G1 F1800
G1 X23.893 Y28.094 E2.16356
G1 X23.311 Y28.094 E2.17849
G1 X23.755 Y28.538 E2.1946
G1 X23.174 Y28.538 E2.2095
G1 X22.73 Y28.094 E2.22561
G1 X22.148 Y28.094 E2.24054
G1 X22.592 Y28.539 E2.25666
G1 X22.011 Y28.539 E2.27156
G1 X21.566 Y28.094 E2.2877
G1 X20.985 Y28.094 E2.3026
G1 X21.429 Y28.539 E2.31872
G1 X20.848 Y28.539 E2.33362
G1 X20.403 Y28.094 E2.34976
G1 X19.821 Y28.094 E2.36469
G1 X20.266 Y28.539 E2.38083
G1 X19.684 Y28.539 E2.39576
G1 X19.24 Y28.094 E2.41188
G1 X18.658 Y28.094 E2.42681
G1 X19.103 Y28.539 E2.44295
G1 X18.521 Y28.539 E2.45788
G1 X18.076 Y28.094 E2.47402
G1 X17.495 Y28.094 E2.48892
G1 X17.94 Y28.54 E2.50508
G1 X17.358 Y28.54 E2.52001
G1 X16.915 Y28.097 E2.53608
G1 X16.767 Y28.12 E2.53992
G1 X16.697 Y28.163 E2.54203
G1 X16.643 Y28.247 E2.54459
G1 X16.632 Y28.343 E2.54707
G1 X16.662 Y28.425 E2.54931
G1 X16.951 Y28.714 E2.55979
G92 E0
G1 X24.073 Y23.936 F7800
;TYPE:External perimeter
;WIDTH:0.441316
G1 F1800
G1 X25.117 Y23.936 E.02664
;WIDTH:0.410804
G1 X25.331 Y24.031 E.03217
;WIDTH:0.37219
G1 X27.049 Y24.027 E.0686
G1 X27.154 Y23.99 E.07096
G1 X27.104 Y23.896 E.07322
G1 X23.11 Y20.032 E.19105
G1 X19.706 Y20.034 E.26323
G1 X17.892 Y21.84 E.3175
G1 X15.829 Y21.84 E.36124
G1 X15.229 Y21.271 E.37877
G1 X15.224 Y15.565 E.49976
G1 X15.242 Y15.49 E.5014
G1 X27.157 Y15.486 E.75404
G1 X27.217 Y15.513 E.75544
G1 X27.969 Y16.39 E.77994
G1 X27.989 Y16.854 E.78979
G1 X27.811 Y17.213 F7800
G1 X28.274 Y17.562
;TYPE:Perimeter
;WIDTH:0.439812
G1 F1800
G1 X28.274 Y17.439 E.79292
G1 X28.671 Y17.96 F7800
;TYPE:External perimeter
;WIDTH:0.419999
G1 F1800
G1 X27.876 Y17.96 E.81215
G1 X27.876 Y17.562 E.82178
G1 X27.844 Y17.009 E.83518
;WIDTH:0.406737
G1 X27.951 Y17.004 E.83768
G1 X27.989 Y16.854 E.84129
;WIDTH:0.419999
G1 X28.068 Y17.041 E.8462
G1 X28.671 Y17.041 E.86078
G1 X28.671 Y17.9 E.88155
G1 X28.276 Y17.959 F7800
G92 E0
G1 X17.328 Y20.213
;WIDTH:0.37219
G1 F1800
G1 X18.562 Y18.986 E.0369
G1 X23.035 Y18.983 E.13174
G1 X27.926 Y23.875 E.27842
;WIDTH:0.39954
G1 X28.178 Y23.936 E.28436
;WIDTH:0.441314
G1 X29.236 Y23.936 E.31135
G1 X28.858 Y23.806 F7800
G92 E0
G1 X16.863 Y20.664
;TYPE:Perimeter
;WIDTH:0.347826
G1 F1800
G1 X16.804 Y20.698 E.00134
G1 X16.863 Y20.732 E.00268
G1 X16.883 Y20.698 E.00346
G1 X16.492 Y21.05 F7800
;TYPE:External perimeter
;WIDTH:0.419999
G1 F1800
G1 X16.492 Y20.346 E.02049
G1 X16.843 Y20.346 E.02898
G1 X17.328 Y20.213 E.04114
G1 X17.195 Y20.698 E.0533
G1 X17.195 Y21.05 E.06181
G1 X16.552 Y21.05 E.07736
G1 X16.492 Y20.654 F7800
G92 E0
G1 X21.726 Y24.491
;WIDTH:0.37219
G1 F1800
G1 X22.156 Y24.888 E.01241
G1 X23.861 Y24.889 E.04856
;WIDTH:0.406753
G1 X23.967 Y24.889 E.05104
;WIDTH:0.441316
G1 X25.077 Y24.889 E.07936
G1 X24.678 Y24.873 F7800
G92 E0
G1 X21.13 Y23.834
;TYPE:Perimeter
;WIDTH:0.439812
G1 F1800
G1 X21.13 Y23.957 E.00313
G1 X21.528 Y23.437 F7800
;TYPE:External perimeter
;WIDTH:0.419999
G1 F1800
G1 X21.528 Y23.834 E.01273
G1 X21.595 Y24.409 E.02673
G1 X21.13 Y24.355 E.03805
G1 X20.732 Y24.355 E.04768
G1 X20.732 Y23.437 E.06988
G1 X21.468 Y23.437 E.08768
G1 X21.527 Y23.832 F7800
G92 E0
G1 X25.078 Y25.842
;WIDTH:0.443374
G1 F1800
G1 X24.742 Y25.843 E.00862
G1 X23.925 Y26.221 F7800
;WIDTH:0.45314
G1 F1800
G1 X23.888 Y26.223 E.00959
;WIDTH:0.449974
G1 X18.264 Y26.223 E.15612
;WIDTH:0.44967
G1 X18.116 Y26.161 E.1603
;WIDTH:0.44996
G1 X17.704 Y25.749 E.17548
G1 X18.102 Y25.781 F7800
G92 E0
G1 X24.742 Y25.843
;WIDTH:0.443374
G1 F1800
G1 X24.307 Y26.239 E.01508
;WIDTH:0.45314
G1 X23.925 Y26.221 E.02512
G1 X24.078 Y26.047 E.0312
;WIDTH:0.416748
G1 X24.028 Y25.844 E.03621
;WIDTH:0.411227
G1 X24.152 Y25.827 E.03917
;WIDTH:0.443374
G1 X24.682 Y25.841 E.05277
G1 X24.42 Y26.143 F7800
G92 E0
G1 X16.847 Y25.018
;TYPE:Perimeter
;WIDTH:0.419999
G1 F1800
G1 X16.321 Y24.928 E.01291
G1 X14.421 Y24.928 E.05886
G1 X13.996 Y25.104 E.06999
G1 X13.749 Y25.355 E.07851
G1 X13.584 Y25.897 E.09221
G1 X13.584 Y29.739 E.18513
G1 X13.639 Y30.061 E.19303
G1 X13.868 Y30.425 E.20343
G1 X14.868 Y31.425 E.23763
G1 X15.134 Y31.613 E.24551
G1 X15.554 Y31.709 E.25593
G1 X28.061 Y31.709 E.55841
G1 X28.426 Y31.638 E.5674
G1 X28.746 Y31.426 E.57668
G1 X31.556 Y28.616 E.67279
G1 X31.951 Y28.242 E.68595
G1 X32.117 Y27.685 E.70001
G1 X35.021 Y27.685 E.77024
G1 X35.021 Y30.214 E.8314
G1 X31.815 Y30.214 E.90894
G1 X31.459 Y30.281 E.9177
G1 X31.13 Y30.496 E.92721
G1 X28.972 Y32.626 E1.00054
G1 X28.713 Y32.729 E1.00728
G1 X14.863 Y32.725 E1.34224
G1 X14.539 Y32.55 E1.35115
G1 X13.141 Y31.152 E1.39897
G1 X12.632 Y30.61 E1.41695
G1 X12.555 Y30.288 E1.42496
G1 X12.555 Y24.932 E1.55449
G1 X12.653 Y24.569 E1.56358
G1 X13.109 Y24.105 E1.57931
G1 X13.276 Y23.982 E1.58433
G1 X13.562 Y23.899 E1.59153
G1 X16.642 Y23.899 E1.66602
G1 X16.954 Y23.958 E1.6737
G1 X17.211 Y24.158 E1.68158
G1 X17.341 Y24.438 E1.68905
G1 X17.312 Y24.672 E1.69475
G1 X17.135 Y24.942 E1.70256
G1 X16.905 Y25.002 E1.70831
G1 X17.205 Y25.319 F7800
G1 F1800
G1 X16.857 Y25.407 E1.71699
G1 X16.321 Y25.315 E1.73014
G1 X14.553 Y25.315 E1.7729
G1 X14.219 Y25.421 E1.78137
G1 X14.084 Y25.553 E1.78594
G1 X13.972 Y25.897 E1.79469
G1 X13.972 Y29.739 E1.88761
G1 X14.005 Y29.932 E1.89235
G1 X14.142 Y30.151 E1.8986
G1 X15.142 Y31.151 E1.9328
G1 X15.302 Y31.264 E1.93754
G1 X15.554 Y31.321 E1.94379
G1 X28.061 Y31.321 E2.24627
G1 X28.28 Y31.279 E2.25166
G1 X28.472 Y31.152 E2.25723
G1 X31.247 Y28.376 E2.35216
G1 X31.63 Y28.025 E2.36472
G1 X31.729 Y27.7 E2.37294
G1 X31.729 Y27.297 E2.38269
G1 X35.409 Y27.297 E2.47169
G1 X35.409 Y30.602 E2.55162
G1 X31.815 Y30.602 E2.63854
G1 X31.601 Y30.642 E2.64381
G1 X31.404 Y30.771 E2.64951
G1 X29.347 Y32.821 E2.71974
G1 X29.03 Y33.046 E2.72914
G1 X28.764 Y33.117 E2.7358
G1 X15.011 Y33.126 E3.06841
G1 X14.691 Y33.083 E3.07622
G1 X14.293 Y32.852 E3.08735
G1 X12.487 Y31.047 E3.1491
G1 X12.256 Y30.719 E3.1588
G1 X12.167 Y30.317 E3.16876
G1 X12.167 Y24.991 E3.29757
G1 X12.213 Y24.646 E3.30599
G1 X12.337 Y24.338 E3.31402
G1 X12.949 Y23.715 E3.33514
G1 X13.252 Y23.556 E3.34342
G1 X13.53 Y23.511 E3.35023
G1 X16.321 Y23.511 E3.41773
G1 X16.878 Y23.536 E3.43121
G1 X17.234 Y23.66 E3.44033
G1 X17.42 Y23.826 E3.44636
G1 X17.645 Y24.107 E3.45507
G1 X17.73 Y24.383 E3.46205
G1 X17.724 Y24.667 E3.46892
G1 X17.631 Y24.934 E3.47576
G1 X17.372 Y25.277 E3.48615
G1 X17.264 Y25.304 E3.48884
G1 X17.677 Y25.602 F7800
;TYPE:External perimeter
;WIDTH:0.444053
G1 F1800
G1 X17.663 Y25.684 E3.49098
G1 X17.491 Y25.647 E3.4955
;WIDTH:0.421111
G1 X17.266 Y25.718 E3.50122
;WIDTH:0.419999
G1 X16.867 Y25.797 E3.51106
G1 X16.321 Y25.703 E3.52446
G1 X14.553 Y25.703 E3.56722
G1 X14.442 Y25.738 E3.57003
G1 X14.36 Y25.897 E3.57436
G1 X14.36 Y29.739 E3.66728
G1 X14.416 Y29.876 E3.67086
G1 X15.417 Y30.877 E3.7051
G1 X15.554 Y30.934 E3.70869
G1 X28.061 Y30.934 E4.01117
G1 X28.198 Y30.877 E4.01476
G1 X30.723 Y28.353 E4.1011
G1 X31.269 Y27.851 E4.11904
G1 X31.341 Y27.7 E4.12309
G1 X31.341 Y26.909 E4.14222
G1 X35.797 Y26.909 E4.24999
G1 X35.797 Y30.989 E4.34866
G1 X31.815 Y30.989 E4.44496
G1 X31.678 Y31.046 E4.44855
G1 X29.511 Y33.205 E4.52253
G1 X29.185 Y33.406 E4.53179
G1 X28.815 Y33.504 E4.54105
G1 X15.555 Y33.513 E4.86174
G1 X14.868 Y33.506 E4.87836
G1 X14.436 Y33.409 E4.88907
G1 X14.047 Y33.155 E4.90031
G1 X12.592 Y31.701 E4.95006
G1 X12.044 Y31.119 E4.96939
G1 X11.837 Y30.728 E4.98009
G1 X11.78 Y30.345 E4.98945
G1 X11.78 Y24.991 E5.11894
G1 X11.862 Y24.405 E5.13325
G1 X12.021 Y24.106 E5.14144
G1 X12.715 Y23.4 E5.16538
G1 X13.128 Y23.184 E5.17665
G1 X13.499 Y23.123 E5.18574
G1 X16.642 Y23.123 E5.26175
G1 X17.113 Y23.178 E5.27322
G1 X17.448 Y23.332 E5.28214
G1 X17.798 Y23.643 E5.29346
G1 X17.998 Y23.938 E5.30208
G1 X18.119 Y24.329 E5.31198
G1 X18.111 Y24.737 E5.32185
G1 X17.976 Y25.121 E5.33169
G1 X17.698 Y25.483 E5.34273
;WIDTH:0.444053
G1 X17.687 Y25.543 E5.3443
G1 X17.322 Y25.705 F7800
G92 E0
G1 X34.905 Y28.596
;TYPE:Solid infill
;WIDTH:0.425285
G1 F1800
G1 X34.284 Y27.976 E.02151
G1 X33.728 Y27.976 E.03514
G1 X34.73 Y28.978 E.06988
G1 X34.73 Y29.534 E.08351
G1 X33.172 Y27.976 E.13752
G1 X32.616 Y27.976 E.15115
G1 X34.563 Y29.923 E.21865
G1 X34.007 Y29.923 E.23228
G1 X32.265 Y28.181 E.29267
G1 X32.198 Y28.4 E.29828
G1 X32.069 Y28.541 E.30296
G1 X33.451 Y29.923 E.35087
G1 X32.896 Y29.923 E.36448
G1 X31.781 Y28.808 E.40314
G1 X31.5 Y29.083 E.41278
G1 X32.34 Y29.923 E.4419
G1 X31.787 Y29.926 E.45546
G1 X31.222 Y29.361 E.47505
G1 X30.944 Y29.639 E.48469
G1 X31.329 Y30.024 E.49804
G1 X30.993 Y30.244 E.50789
G1 X30.666 Y29.917 E.51923
G1 X30.388 Y30.195 E.52887
G1 X30.704 Y30.511 E.53983
G1 X30.425 Y30.788 E.54947
G1 X30.11 Y30.473 E.56039
G1 X29.832 Y30.751 E.57003
G1 X30.147 Y31.066 E.58095
G1 X29.869 Y31.343 E.59057
G1 X29.554 Y31.029 E.60147
G1 X29.276 Y31.307 E.61111
G1 X29.59 Y31.621 E.622
G1 X29.312 Y31.898 E.63162
G1 X28.998 Y31.585 E.64249
G1 X28.783 Y31.773 E.64949
G1 X28.686 Y31.828 E.65222
G1 X29.033 Y32.176 E.66427
G1 X28.846 Y32.362 E.67074
G1 X28.726 Y32.425 E.67406
G1 X28.282 Y31.981 E.68945
G1 X27.746 Y32 E.7026
G1 X28.184 Y32.438 E.71778
G1 X27.629 Y32.439 E.73139
G1 X27.19 Y32 E.74661
G1 X26.634 Y32 E.76024
G1 X27.073 Y32.439 E.77546
G1 X26.517 Y32.439 E.78909
G1 X26.078 Y32 E.80431
G1 X25.522 Y32 E.81794
G1 X25.962 Y32.44 E.83319
G1 X25.406 Y32.44 E.84682
G1 X24.966 Y32 E.86207
G1 X24.41 Y32 E.8757
G1 X24.851 Y32.441 E.89099
G1 X24.295 Y32.441 E.90462
G1 X23.854 Y32 E.91991
G1 X23.298 Y32 E.93354
G1 X23.74 Y32.441 E.94885
G1 X23.184 Y32.442 E.96248
G1 X22.742 Y32 E.9778
G1 X22.187 Y32 E.99141
G1 X22.629 Y32.442 E1.00673
G1 X22.073 Y32.442 E1.02036
G1 X21.631 Y32 E1.03568
G1 X21.075 Y32 E1.04931
G1 X21.517 Y32.443 E1.06465
G1 X20.962 Y32.443 E1.07826
G1 X20.519 Y32 E1.09362
G1 X19.963 Y32 E1.10725
G1 X20.406 Y32.443 E1.12261
G1 X19.851 Y32.444 E1.13622
G1 X19.407 Y32 E1.15161
G1 X18.851 Y32 E1.16524
G1 X19.295 Y32.444 E1.18063
G1 X18.74 Y32.445 E1.19424
G1 X18.295 Y32 E1.20967
G1 X17.739 Y32 E1.2233
G1 X18.184 Y32.445 E1.23873
G1 X17.629 Y32.445 E1.25234
G1 X17.183 Y32 E1.26778
G1 X16.627 Y32 E1.28141
G1 X17.073 Y32.446 E1.29687
G1 X16.517 Y32.446 E1.3105
G1 X15.897 Y31.826 E1.33199
G92 E0
G1 X17.147 Y24.736 F7800
G1 F1800
G1 X16.603 Y24.193 E.01884
G1 X16.047 Y24.192 E.03247
G1 X16.511 Y24.657 E.04857
G1 X16.326 Y24.637 E.05313
G1 X15.935 Y24.637 E.06272
G1 X15.49 Y24.192 E.07815
G1 X14.934 Y24.191 E.09178
G1 X15.379 Y24.637 E.10722
G1 X14.823 Y24.637 E.12085
G1 X14.377 Y24.191 E.13631
G1 X13.821 Y24.19 E.14994
G1 X14.299 Y24.668 E.16651
G1 X13.906 Y24.831 E.17694
G1 X13.35 Y24.276 E.1962
G1 X13.08 Y24.561 E.20582
G1 X13.598 Y25.079 E.22378
G1 X13.505 Y25.189 E.22731
G1 X13.422 Y25.459 E.23423
G1 X12.858 Y24.895 E.25378
G1 X12.846 Y25.439 E.26712
G1 X13.293 Y25.886 E.28262
G1 X13.293 Y26.442 E.29625
G1 X12.846 Y25.995 E.31175
G1 X12.846 Y26.551 E.32538
G1 X13.293 Y26.998 E.34088
G1 X13.293 Y27.554 E.35451
G1 X12.846 Y27.107 E.37001
G1 X12.846 Y27.663 E.38364
G1 X13.293 Y28.11 E.39914
G1 X13.293 Y28.666 E.41277
G1 X12.846 Y28.219 E.42827
G1 X12.846 Y28.775 E.4419
G1 X13.468 Y29.396 E.46345
G1 X12.672 Y29.156 F7800
G1 F1800
G1 X13.296 Y29.781 E.4851
G1 X13.312 Y29.957 E.48943
G1 X13.409 Y30.268 E.49742
G1 X13.656 Y30.624 E.50804
G1 X14.666 Y31.634 E.54306
G1 X14.831 Y31.773 E.54835
G1 X15.11 Y31.92 E.55608
G1 X15.509 Y31.993 E.56602
G1 X15.962 Y32.446 E.58172
G1 X15.406 Y32.447 E.59535
G1 X12.846 Y29.886 E.68412
G1 X12.846 Y30.266 E.69344
G1 X12.87 Y30.423 E.69733
G1 X12.949 Y30.545 E.70089
G1 X15.025 Y32.621 E.77286
G92 E0
G1 X17.382 Y16.888 F7800
;TYPE:External perimeter
;WIDTH:0.37219
G1 F1800
G1 X22.64 Y16.893 E.11149
G1 X28.474 Y22.724 E.28638
;WIDTH:0.422068
G1 X28.502 Y22.846 E.28942
;WIDTH:0.471946
G1 X28.53 Y22.969 E.29288
G1 X28.232 Y22.984 E.30106
;WIDTH:0.441316
G1 X29.236 Y22.984 E.32668
G1 X28.883 Y22.796 F7800
G92 E0
G1 X16.492 Y16.536
;WIDTH:0.419999
G1 F1800
G1 X17.195 Y16.536 E.017
G1 X17.197 Y16.837 E.02428
G1 X17.382 Y16.888 E.02892
G1 X17.197 Y16.939 E.03356
G1 X17.195 Y17.239 E.04082
G1 X16.492 Y17.239 E.05782
G1 X16.492 Y16.596 E.07337
G1 X16.887 Y16.536 F7800
G92 E0
M107
;TYPE:Custom
; Filament-specific end gcode 
;END gcode for filament
M104 S0 ; turn off temperature
G28 X0  ; home X axis
M84     ; disable motors
; objects_info = {"objects":[]}
; filament used [mm] = 72.07
; filament used [cm3] = 0.17
; total filament used [g] = 0.00
; total filament cost = 0.00
; total filament used for wipe tower [g] = 0.00
; estimated printing time (normal mode) = 1m 54s
; estimated first layer printing time (normal mode) = 1m 54s

; prusaslicer_config = begin
; arc_fitting = disabled
; autoemit_temperature_commands = 1
; automatic_extrusion_widths = 0
; automatic_infill_combination = 0
; automatic_infill_combination_max_layer_height = 100%
; avoid_crossing_curled_overhangs = 0
; avoid_crossing_perimeters = 0
; avoid_crossing_perimeters_max_detour = 0
; bed_custom_model = 
; bed_custom_texture = 
; bed_shape = 0x0,200x0,200x200,0x200
; bed_temperature = 0
; bed_temperature_extruder = 0
; before_layer_gcode = 
; between_objects_gcode = 
; binary_gcode = 0
; bottom_fill_pattern = monotonic
; bottom_solid_layers = 3
; bottom_solid_min_thickness = 0
; bridge_acceleration = 0
; bridge_angle = 0
; bridge_fan_speed = 100
; bridge_flow_ratio = 1
; bridge_speed = 60
; brim_separation = 0
; brim_type = outer_only
; brim_width = 5
; chamber_minimal_temperature = 0
; chamber_temperature = 0
; color_change_gcode = M600
; colorprint_heights = 
; complete_objects = 0
; cooling = 1
; cooling_perimeter_transition_distance = 0
; cooling_slowdown_logic = uniform_cooling
; cooling_tube_length = 5
; cooling_tube_retraction = 91.5
; custom_parameters_filament = ""
; custom_parameters_print = 
; custom_parameters_printer = 
; default_acceleration = 0
; default_filament_profile = 
; default_print_profile = 
; deretract_speed = 0
; disable_fan_first_layers = 3
; dont_support_bridges = 1
; draft_shield = disabled
; duplicate_distance = 6
; elefant_foot_compensation = 0
; enable_dynamic_fan_speeds = 0
; enable_dynamic_overhang_speeds = 0
; end_filament_gcode = "; Filament-specific end gcode \n;END gcode for filament\n"
; end_gcode = M104 S0 ; turn off temperature\nG28 X0  ; home X axis\nM84     ; disable motors\n
; ensure_vertical_shell_thickness = enabled
; external_perimeter_acceleration = 0
; external_perimeter_extrusion_width = 0.45
; external_perimeter_speed = 50%
; external_perimeters_first = 0
; extra_loading_move = -2
; extra_perimeters = 1
; extra_perimeters_on_overhangs = 0
; extruder_clearance_height = 20
; extruder_clearance_radius = 20
; extruder_colour = ""
; extruder_offset = 0x0
; extrusion_axis = E
; extrusion_multiplier = 1
; extrusion_width = 0.45
; fan_always_on = 0
; fan_below_layer_time = 60
; filament_abrasive = 0
; filament_colour = #29B2B2
; filament_cooling_final_speed = 3.4
; filament_cooling_initial_speed = 2.2
; filament_cooling_moves = 4
; filament_cost = 0
; filament_density = 0
; filament_deretract_speed = nil
; filament_diameter = 1.75
; filament_infill_max_crossing_speed = 0
; filament_infill_max_speed = 0
; filament_load_time = 0
; filament_loading_speed = 28
; filament_loading_speed_start = 3
; filament_max_volumetric_speed = 0
; filament_minimal_purge_on_wipe_tower = 15
; filament_multitool_ramming = 0
; filament_multitool_ramming_flow = 10
; filament_multitool_ramming_volume = 10
; filament_notes = ""
; filament_purge_multiplier = 100%
; filament_ramming_parameters = "120 100 6.6 6.8 7.2 7.6 7.9 8.2 8.7 9.4 9.9 10.0| 0.05 6.6 0.45 6.8 0.95 7.8 1.45 8.3 1.95 9.7 2.45 10 2.95 7.6 3.45 7.6 3.95 7.6 4.45 7.6 4.95 7.6"
; filament_retract_before_travel = nil
; filament_retract_before_wipe = nil
; filament_retract_layer_change = nil
; filament_retract_length = nil
; filament_retract_length_toolchange = nil
; filament_retract_lift = nil
; filament_retract_lift_above = nil
; filament_retract_lift_below = nil
; filament_retract_restart_extra = nil
; filament_retract_restart_extra_toolchange = nil
; filament_retract_speed = nil
; filament_seam_gap_distance = nil
; filament_settings_id = "My Settings"
; filament_shrinkage_compensation_xy = 0%
; filament_shrinkage_compensation_z = 0%
; filament_soluble = 0
; filament_spool_weight = 0
; filament_stamping_distance = 0
; filament_stamping_loading_speed = 20
; filament_toolchange_delay = 0
; filament_travel_lift_before_obstacle = nil
; filament_travel_max_lift = nil
; filament_travel_ramping_lift = nil
; filament_travel_slope = nil
; filament_type = PLA
; filament_unload_time = 0
; filament_unloading_speed = 90
; filament_unloading_speed_start = 100
; filament_vendor = (Unknown)
; filament_wipe = nil
; fill_angle = 45
; fill_density = 100%
; fill_pattern = concentric
; first_layer_acceleration = 0
; first_layer_acceleration_over_raft = 0
; first_layer_bed_temperature = 60
; first_layer_extrusion_width = 0.42
; first_layer_height = 0.15
; first_layer_infill_speed = 0
; first_layer_speed = 30
; first_layer_speed_over_raft = 30
; first_layer_temperature = 200
; full_fan_speed_layer = 0
; fuzzy_skin = none
; fuzzy_skin_point_dist = 0.8
; fuzzy_skin_thickness = 0.3
; gap_fill_enabled = 1
; gap_fill_speed = 20
; gcode_comments = 0
; gcode_flavor = reprap
; gcode_label_objects = disabled
; gcode_resolution = 0.0125
; gcode_substitutions = 
; high_current_on_filament_swap = 0
; host_type = prusalink
; idle_temperature = nil
; infill_acceleration = 0
; infill_anchor = 600%
; infill_anchor_max = 50
; infill_every_layers = 1
; infill_extruder = 1
; infill_extrusion_width = 0.45
; infill_first = 0
; infill_overlap = 25%
; infill_speed = 80
; interface_shells = 0
; interlocking_beam = 0
; interlocking_beam_layer_count = 2
; interlocking_beam_width = 0.8
; interlocking_boundary_avoidance = 2
; interlocking_depth = 2
; interlocking_orientation = 22.5
; ironing = 0
; ironing_flowrate = 15%
; ironing_spacing = 0.1
; ironing_speed = 15
; ironing_type = top
; layer_gcode = 
; layer_height = 0.1
; machine_limits_usage = time_estimate_only
; machine_max_acceleration_e = 10000,5000
; machine_max_acceleration_extruding = 1500,1250
; machine_max_acceleration_retracting = 1500,1250
; machine_max_acceleration_travel = 1500,1250
; machine_max_acceleration_x = 9000,1000
; machine_max_acceleration_y = 9000,1000
; machine_max_acceleration_z = 500,200
; machine_max_feedrate_e = 120,120
; machine_max_feedrate_x = 500,200
; machine_max_feedrate_y = 500,200
; machine_max_feedrate_z = 12,12
; machine_max_jerk_e = 2.5,2.5
; machine_max_jerk_x = 10,10
; machine_max_jerk_y = 10,10
; machine_max_jerk_z = 0.2,0.4
; machine_max_junction_deviation = 0,0
; machine_min_extruding_rate = 0,0
; machine_min_travel_rate = 0,0
; max_fan_speed = 100
; max_layer_height = 0
; max_print_height = 200
; max_print_speed = 80
; max_volumetric_extrusion_rate_slope_negative = 0
; max_volumetric_extrusion_rate_slope_positive = 0
; max_volumetric_speed = 0
; min_bead_width = 85%
; min_fan_speed = 35
; min_feature_size = 25%
; min_layer_height = 0.07
; min_print_speed = 10
; min_skirt_length = 0
; mmu_segmented_region_interlocking_depth = 0
; mmu_segmented_region_max_width = 0
; multimaterial_purging = 140
; notes = 
; nozzle_diameter = 0.4
; nozzle_high_flow = 0
; only_one_perimeter_first_layer = 0
; only_retract_when_crossing_perimeters = 0
; ooze_prevention = 0
; output_filename_format = [input_filename_base].gcode
; over_bridge_speed = 0
; overhang_fan_speed_0 = 0
; overhang_fan_speed_1 = 0
; overhang_fan_speed_2 = 0
; overhang_fan_speed_3 = 0
; overhang_speed_0 = 15
; overhang_speed_1 = 15
; overhang_speed_2 = 20
; overhang_speed_3 = 25
; overhangs = 1
; parking_pos_retraction = 92
; pause_print_gcode = M601
; perimeter_acceleration = 0
; perimeter_extruder = 1
; perimeter_extrusion_width = 0.45
; perimeter_generator = arachne
; perimeter_speed = 60
; perimeters = 3
; physical_printer_settings_id = 
; post_process = 
; prefer_clockwise_movements = 0
; print_settings_id = My Settings
; printer_model = 
; printer_notes = 
; printer_settings_id = My Settings
; printer_technology = FFF
; printer_variant = 
; printer_vendor = 
; raft_contact_distance = 0.1
; raft_expansion = 1.5
; raft_first_layer_density = 90%
; raft_first_layer_expansion = 3
; raft_layers = 0
; remaining_times = 0
; resolution = 0
; retract_before_travel = 2
; retract_before_wipe = 0%
; retract_layer_change = 0
; retract_length = 0
; retract_length_toolchange = 10
; retract_lift = 0
; retract_lift_above = 0
; retract_lift_below = 0
; retract_restart_extra = 0
; retract_restart_extra_toolchange = 0
; retract_speed = 40
; scarf_seam_entire_loop = 0
; scarf_seam_length = 20
; scarf_seam_max_segment_length = 1
; scarf_seam_on_inner_perimeters = 0
; scarf_seam_only_on_smooth = 1
; scarf_seam_placement = nowhere
; scarf_seam_start_height = 0%
; seam_gap_distance = 15%
; seam_position = aligned
; silent_mode = 1
; single_extruder_multi_material = 0
; single_extruder_multi_material_priming = 1
; skirt_distance = 6
; skirt_height = 1
; skirts = 1
; slice_closing_radius = 0.049
; slicing_mode = regular
; slowdown_below_layer_time = 5
; small_perimeter_speed = 15
; solid_infill_acceleration = 0
; solid_infill_below_area = 70
; solid_infill_every_layers = 0
; solid_infill_extruder = 1
; solid_infill_extrusion_width = 0.45
; solid_infill_speed = 20
; spiral_vase = 0
; staggered_inner_seams = 0
; standby_temperature_delta = -5
; start_filament_gcode = "; Filament gcode\n"
; start_gcode = G28 ; home all axes\nG1 Z5 F5000 ; lift nozzle\n
; support_material = 1
; support_material_angle = 0
; support_material_auto = 1
; support_material_bottom_contact_distance = 0
; support_material_bottom_interface_layers = -1
; support_material_buildplate_only = 0
; support_material_closing_radius = 2
; support_material_contact_distance = 0.2
; support_material_enforce_layers = 0
; support_material_extruder = 1
; support_material_extrusion_width = 0.35
; support_material_interface_contact_loops = 0
; support_material_interface_extruder = 1
; support_material_interface_layers = 3
; support_material_interface_pattern = rectilinear
; support_material_interface_spacing = 0
; support_material_interface_speed = 100%
; support_material_pattern = rectilinear
; support_material_spacing = 2.5
; support_material_speed = 60
; support_material_style = grid
; support_material_synchronize_layers = 0
; support_material_threshold = 0
; support_material_with_sheath = 1
; support_material_xy_spacing = 50%
; support_tree_angle = 40
; support_tree_angle_slow = 25
; support_tree_branch_diameter = 2
; support_tree_branch_diameter_angle = 5
; support_tree_branch_diameter_double_wall = 3
; support_tree_branch_distance = 1
; support_tree_tip_diameter = 0.8
; support_tree_top_rate = 15%
; temperature = 200
; template_custom_gcode = 
; thick_bridges = 1
; thin_walls = 1
; thumbnails = 
; thumbnails_format = PNG
; toolchange_gcode = 
; top_fill_pattern = monotonic
; top_infill_extrusion_width = 0.4
; top_one_perimeter_type = none
; top_solid_infill_acceleration = 0
; top_solid_infill_speed = 15
; top_solid_layers = 3
; top_solid_min_thickness = 0
; travel_acceleration = 0
; travel_lift_before_obstacle = 0
; travel_max_lift = 0
; travel_ramping_lift = 0
; travel_short_distance_acceleration = 0
; travel_slope = 0
; travel_speed = 130
; travel_speed_z = 0
; use_firmware_retraction = 0
; use_relative_e_distances = 0
; use_volumetric_e = 0
; variable_layer_height = 1
; wall_distribution_count = 1
; wall_transition_angle = 10
; wall_transition_filter_deviation = 25%
; wall_transition_length = 100%
; wipe = 0
; wipe_into_infill = 0
; wipe_into_objects = 0
; wipe_tower = 0
; wipe_tower_acceleration = 0
; wipe_tower_bridging = 10
; wipe_tower_brim_width = 2
; wipe_tower_cone_angle = 0
; wipe_tower_extra_flow = 100%
; wipe_tower_extra_spacing = 100%
; wipe_tower_extruder = 0
; wipe_tower_no_sparse_layers = 0
; wipe_tower_width = 60
; wiping_volumes_matrix = 0
; wiping_volumes_use_custom_matrix = 0
; xy_size_compensation = 0
; z_offset = 0
; prusaslicer_config = end
