G21
G90;svg > path
G0 X21.244184556250005 Y6.519499227083334
G1 X26.67330120625 Y6.519499227083334 F300;svg > path
G0 X26.67330120625 Y6.519499227083334
G1 X26.67330120625 Y15.594919227083334 F300;svg > path
G0 X13.164050856249998 Y12.521201727083334
G1 X16.02278910625 Y12.521201727083334 F300;svg > path
G0 X16.02278910625 Y12.521201727083334
G1 X11.88661500625 Y8.520415977083335 F300;svg > path
G0 X11.88661500625 Y8.520415977083335
G1 X8.480094006249999 Y8.520415977083335 F300;svg > path
G0 X8.480094006249999 Y8.520415977083335
G1 X6.670401156249999 Y10.330127877083333 F300;svg > path
G0 X6.670401156249999 Y10.330127877083333
G1 X4.57543455625 Y10.330127877083333 F300;svg > path
G0 X4.57543455625 Y10.330127877083333
G1 X4.003896456250001 Y9.758570727083335 F300;svg > path
G0 X4.003896456250001 Y9.758570727083335
G1 X4.003896456250001 Y3.9749526270833337 F300;svg > path
G0 X4.003896456250001 Y3.9749526270833337
G1 X15.97318290625 Y3.9749526270833337 F300;svg > path
G0 X15.97318290625 Y3.9749526270833337
G1 X16.76693925625 Y4.900992177083334 F300;svg > path
G0 X16.76693925625 Y4.900992177083334
G1 X16.76693925625 Y5.730924477083334 F300;svg > path
G0 X16.76693925625 Y5.730924477083334
G1 X16.67184165625 Y6.044068377083333 F300;svg > path
G0 X5.0611897125 Y16.2450033875
G1 X6.184635416666667 Y16.2450033875 F300
G1 X6.184635416666667 Y17.368448827083334 F300
G1 X5.0611897125 Y17.368448827083334 F300
G1 X5.0611897125 Y16.2450033875 F300
G0 X5.0611897125 Y16.2450033875;svg > path
G0 X5.0611897125 Y12.435416666666665
G1 X6.184635416666667 Y12.435416666666665 F300
G1 X6.184635416666667 Y13.558862370833332 F300
G1 X5.0611897125 Y13.558862370833332 F300
G1 X5.0611897125 Y12.435416666666665 F300
G0 X5.0611897125 Y12.435416666666665;svg > path
G0 X9.3017578125 Y9.701733464583333
G1 X10.517187499999999 Y9.701733464583333 F300
G1 X10.517187499999999 Y11.0401528625 F300
G1 X9.3017578125 Y11.0401528625 F300
G1 X9.3017578125 Y9.701733464583333 F300
G0 X9.3017578125 Y9.701733464583333;svg > path
G0 X9.3017578125 Y11.715047266666668
G1 X10.517187499999999 Y11.715047266666668 F300
G1 X10.517187499999999 Y13.053466929166666 F300
G1 X9.3017578125 Y13.053466929166666 F300
G1 X9.3017578125 Y11.715047266666668 F300
G0 X9.3017578125 Y11.715047266666668;svg > path
G0 X12.808520441666667 Y14.551049870833332
G1 X12.753756233950629 Y14.54547428058553 F300
G1 X12.709067087150691 Y14.530837596818305 F300
G1 X12.67255411985741 Y14.509331553549641 F300
G1 X12.642832917838541 Y14.482094121158852 F300
G1 X12.618534433462909 Y14.44846034463493 F300
G1 X12.601432158368489 Y14.411473786770033 F300
G1 X12.591116874133764 Y14.371909466471779 F300
G1 X12.587603743229167 Y14.330391471875 F300
G1 X12.591116874133764 Y14.28887347727822 F300
G1 X12.60143215836849 Y14.249309156979965 F300
G1 X12.618534433462912 Y14.212322599115065 F300
G1 X12.642832917838541 Y14.178688822591146 F300
G1 X12.67255411985741 Y14.15145139020036 F300
G1 X12.70906708715069 Y14.129945346931695 F300
G1 X12.75375623395063 Y14.115308663164468 F300
G1 X12.808520441666667 Y14.109733072916667 F300
G1 X13.900960154166667 Y14.109733072916667 F300
G1 X13.955515071331662 Y14.115304968471593 F300
G1 X14.000042612436863 Y14.129935285110975 F300
G1 X14.03643432257512 Y14.151440026959227 F300
G1 X14.066066504166665 Y14.178688822591146 F300
G1 X14.090273205113359 Y14.212311277939097 F300
G1 X14.107316901246953 Y14.249294672379914 F300
G1 X14.11759948699468 Y14.28886374523394 F300
G1 X14.121101954166665 Y14.330391471875 F300
G1 X14.117599486994681 Y14.371919198516053 F300
G1 X14.107316901246955 Y14.41148827137008 F300
G1 X14.090273205113363 Y14.4484716658109 F300
G1 X14.066066504166665 Y14.482094121158852 F300
G1 X14.036434322575118 Y14.50934291679077 F300
G1 X14.000042612436864 Y14.530847658639024 F300
G1 X13.955515071331662 Y14.545477975278404 F300
G1 X13.900960154166667 Y14.551049870833332 F300
G1 X12.808520441666667 Y14.551049870833332 F300;svg > path
G0 X12.808520441666667 Y13.598136327083335
G1 X12.753744745467841 Y13.592571342335669 F300
G1 X12.709052357070359 Y13.577964713204839 F300
G1 X12.672543942998978 Y13.556508180126217 F300
G1 X12.642832917838541 Y13.529342097265626 F300
G1 X12.618530028239515 Y13.495779536271538 F300
G1 X12.60142870074713 Y13.458877499073028 F300
G1 X12.591115758726993 Y13.419409029850756 F300
G1 X12.587603743229167 Y13.37799479166667 F300
G1 X12.591115758726993 Y13.336580553482575 F300
G1 X12.60142870074713 Y13.297112084260306 F300
G1 X12.618530028239515 Y13.260210047061793 F300
G1 X12.642832917838541 Y13.226647486067709 F300
G1 X12.672543942998978 Y13.199481403207118 F300
G1 X12.709052357070359 Y13.1780248701285 F300
G1 X12.753744745467843 Y13.163418240997665 F300
G1 X12.808520441666667 Y13.15785325625 F300
G1 X13.900960154166667 Y13.15785325625 F300
G1 X13.955526554300848 Y13.163414561514456 F300
G1 X14.000057335071359 Y13.178014849914923 F300
G1 X14.036444492632404 Y13.199470086563178 F300
G1 X14.066066504166665 Y13.22664748606771 F300
G1 X14.09027757521119 Y13.260198717427302 F300
G1 X14.107320331093044 Y13.297097587574278 F300
G1 X14.117600593437494 Y13.336570813080023 F300
G1 X14.121101954166665 Y13.377994791666667 F300
G1 X14.117600593437494 Y13.419418770253312 F300
G1 X14.107320331093042 Y13.458891995759059 F300
G1 X14.090277575211186 Y13.495790865906034 F300
G1 X14.066066504166665 Y13.529342097265626 F300
G1 X14.036444492632402 Y13.55651949677016 F300
G1 X14.000057335071363 Y13.577974733418406 F300
G1 X13.955526554300846 Y13.592575021818877 F300
G1 X13.900960154166667 Y13.598136327083335 F300
G1 X12.808520441666667 Y13.598136327083335 F300;svg > path
G0 X12.808520441666667 Y12.646256510416665
G1 X12.753756233950627 Y12.640680920168863 F300
G1 X12.709067087150691 Y12.626044236401638 F300
G1 X12.672554119857411 Y12.604538193132974 F300
G1 X12.642832917838541 Y12.577300760742187 F300
G1 X12.618534433462909 Y12.543666984218264 F300
G1 X12.601432158368489 Y12.506680426353366 F300
G1 X12.591116874133764 Y12.467116106055114 F300
G1 X12.587603743229167 Y12.425598111458331 F300
G1 X12.591116874133762 Y12.38408011686155 F300
G1 X12.601432158368489 Y12.344515796563297 F300
G1 X12.618534433462912 Y12.3075292386984 F300
G1 X12.642832917838541 Y12.273895462174478 F300
G1 X12.67255411985741 Y12.246658029783692 F300
G1 X12.70906708715069 Y12.225151986515028 F300
G1 X12.753756233950629 Y12.210515302747801 F300
G1 X12.808520441666667 Y12.2049397125 F300
G1 X13.900960154166667 Y12.2049397125 F300
G1 X13.955515071331662 Y12.21051160805493 F300
G1 X14.000042612436863 Y12.225141924694308 F300
G1 X14.036434322575118 Y12.24664666654256 F300
G1 X14.066066504166665 Y12.27389546217448 F300
G1 X14.09027320511336 Y12.30751791752243 F300
G1 X14.107316901246955 Y12.344501311963251 F300
G1 X14.11759948699468 Y12.384070384817276 F300
G1 X14.121101954166665 Y12.425598111458331 F300
G1 X14.117599486994681 Y12.467125838099388 F300
G1 X14.107316901246955 Y12.506694910953414 F300
G1 X14.090273205113363 Y12.54367830539423 F300
G1 X14.066066504166665 Y12.577300760742187 F300
G1 X14.036434322575122 Y12.604549556374105 F300
G1 X14.000042612436864 Y12.626054298222357 F300
G1 X13.955515071331662 Y12.640684614861737 F300
G1 X13.900960154166667 Y12.646256510416665 F300
G1 X12.808520441666667 Y12.646256510416665 F300;svg > path
G0 X12.808520441666667 Y11.693342966666668
G1 X12.75375623101061 Y11.687767379132056 F300
G1 X12.709067083381147 Y11.673130703055087 F300
G1 X12.672554117253211 Y11.651624672458173 F300
G1 X12.642832917838541 Y11.624387258333334 F300
G1 X12.6185344323384 Y11.590753500037811 F300
G1 X12.601432157485888 Y11.553766963806362 F300
G1 X12.591116873849042 Y11.514202668040953 F300
G1 X12.587603743229167 Y11.472684699999999 F300
G1 X12.59111687384904 Y11.431166731959049 F300
G1 X12.601432157485887 Y11.39160243619364 F300
G1 X12.618534432338397 Y11.35461589996219 F300
G1 X12.642832917838541 Y11.320982141666665 F300
G1 X12.672554117253213 Y11.293744727541828 F300
G1 X12.709067083381147 Y11.272238696944914 F300
G1 X12.75375623101061 Y11.257602020867946 F300
G1 X12.808520441666667 Y11.252026433333333 F300
G1 X13.900960154166667 Y11.252026433333333 F300
G1 X13.955515074270266 Y11.257598326178966 F300
G1 X14.0000426162045 Y11.272228635134852 F300
G1 X14.036434325177574 Y11.293733364312631 F300
G1 X14.066066504166665 Y11.320982141666667 F300
G1 X14.090273206228908 Y11.354604578784057 F300
G1 X14.107316902122465 Y11.391587951590498 F300
G1 X14.117599487277113 Y11.431156999912634 F300
G1 X14.121101954166665 Y11.4726847 F300
G1 X14.117599487277111 Y11.514212400087363 F300
G1 X14.107316902122466 Y11.553781448409499 F300
G1 X14.090273206228908 Y11.590764821215943 F300
G1 X14.066066504166665 Y11.624387258333334 F300
G1 X14.036434325177574 Y11.651636035687371 F300
G1 X14.000042616204496 Y11.67314076486515 F300
G1 X13.955515074270266 Y11.687771073821034 F300
G1 X13.900960154166667 Y11.693342966666668 F300
G1 X12.808520441666667 Y11.693342966666668 F300;svg > path
G0 X16.96640625 Y14.551049870833332
G1 X16.911851386429465 Y14.545477976227474 F300
G1 X16.867323886708196 Y14.530847661223683 F300
G1 X16.830932207621828 Y14.509342919709662 F300
G1 X16.801300048828125 Y14.482094121158852 F300
G1 X16.777093371378772 Y14.448471668708418 F300
G1 X16.760049690247605 Y14.411488275077001 F300
G1 X16.749767112876977 Y14.371919201006651 F300
G1 X16.7462646484375 Y14.330391471875 F300
G1 X16.749767112876974 Y14.288863742743349 F300
G1 X16.760049690247605 Y14.249294668672997 F300
G1 X16.777093371378776 Y14.212311275041579 F300
G1 X16.801300048828125 Y14.178688822591146 F300
G1 X16.83093220762183 Y14.151440024040337 F300
G1 X16.867323886708196 Y14.129935282526313 F300
G1 X16.911851386429465 Y14.115304967522523 F300
G1 X16.96640625 Y14.109733072916667 F300
G1 X18.059879425000002 Y14.109733072916667 F300
G1 X18.114434342164994 Y14.115304968471593 F300
G1 X18.158961883270198 Y14.129935285110971 F300
G1 X18.19535359340846 Y14.151440026959227 F300
G1 X18.224985775 Y14.178688822591146 F300
G1 X18.2491924759467 Y14.212311277939099 F300
G1 X18.26623617208029 Y14.24929467237992 F300
G1 X18.27651875782801 Y14.288863745233941 F300
G1 X18.280021225 Y14.330391471875 F300
G1 X18.276518757828015 Y14.371919198516053 F300
G1 X18.26623617208029 Y14.41148827137008 F300
G1 X18.249192475946696 Y14.4484716658109 F300
G1 X18.224985775 Y14.482094121158852 F300
G1 X18.195353593408456 Y14.509342916790771 F300
G1 X18.158961883270198 Y14.530847658639022 F300
G1 X18.114434342165 Y14.545477975278404 F300
G1 X18.059879425000002 Y14.551049870833332 F300
G1 X16.96640625 Y14.551049870833332 F300;svg > path
G0 X16.96640625 Y13.598136327083335
G1 X16.9118399034617 Y13.592575022764043 F300
G1 X16.867309164075614 Y13.577974735992385 F300
G1 X16.830922037566307 Y13.556519499677089 F300
G1 X16.801300048828125 Y13.529342097265626 F300
G1 X16.77708900128993 Y13.495790868805727 F300
G1 X16.76004626040862 Y13.458891999469078 F300
G1 X16.749766006436452 Y13.419418772746049 F300
G1 X16.7462646484375 Y13.37799479166667 F300
G1 X16.749766006436456 Y13.336570810587286 F300
G1 X16.76004626040862 Y13.297097583864259 F300
G1 X16.77708900128993 Y13.260198714527608 F300
G1 X16.801300048828125 Y13.226647486067709 F300
G1 X16.830922037566303 Y13.199470083656248 F300
G1 X16.867309164075614 Y13.17801484734095 F300
G1 X16.911839903461704 Y13.163414560569288 F300
G1 X16.96640625 Y13.15785325625 F300
G1 X18.059879425000002 Y13.15785325625 F300
G1 X18.11444582513418 Y13.163414561514456 F300
G1 X18.15897660590469 Y13.178014849914925 F300
G1 X18.195363763465732 Y13.199470086563176 F300
G1 X18.224985775 Y13.22664748606771 F300
G1 X18.24919684604452 Y13.2601987174273 F300
G1 X18.26623960192638 Y13.297097587574276 F300
G1 X18.276519864270828 Y13.336570813080023 F300
G1 X18.280021225 Y13.377994791666667 F300
G1 X18.27651986427083 Y13.419418770253312 F300
G1 X18.266239601926376 Y13.458891995759059 F300
G1 X18.249196846044523 Y13.495790865906034 F300
G1 X18.224985775 Y13.529342097265626 F300
G1 X18.195363763465735 Y13.556519496770159 F300
G1 X18.158976605904698 Y13.577974733418408 F300
G1 X18.114445825134183 Y13.592575021818877 F300
G1 X18.059879425000002 Y13.598136327083335 F300
G1 X16.96640625 Y13.598136327083335 F300;svg > path
G0 X16.96640625 Y12.646256510416665
G1 X16.911851386429465 Y12.640684615810805 F300
G1 X16.8673238867082 Y12.626054300807018 F300
G1 X16.830932207621828 Y12.604549559292993 F300
G1 X16.801300048828125 Y12.577300760742187 F300
G1 X16.777093371378772 Y12.543678308291751 F300
G1 X16.760049690247605 Y12.506694914660336 F300
G1 X16.749767112876977 Y12.467125840589981 F300
G1 X16.7462646484375 Y12.425598111458331 F300
G1 X16.749767112876977 Y12.384070382326682 F300
G1 X16.760049690247605 Y12.34450130825633 F300
G1 X16.777093371378776 Y12.307517914624913 F300
G1 X16.801300048828125 Y12.273895462174478 F300
G1 X16.83093220762183 Y12.246646663623668 F300
G1 X16.867323886708196 Y12.225141922109648 F300
G1 X16.91185138642947 Y12.210511607105857 F300
G1 X16.96640625 Y12.2049397125 F300
G1 X18.059879425000002 Y12.2049397125 F300
G1 X18.114434342165 Y12.210511608054931 F300
G1 X18.158961883270194 Y12.225141924694306 F300
G1 X18.19535359340846 Y12.24664666654256 F300
G1 X18.224985775 Y12.27389546217448 F300
G1 X18.2491924759467 Y12.30751791752243 F300
G1 X18.266236172080294 Y12.344501311963253 F300
G1 X18.27651875782801 Y12.384070384817276 F300
G1 X18.280021225 Y12.425598111458331 F300
G1 X18.276518757828015 Y12.467125838099387 F300
G1 X18.26623617208029 Y12.506694910953414 F300
G1 X18.2491924759467 Y12.543678305394232 F300
G1 X18.224985775 Y12.577300760742187 F300
G1 X18.195353593408456 Y12.604549556374103 F300
G1 X18.1589618832702 Y12.626054298222357 F300
G1 X18.114434342164998 Y12.640684614861737 F300
G1 X18.059879425000002 Y12.646256510416665 F300
G1 X16.96640625 Y12.646256510416665 F300;svg > path
G0 X16.96640625 Y11.693342966666668
G1 X16.911851383490863 Y11.687771074770103 F300
G1 X16.86732388294056 Y11.673140767449809 F300
G1 X16.830932205019373 Y11.651636038606256 F300
G1 X16.801300048828125 Y11.624387258333334 F300
G1 X16.77709337026323 Y11.590764824113464 F300
G1 X16.760049689372096 Y11.55378145211642 F300
G1 X16.749767112594544 Y11.514212402577959 F300
G1 X16.7462646484375 Y11.472684699999999 F300
G1 X16.749767112594544 Y11.43115699742204 F300
G1 X16.760049689372092 Y11.391587947883579 F300
G1 X16.77709337026323 Y11.354604575886537 F300
G1 X16.801300048828125 Y11.320982141666665 F300
G1 X16.83093220501938 Y11.293733361393741 F300
G1 X16.867323882940564 Y11.27222863255019 F300
G1 X16.911851383490863 Y11.257598325229893 F300
G1 X16.96640625 Y11.252026433333333 F300
G1 X18.059879425000002 Y11.252026433333333 F300
G1 X18.1144343451036 Y11.257598326178963 F300
G1 X18.15896188703783 Y11.27222863513485 F300
G1 X18.195353596010914 Y11.293733364312631 F300
G1 X18.224985775 Y11.320982141666667 F300
G1 X18.249192477062245 Y11.354604578784055 F300
G1 X18.266236172955804 Y11.391587951590502 F300
G1 X18.27651875811045 Y11.431156999912632 F300
G1 X18.280021225 Y11.4726847 F300
G1 X18.27651875811045 Y11.514212400087365 F300
G1 X18.2662361729558 Y11.553781448409499 F300
G1 X18.249192477062245 Y11.590764821215943 F300
G1 X18.224985775 Y11.624387258333334 F300
G1 X18.19535359601091 Y11.651636035687371 F300
G1 X18.158961887037833 Y11.67314076486515 F300
G1 X18.1144343451036 Y11.687771073821033 F300
G1 X18.059879425000002 Y11.693342966666668 F300
G1 X16.96640625 Y11.693342966666668 F300;svg > path
G0 X16.4455078125 Y7.333919270833333
G1 X17.6609375 Y7.333919270833333 F300
G1 X17.6609375 Y8.672338933333332 F300
G1 X16.4455078125 Y8.672338933333332 F300
G1 X16.4455078125 Y7.333919270833333 F300
G0 X16.4455078125 Y7.333919270833333;svg > path
G0 X16.4455078125 Y5.31957200625
G1 X17.6609375 Y5.31957200625 F300
G1 X17.6609375 Y6.657991404166667 F300
G1 X16.4455078125 Y6.657991404166667 F300
G1 X16.4455078125 Y5.31957200625 F300
G0 X16.4455078125 Y5.31957200625;svg > path
G0 X24.82019049583333 Y10.770401952083333
G1 X26.15861015833333 Y10.770401952083333 F300
G1 X26.15861015833333 Y11.985831639583333 F300
G1 X24.82019049583333 Y11.985831639583333 F300
G1 X24.82019049583333 Y10.770401952083333 F300
G0 X24.82019049583333 Y10.770401952083333;svg > path
G0 X22.805842966666667 Y10.770401952083333
G1 X24.144262629166665 Y10.770401952083333 F300
G1 X24.144262629166665 Y11.985831639583333 F300
G1 X22.805842966666667 Y11.985831639583333 F300
G1 X22.805842966666667 Y10.770401952083333 F300
G0 X22.805842966666667 Y10.770401952083333;svg > path
G0 X27.920776433333334 Y10.720792577083332
G1 X29.0442221375 Y10.720792577083332 F300
G1 X29.0442221375 Y11.844238281249998 F300
G1 X27.920776433333334 Y11.844238281249998 F300
G1 X27.920776433333334 Y10.720792577083332 F300
G0 X27.920776433333334 Y10.720792577083332;svg > path
G0 X19.910929295833334 Y15.188736979166668
G1 X24.786084116666665 Y15.188736979166668 F300
G1 X24.786084116666665 Y19.688720570833333 F300
G1 X19.910929295833334 Y19.688720570833333 F300
G1 X19.910929295833334 Y15.188736979166668 F300
G0 X19.910929295833334 Y15.188736979166668;svg > path
G0 X26.23715807083333 Y15.124658070833334
G1 X28.487150131249997 Y15.124658070833334 F300
G1 X28.487150131249997 Y16.32458502708333 F300
G1 X26.23715807083333 Y16.32458502708333 F300
G1 X26.23715807083333 Y15.124658070833334 F300
G0 X26.23715807083333 Y15.124658070833334;svg > path
G0 X26.23715807083333 Y18.551839325
G1 X28.487150131249997 Y18.551839325 F300
G1 X28.487150131249997 Y19.751766016666664 F300
G1 X26.23715807083333 Y19.751766016666664 F300
G1 X26.23715807083333 Y18.551839325 F300
G0 X26.23715807083333 Y18.551839325;svg > path
G0 X18.707901952083336 Y1.00458984375
G1 X23.20788580833333 Y1.00458984375 F300
G1 X23.20788580833333 Y5.879744399999999 F300
G1 X18.707901952083336 Y5.879744399999999 F300
G1 X18.707901952083336 Y1.00458984375 F300
G0 X18.707901952083336 Y1.00458984375;svg > path
G0 X22.072037760416666 Y7.33081861875
G1 X23.271964452083335 Y7.33081861875 F300
G1 X23.271964452083335 Y9.580810679166666 F300
G1 X22.072037760416666 Y9.580810679166666 F300
G1 X22.072037760416666 Y7.33081861875 F300
G0 X22.072037760416666 Y7.33081861875;svg > path
G0 X18.644856770833332 Y7.33081861875
G1 X19.844783462499997 Y7.33081861875 F300
G1 X19.844783462499997 Y9.580810679166666 F300
G1 X18.644856770833332 Y9.580810679166666 F300
G1 X18.644856770833332 Y7.33081861875 F300
G0 X18.644856770833332 Y7.33081861875;svg > path
G0 X5.0611897125 Y4.815210027083333
G1 X6.184635416666667 Y4.815210027083333 F300
G1 X6.184635416666667 Y5.938655466666666 F300
G1 X5.0611897125 Y5.938655466666666 F300
G1 X5.0611897125 Y4.815210027083333 F300
G0 X5.0611897125 Y4.815210027083333;svg > path
G0 X5.0611897125 Y8.624796483333332
G1 X6.184635416666667 Y8.624796483333332 F300
G1 X6.184635416666667 Y9.748242187499999 F300
G1 X5.0611897125 Y9.748242187499999 F300
G1 X5.0611897125 Y8.624796483333332 F300
G0 X5.0611897125 Y8.624796483333332;svg > path
G0 X9.909472656249998 Y10.370418627083334
G1 X12.252489306249998 Y10.370418627083334 F300;svg > path
G0 X12.252489306249998 Y10.370418627083334
G1 X13.354227006249998 Y11.473204077083334 F300;svg > path
G0 X17.513146806250003 Y11.473204077083334
G1 X11.41739445625 Y5.377451727083333 F300;svg > path
G0 X11.41739445625 Y5.377451727083333
G1 X5.62343220625 Y5.377451727083333 F300;svg > path
G0 X9.909472656249998 Y12.384765627083333
G1 X10.902701556249998 Y13.377994527083334 F300;svg > path
G0 X10.902701556249998 Y13.377994527083334
G1 X13.354227006249998 Y13.377994527083334 F300;svg > path
G0 X17.513146806250003 Y14.330913627083333
G1 X20.522780106249996 Y14.330913627083333 F300;svg > path
G0 X20.522780106249996 Y14.330913627083333
G1 X23.475568206250003 Y11.378125527083332 F300;svg > path
G0 X25.488886506249997 Y11.378125527083332
G1 X25.488886506249997 Y9.812329827083332 F300;svg > path
G0 X25.488886506249997 Y9.812329827083332
G1 X24.13185975625 Y8.455303077083334 F300;svg > path
G0 X24.13185975625 Y8.455303077083334
G1 X22.671486756250005 Y8.455303077083334 F300;svg > path
G0 X17.513146806250003 Y13.377994527083334
G1 X19.244296506250002 Y13.377994527083334 F300;svg > path
G0 X17.05322265625 Y8.002617927083334
G1 X18.536341356250002 Y6.519499227083334 F300;svg > path
G0 X18.536341356250002 Y6.519499227083334
G1 X21.43434165625 Y6.519499227083334 F300;svg > path
G0 X17.513146806250003 Y12.425075427083334
G1 X16.76693925625 Y12.425075427083334 F300;svg > path
G0 X9.909472656249998 Y10.370418627083334
G1 X9.283146756250002 Y10.996744527083333 F300;svg > path
G0 X3.1460559062499995 Y10.996744527083333
G1 X2.19418455625 Y10.043825427083334 F300;svg > path
G0 X5.62343220625 Y12.996613527083333
G1 X5.62343220625 Y13.377994527083334 F300;svg > path
G0 X16.76693925625 Y12.425075427083334
G1 X11.81426310625 Y7.472418327083334 F300;svg > path
G0 X11.81426310625 Y7.472418327083334
G1 X7.3370178062499996 Y7.472418327083334 F300;svg > path
G0 X7.3370178062499996 Y7.472418327083334
G1 X5.62343220625 Y9.187032627083335 F300;svg > path
G0 X2.19418455625 Y10.043825427083334
G1 X2.19418455625 Y3.576007527083334 F300;svg > path
G0 X2.19418455625 Y3.576007527083334
G1 X3.250449906249999 Y2.519742177083334 F300;svg > path
G0 X3.250449906249999 Y2.519742177083334
G1 X20.03599545625 Y2.519742177083334 F300;svg > path
G0 X20.03599545625 Y2.519742177083334
G1 X20.957901156250003 Y3.4416478770833336 F300;svg > path
G0 X30.102548856250003 Y10.235030277083332
G1 X30.102548856250003 Y3.376534977083334 F300;svg > path
G0 X30.102548856250003 Y3.376534977083334
G1 X29.33980590625 Y2.614820727083334 F300;svg > path
G0 X29.33980590625 Y2.614820727083334
G1 X22.356266406249997 Y2.614820727083334 F300;svg > path
G0 X22.356266406249997 Y2.614820727083334
G1 X21.52943925625 Y3.4416478770833336 F300;svg > path
G0 X21.52943925625 Y3.4416478770833336
G1 X20.957901156250003 Y3.4416478770833336 F300;svg > path
G0 X28.95431010625 Y11.281999227083336
G1 X29.05455120625 Y11.281999227083336 F300;svg > path
G0 X29.05455120625 Y11.281999227083336
G1 X30.102548856250003 Y10.235030277083332 F300;svg > path
G0 X28.483013106250002 Y11.281999227083336
G1 X30.57797970625 Y13.377994527083334 F300;svg > path
G0 X29.756315106250003 Y19.153344927083335
G1 X27.361634856249996 Y19.15231622708333 F300;svg > path
G0 X30.57797970625 Y13.377994527083334
G1 X30.57797970625 Y18.33067067708333 F300;svg > path
G0 X30.57797970625 Y18.33067067708333
G1 X29.756315106250003 Y19.153344927083335 F300;svg > path
G0 X9.283146756250002 Y10.996744527083333
G1 X3.1460559062499995 Y10.996744527083333 F300;svg > path
G0 X16.57676310625 Y13.377994527083334
G1 X17.513146806250003 Y13.377994527083334 F300;svg > path
G0 X13.14751545625 Y16.807242177083335
G1 X16.57676310625 Y13.377994527083334 F300;svg > path
G0 X5.62343220625 Y16.807242177083335
G1 X13.14751545625 Y16.807242177083335 F300;svg > path
G0 X5.5273059062500005 Y12.901534977083331
G1 X2.2892631062500004 Y12.901534977083331 F300;svg > path
G0 X2.2892631062500004 Y12.901534977083331
G1 X1.8489795062499998 Y13.341818577083334 F300;svg > path
G0 X1.8489795062499998 Y13.341818577083334
G1 X1.8489795062499998 Y18.843287127083336 F300;svg > path
G0 X1.8489795062499998 Y18.843287127083336
G1 X3.7175940062499997 Y20.711920677083327 F300;svg > path
G0 X3.7175940062499997 Y20.711920677083327
G1 X17.455272906250002 Y20.711920677083327 F300;svg > path
G0 X17.455272906250002 Y20.711920677083327
G1 X20.72844390625 Y17.438730627083334 F300;svg > path
G0 X5.62343220625 Y12.996613527083333
G1 X5.5273059062500005 Y12.901534977083331 F300;svg > path
G0 X20.72844390625 Y17.438730627083334
G1 X22.34799870625 Y17.438730627083334 F300;svg > path
G0 X20.713984956250002 Y9.924972477083333
G1 X19.244296506250002 Y8.455303077083334 F300;svg > path
G0 X20.713984956250002 Y11.908325127083332
G1 X20.713984956250002 Y9.924972477083333 F300;svg > path
G0 X20.713984956250002 Y11.908325127083332
G1 X19.244296506250002 Y13.377994527083334 F300;svg > path
G0 X5.62343220625 Y13.377994527083334
G1 X6.707605806249999 Y14.462168127083332 F300;svg > path
G0 X6.707605806249999 Y14.462168127083332
G1 X13.354227006249998 Y14.462168127083332 F300
