G0 X3.579004999999999 Y15.990405000000003
G1 X5.357005 Y17.768405 F300
G1 X13.887595 Y17.768405 F300
G0 X22.878995 Y24.912414999999996
G1 X25.878995 Y21.912415 F300
G0 X9.294004999999999 Y12.489014999999998
G1 X12.418205 Y12.489014999999998 F300
G1 X13.887595 Y13.958405 F300
G0 X23.786984999999998 Y3.4890150000000015
G1 X24.026004999999998 Y3.2499950000000015 F300;svg#igLB2oBJnkxhsiA1d-RR > g > path
G0 X34.059005 Y13.704405
G1 X35.564024999999994 Y15.209425 F300
G1 X35.564024999999994 Y21.199385 F300
G1 X32.564024999999994 Y24.197395 F300;svg#igLB2oBJnkxhsiA1d-RR > g > path
G0 X18.819004999999997 Y9.331795
G1 X20.089004999999997 Y8.061795000000002 F300
G0 X28.471005 Y12.740415
G1 X28.725004999999996 Y12.994415 F300
G1 X28.725004999999996 Y15.788414999999997 F300
G1 X32.564024999999994 Y19.627435 F300
G0 X19.432415 Y13.958405
G1 X11.304414999999999 Y5.830405000000002 F300
G1 X3.579004999999999 Y5.830405000000002 F300
G0 X19.432415 Y15.228405000000002
G1 X17.146414999999994 Y15.228405000000002 F300
G0 X9.294004999999999 Y15.174045
G1 X10.618364999999999 Y16.498405 F300
G1 X13.887595 Y16.498405 F300
G0 X19.432415 Y17.768405
G1 X23.445365 Y17.768405 F300
G1 X27.382365 Y13.831405 F300;svg#igLB2oBJnkxhsiA1d-RR > g > path
G0 X0.294005 Y3.4890150000000015
G1 X23.786984999999998 Y3.4890150000000015 F300
G0 X9.294004999999999 Y12.489014999999998
G1 X0.966615 Y12.489014999999998 F300
G1 X0.294005 Y11.816405000000001 F300
G1 X0.294005 Y3.4890150000000015 F300
G0 X3.579004999999999 Y15.990405000000003
G1 X1.1660050000000002 Y15.990405000000003 F300
G1 X0.5790050000000001 Y16.577404999999995 F300
G0 X3.579004999999999 Y21.070404999999997
G1 X13.612004999999998 Y21.070404999999997 F300
G1 X18.184005 Y16.498405 F300
G1 X19.432415 Y16.498405 F300
G0 X23.899005 Y14.340425
G1 X23.899005 Y12.093005 F300
G1 X21.741025 Y9.935015000000002 F300
G0 X0.5790050000000001 Y16.577404999999995
G1 X0.5790050000000001 Y23.912405 F300
G1 X1.579015 Y24.912414999999996 F300
G1 X22.878995 Y24.912414999999996 F300
G0 X21.741025 Y16.498405
G1 X23.899005 Y14.340425 F300
G0 X19.432415 Y16.498405
G1 X21.741025 Y16.498405 F300;svg#igLB2oBJnkxhsiA1d-RR > g > path
G0 X23.786984999999998 Y3.4890150000000015
G1 X33.241615 Y3.4890150000000015 F300
G1 X34.059005 Y4.306405000000001 F300
G1 X34.059005 Y13.704405 F300;svg#igLB2oBJnkxhsiA1d-RR > g > path
G0 X30.067394999999998 Y13.831405
G1 X30.067394999999998 Y11.744795 F300
G1 X28.257614999999998 Y9.935015000000002 F300
G1 X26.31098499999999 Y9.935015000000002 F300
G0 X20.089004999999997 Y8.061795000000002
G1 X22.562355 Y8.061795000000002 F300
G1 X24.661004999999996 Y10.160445000000003 F300
G0 X17.146414999999994 Y15.228405000000002
G1 X12.574414999999998 Y10.656405000000001 F300
G1 X3.8330049999999996 Y10.656405000000001 F300
G1 X3.579004999999999 Y10.910404999999999 F300
G0 X17.295005 Y8.170765000000001
G1 X18.819004999999997 Y6.646765 F300
G0 X17.295005 Y10.148405
G1 X17.295005 Y8.170765000000001 F300
G0 X21.105004999999995 Y15.282765
G1 X21.105004999999995 Y13.958405 F300
G1 X17.295005 Y10.148405 F300
G0 X13.887595 Y15.228405000000002
G1 X14.460604999999997 Y15.801414999999999 F300
G1 X20.586354999999998 Y15.801414999999999 F300
G1 X21.105004999999995 Y15.282765 F300
G0 X24.661004999999996 Y10.160445000000003
G1 X24.661004999999996 Y11.164405 F300
G1 X26.237015 Y12.740415 F300
G1 X28.471005 Y12.740415 F300
